{"version": 0.6, "generator": "Overpass API 0.7.59 e21c39fe", "osm3s": {"timestamp_osm_base": "2022-11-18T21:37:40Z", "copyright": "The data included in this document is from www.openstreetmap.org. The data is made available under ODbL."}, "elements": [{"type": "node", "id": 262105255, "lat": 37.9008036, "lon": -122.2987298}, {"type": "node", "id": 262105256, "lat": 37.9010384, "lon": -122.2979725}, {"type": "node", "id": 262105257, "lat": 37.9009379, "lon": -122.2979209}, {"type": "node", "id": 262105258, "lat": 37.9009113, "lon": -122.2980078}, {"type": "node", "id": 262105259, "lat": 37.9005846, "lon": -122.2978403}, {"type": "node", "id": 262105260, "lat": 37.9006146, "lon": -122.2977589}, {"type": "node", "id": 262105261, "lat": 37.9005288, "lon": -122.2977191}, {"type": "node", "id": 262105262, "lat": 37.9005006, "lon": -122.297799}, {"type": "node", "id": 262105263, "lat": 37.9002047, "lon": -122.2976493}, {"type": "node", "id": 262105264, "lat": 37.8999943, "lon": -122.2983171}, {"type": "node", "id": 262105265, "lat": 37.9001044, "lon": -122.2983728}, {"type": "node", "id": 262105266, "lat": 37.900091, "lon": -122.2984152}, {"type": "node", "id": 262105267, "lat": 37.9001544, "lon": -122.2984473}, {"type": "node", "id": 262105268, "lat": 37.9001698, "lon": -122.2983985}, {"type": "node", "id": 262105269, "lat": 37.9006281, "lon": -122.2986311}, {"type": "node", "id": 262105270, "lat": 37.9006129, "lon": -122.2986793}, {"type": "node", "id": 262105271, "lat": 37.9006727, "lon": -122.2987096}, {"type": "node", "id": 262105272, "lat": 37.9006889, "lon": -122.2986583}, {"type": "node", "id": 262105273, "lat": 37.9002154, "lon": -122.2984216}, {"type": "node", "id": 262105274, "lat": 37.9002061, "lon": -122.298451}, {"type": "node", "id": 262105275, "lat": 37.9005875, "lon": -122.2986106}, {"type": "node", "id": 262105276, "lat": 37.9005784, "lon": -122.2986393}, {"type": "node", "id": 262105293, "lat": 37.9010053, "lon": -122.2980717}, {"type": "node", "id": 276545898, "lat": 37.7693329, "lon": -122.4154926}, {"type": "node", "id": 276545899, "lat": 37.7692666, "lon": -122.4146292}, {"type": "node", "id": 276545900, "lat": 37.7689868, "lon": -122.4146569}, {"type": "node", "id": 276545901, "lat": 37.7689858, "lon": -122.4148131}, {"type": "node", "id": 281652956, "lat": 37.7679744, "lon": -122.4165852}, {"type": "node", "id": 281652957, "lat": 37.7672095, "lon": -122.4165222}, {"type": "node", "id": 281652958, "lat": 37.76726, "lon": -122.4156472}, {"type": "node", "id": 281652959, "lat": 37.7680342, "lon": -122.4157332}, {"type": "node", "id": 286131029, "lat": 37.8046226, "lon": -122.4333382}, {"type": "node", "id": 286131030, "lat": 37.8047381, "lon": -122.4324163}, {"type": "node", "id": 286131031, "lat": 37.8042758, "lon": -122.4323235}, {"type": "node", "id": 286131032, "lat": 37.8041617, "lon": -122.4332338}, {"type": "node", "id": 293632937, "lat": 37.7767382, "lon": -122.3942265, "tags": {"addr:city": "San Francisco", "addr:housenumber": "298", "addr:postcode": "94107", "addr:street": "King Street", "brand": "Safeway", "brand:wikidata": "Q1508234", "brand:wikipedia": "en:Safeway Inc.", "designation": "Safeway 2606", "name": "Safeway", "opening_hours": "Su-Sa 05:00-24:00", "ref": "2606", "shop": "supermarket", "website": "https://local.safeway.com/ca/san-francisco-2606.html", "wheelchair": "yes"}}, {"type": "node", "id": 310601138, "lat": 37.7664883, "lon": -122.4096523}, {"type": "node", "id": 310601139, "lat": 37.7664021, "lon": -122.409644}, {"type": "node", "id": 310601153, "lat": 37.7666921, "lon": -122.4089355}, {"type": "node", "id": 310601154, "lat": 37.7672511, "lon": -122.4089754}, {"type": "node", "id": 310601156, "lat": 37.7672579, "lon": -122.408863}, {"type": "node", "id": 310601157, "lat": 37.7673411, "lon": -122.408871}, {"type": "node", "id": 310601158, "lat": 37.7673308, "lon": -122.4090414}, {"type": "node", "id": 310601159, "lat": 37.7673537, "lon": -122.4090436}, {"type": "node", "id": 332787306, "lat": 37.786265, "lon": -122.4528047, "tags": {"name": "Calmart", "shop": "supermarket", "wheelchair": "yes"}}, {"type": "node", "id": 343311762, "lat": 37.8909942, "lon": -122.2790762}, {"type": "node", "id": 343311763, "lat": 37.891048, "lon": -122.2786826}, {"type": "node", "id": 343311764, "lat": 37.8912778, "lon": -122.278733}, {"type": "node", "id": 343311765, "lat": 37.8913015, "lon": -122.2783203}, {"type": "node", "id": 343311766, "lat": 37.8909379, "lon": -122.2782242}, {"type": "node", "id": 343311767, "lat": 37.8909264, "lon": -122.2783103}, {"type": "node", "id": 343311768, "lat": 37.8909393, "lon": -122.2783319}, {"type": "node", "id": 343311769, "lat": 37.8909028, "lon": -122.2785995}, {"type": "node", "id": 343311770, "lat": 37.8909556, "lon": -122.2786111}, {"type": "node", "id": 343311771, "lat": 37.8909425, "lon": -122.2787065}, {"type": "node", "id": 343311772, "lat": 37.8909302, "lon": -122.2787038}, {"type": "node", "id": 343311773, "lat": 37.8909112, "lon": -122.279058}, {"type": "node", "id": 343311921, "lat": 37.8904558, "lon": -122.2865713}, {"type": "node", "id": 343311922, "lat": 37.8904513, "lon": -122.2865931}, {"type": "node", "id": 343311924, "lat": 37.8901754, "lon": -122.2865223}, {"type": "node", "id": 343311937, "lat": 37.8900829, "lon": -122.2872554}, {"type": "node", "id": 343311942, "lat": 37.8902563, "lon": -122.287313}, {"type": "node", "id": 343311943, "lat": 37.8902755, "lon": -122.2872202}, {"type": "node", "id": 343317788, "lat": 37.8988539, "lon": -122.2995747, "tags": {"addr:city": "El Cerrito", "addr:housenumber": "225", "addr:postcode": "94530", "addr:state": "CA", "addr:street": "El Cerrito Plaza", "brand": "Trader Joe's", "brand:wikidata": "Q688825", "brand:wikipedia": "en:Trader Joe's", "name": "Trader Joe's", "opening_hours": "Mo-Su 08:00-21:00", "phone": "(510) 524-7609", "shop": "supermarket", "website": "https://locations.traderjoes.com/ca/el-cerrito/108/", "wheelchair": "yes"}}, {"type": "node", "id": 364880844, "lat": 37.8812871, "lon": -122.2824995}, {"type": "node", "id": 364880845, "lat": 37.8813827, "lon": -122.2823104}, {"type": "node", "id": 364880846, "lat": 37.8813141, "lon": -122.2822546}, {"type": "node", "id": 364880847, "lat": 37.8813502, "lon": -122.2821832}, {"type": "node", "id": 364880848, "lat": 37.8810977, "lon": -122.2820825}, {"type": "node", "id": 364880849, "lat": 37.8810627, "lon": -122.2821518}, {"type": "node", "id": 364880850, "lat": 37.8810057, "lon": -122.2821055}, {"type": "node", "id": 364880851, "lat": 37.8809463, "lon": -122.2822228}, {"type": "node", "id": 371233599, "lat": 37.7824579, "lon": -122.4318791}, {"type": "node", "id": 389404007, "lat": 37.7811499, "lon": -122.3997789, "tags": {"brand": "Whole Foods Market", "brand:wikidata": "Q1809448", "brand:wikipedia": "en:Whole Foods Market", "name": "Whole Foods Market", "opening_hours": "8:00-20:00", "phone": "415.618.0066", "shop": "supermarket", "website": "https://www.wholefoodsmarket.com/stores/soma"}}, {"type": "node", "id": 393729801, "lat": 37.7835915, "lon": -122.4476773}, {"type": "node", "id": 393729802, "lat": 37.7832277, "lon": -122.4475872}, {"type": "node", "id": 393729803, "lat": 37.7831877, "lon": -122.4480197}, {"type": "node", "id": 393729804, "lat": 37.7835385, "lon": -122.4480914}, {"type": "node", "id": 411910255, "lat": 37.7765031, "lon": -122.4172584}, {"type": "node", "id": 411910256, "lat": 37.7761861, "lon": -122.4168639}, {"type": "node", "id": 416779714, "lat": 37.8000223, "lon": -122.4416127, "tags": {"addr:city": "San Francisco", "addr:housenumber": "2323", "addr:state": "CA", "addr:street": "Chestnut Street", "name": "Marina Supermarket", "shop": "supermarket", "wheelchair": "yes"}}, {"type": "node", "id": 477131697, "lat": 37.8986536, "lon": -122.3071439, "tags": {"addr:postcode": "94804", "alt_name": "Ranch 99 Market", "brand": "99 Ranch Market", "brand:wikidata": "Q4646307", "brand:wikipedia": "en:99 Ranch Market", "cuisine": "asian", "name": "99 Ranch Market", "name:en": "99 Ranch Market", "name:zh-Hans": "\u5927\u534e\u8d85\u7ea7\u5e02\u573a", "name:zh-Hant": "\u5927\u83ef\u8d85\u7d1a\u5e02\u5834", "opening_hours": "Mo-Su 08:00-21:00", "phone": "+15107698899", "shop": "supermarket", "website": "https://www.99ranch.com/stores/richmond", "wheelchair": "limited"}}, {"type": "node", "id": 537501766, "lat": 37.7708354, "lon": -122.4181574}, {"type": "node", "id": 537501767, "lat": 37.770181, "lon": -122.4185049}, {"type": "node", "id": 537501769, "lat": 37.770219, "lon": -122.4187577}, {"type": "node", "id": 537501770, "lat": 37.7708659, "lon": -122.4185617}, {"type": "node", "id": 537501796, "lat": 37.77063, "lon": -122.4186344}, {"type": "node", "id": 537501829, "lat": 37.7707192, "lon": -122.4183405}, {"type": "node", "id": 537501830, "lat": 37.7707039, "lon": -122.4181199}, {"type": "node", "id": 612767884, "lat": 37.7986741, "lon": -122.4090015, "tags": {"addr:city": "San Francisco", "addr:country": "US", "addr:housenumber": "1401", "addr:state": "CA", "addr:street": "Stockton Street", "name": "JW & L Market", "name:zh": "\u6046\u8208\u8d85\u7d1a\u5e02\u5834", "phone": "+1 415 3972668", "shop": "supermarket"}}, {"type": "node", "id": 669533769, "lat": 37.8538145, "lon": -122.289775}, {"type": "node", "id": 669533770, "lat": 37.8536169, "lon": -122.2907319}, {"type": "node", "id": 669533771, "lat": 37.8532218, "lon": -122.290601}, {"type": "node", "id": 669533772, "lat": 37.8532039, "lon": -122.2906879}, {"type": "node", "id": 669533773, "lat": 37.8528307, "lon": -122.2905642}, {"type": "node", "id": 669533774, "lat": 37.8529648, "lon": -122.2899156}, {"type": "node", "id": 669533775, "lat": 37.8535852, "lon": -122.2901212}, {"type": "node", "id": 669533777, "lat": 37.8536668, "lon": -122.289726}, {"type": "node", "id": 732040844, "lat": 37.8064387, "lon": -122.41289, "tags": {"addr:city": "San Francisco", "addr:housenumber": "350", "addr:postcode": "94133", "addr:street": "Bay Street", "branch": "1206", "brand": "Safeway", "brand:wikidata": "Q1508234", "brand:wikipedia": "en:Safeway Inc.", "designation": "Safeway 1206", "name": "Safeway", "opening_hours": "06:00-24:00", "shop": "supermarket", "website": "https://local.safeway.com/ca/san-francisco-1206.html"}}, {"type": "node", "id": 764070894, "lat": 37.7690068, "lon": -122.4155183}, {"type": "node", "id": 904141569, "lat": 37.7797642, "lon": -122.4099802, "tags": {"name": "Starco Mart", "organic": "only", "shop": "supermarket"}}, {"type": "node", "id": 910883477, "lat": 37.8683448, "lon": -122.29451, "tags": {"addr:street": "9th Street", "name": "Milan Indian Grocery", "opening_hours": "Tu-Su 09:30-18:00", "shop": "supermarket", "wheelchair": "limited"}}, {"type": "node", "id": 910883497, "lat": 37.8679107, "lon": -122.2919929, "tags": {"addr:street": "San Pablo Avenue", "name": "Mi Tierra", "opening_hours": "Mo-Su 06:30-20:00", "phone": "+15105408946", "shop": "supermarket"}}, {"type": "node", "id": 939010949, "lat": 37.9041156, "lon": -122.27812}, {"type": "node", "id": 939010950, "lat": 37.9041574, "lon": -122.2779651}, {"type": "node", "id": 939010951, "lat": 37.9039677, "lon": -122.2778035}, {"type": "node", "id": 939010952, "lat": 37.9038975, "lon": -122.2780561}, {"type": "node", "id": 988503860, "lat": 37.8812074, "lon": -122.2820672}, {"type": "node", "id": 988503861, "lat": 37.88117, "lon": -122.2821411}, {"type": "node", "id": 992416904, "lat": 37.8992663, "lon": -122.2866819, "tags": {"name": "Colusa Market", "shop": "supermarket"}}, {"type": "node", "id": 1002186270, "lat": 37.7900899, "lon": -122.4234142, "tags": {"addr:city": "San Francisco", "addr:country": "US", "addr:housenumber": "1765", "addr:postcode": "94109", "addr:state": "CA", "addr:street": "California Street", "brand": "Whole Foods Market", "brand:wikidata": "Q1809448", "brand:wikipedia": "en:Whole Foods Market", "name": "Whole Foods Market", "opening_hours": "Mo-Su 08:00-22:00", "phone": "+1 415 674 0500", "shop": "supermarket"}}, {"type": "node", "id": 1042049251, "lat": 37.8369883, "lon": -122.2939699}, {"type": "node", "id": 1042049261, "lat": 37.8368769, "lon": -122.2939617}, {"type": "node", "id": 1042049262, "lat": 37.8371214, "lon": -122.2944341}, {"type": "node", "id": 1042049263, "lat": 37.8370676, "lon": -122.2942436}, {"type": "node", "id": 1042049283, "lat": 37.8371068, "lon": -122.2945055}, {"type": "node", "id": 1042049295, "lat": 37.8372068, "lon": -122.2945395}, {"type": "node", "id": 1042049298, "lat": 37.8367992, "lon": -122.2942963}, {"type": "node", "id": 1042049303, "lat": 37.8368318, "lon": -122.2943675}, {"type": "node", "id": 1042049322, "lat": 37.8372292, "lon": -122.2944283}, {"type": "node", "id": 1042049332, "lat": 37.8368545, "lon": -122.2943508}, {"type": "node", "id": 1042049354, "lat": 37.8368156, "lon": -122.2942846}, {"type": "node", "id": 1213823254, "lat": 37.7709988, "lon": -122.4077368, "tags": {"addr:city": "San Francisco", "addr:housenumber": "555", "addr:postcode": "94103", "addr:state": "CA", "addr:street": "9th Street", "brand": "Trader Joe's", "brand:wikidata": "Q688825", "brand:wikipedia": "en:Trader Joe's", "name": "Trader Joe's", "opening_hours": "Mo-Su 08:00-22:00", "phone": "+1 415-863-1292", "shop": "supermarket", "wheelchair": "yes"}}, {"type": "node", "id": 1305397495, "lat": 37.8423296, "lon": -122.283254, "tags": {"name": "Gateway Grocery", "shop": "supermarket"}}, {"type": "node", "id": 1350484814, "lat": 37.7928844, "lon": -122.416234, "tags": {"addr:housenumber": "1263", "addr:postcode": "94109", "addr:street": "Leavenworth Street", "name": "Le Beau Market", "payment:cash": "yes", "payment:credit_cards": "yes", "shop": "supermarket", "source": "personal knowlege"}}, {"type": "node", "id": 1366261149, "lat": 37.7796231, "lon": -122.4075474, "tags": {"name": "Mi Tierra", "shop": "supermarket", "wheelchair": "yes"}}, {"type": "node", "id": 1413800126, "lat": 37.9074126, "lon": -122.3065683}, {"type": "node", "id": 1413800132, "lat": 37.9075385, "lon": -122.3062611}, {"type": "node", "id": 1413800141, "lat": 37.907304, "lon": -122.3061096}, {"type": "node", "id": 1478520948, "lat": 37.7965466, "lon": -122.4217072, "tags": {"addr:city": "San Francisco", "addr:housenumber": "2140", "addr:postcode": "94109", "addr:state": "CA", "addr:street": "Polk Street", "alt_name": "The Real Food Co.", "check_date": "2021-08-11", "contact:instagram": "realfoodspolk", "email": "hello@realfoodco.com", "name": "Real Food Company", "opening_hours": "Mo-Su 8:00-21:00", "opening_hours:url": "https://www.realfoodco.com/", "organic": "yes", "phone": "+1 415 6737420", "shop": "supermarket", "website": "https://www.realfoodco.com/"}}, {"type": "node", "id": 1669811032, "lat": 37.8699429, "lon": -122.2922014, "tags": {"name": "99 cent store", "shop": "supermarket", "website": "https://99only.com/stores/berkeley-san-pablo-ave-289"}}, {"type": "node", "id": 1706618868, "lat": 37.7761053, "lon": -122.4459793, "tags": {"addr:city": "San Francisco", "addr:country": "US", "addr:housenumber": "1750", "addr:postcode": "94117", "addr:state": "CA", "addr:street": "Fulton Street", "alt_name": "Fulton Market", "brand": "Lucky", "brand:wikidata": "Q6698032", "brand:wikipedia": "en:Lucky Stores", "name": "Lucky", "old_name": "Petrini Market", "shop": "supermarket"}}, {"type": "node", "id": 1723375479, "lat": 37.7690956, "lon": -122.428969}, {"type": "node", "id": 1779680166, "lat": 37.8751977, "lon": -122.4598234, "tags": {"name": "Woodland Market", "shop": "supermarket", "wheelchair": "yes"}}, {"type": "node", "id": 1803661669, "lat": 37.7689766, "lon": -122.4151784}, {"type": "node", "id": 1803661671, "lat": 37.7689904, "lon": -122.4150092}, {"type": "node", "id": 1803661672, "lat": 37.7689123, "lon": -122.4148112}, {"type": "node", "id": 1803661674, "lat": 37.7687992, "lon": -122.4151657}, {"type": "node", "id": 1803661675, "lat": 37.7689925, "lon": -122.4151795}, {"type": "node", "id": 1803661676, "lat": 37.7687892, "lon": -122.415501}, {"type": "node", "id": 1803661678, "lat": 37.7689111, "lon": -122.4150064}, {"type": "node", "id": 2019596502, "lat": 37.9005132, "lon": -122.2977591}, {"type": "node", "id": 2130264969, "lat": 37.8054807, "lon": -122.4137896, "tags": {"addr:city": "San Francisco", "addr:housenumber": "401", "addr:postcode": "94133", "addr:state": "CA", "addr:street": "Bay Street", "brand": "Trader Joe's", "brand:wikidata": "Q688825", "brand:wikipedia": "en:Trader Joe's", "name": "Trader Joe's", "opening_hours": "Mo-Su 08:00-21:00", "phone": "+1 415-351-1013", "shop": "supermarket"}}, {"type": "node", "id": 2184767720, "lat": 37.7852546, "lon": -122.4310324, "tags": {"addr:city": "San Francisco", "addr:housenumber": "1737", "addr:postcode": "94115", "addr:state": "CA", "addr:street": "Post Street", "addr:unit": "#333", "brand:wikidata": "Q24566947", "brand:wikipedia": "en:Nijiya Market", "cuisine": "japanese", "level": "0", "name": "Nijiya Market", "opening_hours": "Mo-Su 10:00-20:00", "opening_hours:url": "https://www.nijiya.com/store-location", "organic": "yes", "phone": "+1 415 5631901", "shop": "supermarket", "website": "https://www.nijiya.com/", "wheelchair": "yes", "wikimedia_commons": "Category:Nijiya Market (San Francisco store)"}}, {"type": "node", "id": 2184790554, "lat": 37.7907686, "lon": -122.4179305, "tags": {"addr:city": "San Francisco", "addr:housenumber": "1095", "addr:postcode": "94109", "addr:state": "CA", "addr:street": "Hyde Street", "brand": "Trader Joe's", "brand:wikidata": "Q688825", "brand:wikipedia": "en:Trader Joe's", "name": "Trader Joe's", "opening_hours": "Mo-Su 08:00-22:00", "phone": "+1 415-292-7665", "shop": "supermarket"}}, {"type": "node", "id": 2206275695, "lat": 37.8903782, "lon": -122.2872543}, {"type": "node", "id": 2206275696, "lat": 37.8905155, "lon": -122.2865911}, {"type": "node", "id": 2206283678, "lat": 37.8912797, "lon": -122.2786997, "tags": {"entrance": "yes"}}, {"type": "node", "id": 2206283690, "lat": 37.8909513, "lon": -122.2786422, "tags": {"entrance": "yes"}}, {"type": "node", "id": 2220082604, "lat": 37.7959769, "lon": -122.4149018, "tags": {"addr:city": "San Francisco", "addr:street": "Jones Street", "name": "New Russian Hill Market", "shop": "supermarket"}}, {"type": "node", "id": 2282647804, "lat": 37.782928, "lon": -122.4319648}, {"type": "node", "id": 2282647806, "lat": 37.7830319, "lon": -122.4311293}, {"type": "node", "id": 2282647807, "lat": 37.7824894, "lon": -122.4316353}, {"type": "node", "id": 2282647810, "lat": 37.7825633, "lon": -122.4310618}, {"type": "node", "id": 2282647813, "lat": 37.78307, "lon": -122.4312996}, {"type": "node", "id": 2282647814, "lat": 37.7830141, "lon": -122.431288}, {"type": "node", "id": 2282647815, "lat": 37.7829484, "lon": -122.4318096}, {"type": "node", "id": 2282647817, "lat": 37.7824226, "lon": -122.4313783}, {"type": "node", "id": 2282647818, "lat": 37.7824603, "lon": -122.4310423}, {"type": "node", "id": 2282647819, "lat": 37.7825668, "lon": -122.4310345}, {"type": "node", "id": 2282647820, "lat": 37.7830065, "lon": -122.4318159}, {"type": "node", "id": 2282647824, "lat": 37.7825207, "lon": -122.4313928}, {"type": "node", "id": 2282799645, "lat": 37.8042499, "lon": -122.432959}, {"type": "node", "id": 2282799648, "lat": 37.8042141, "lon": -122.4332443}, {"type": "node", "id": 2282799649, "lat": 37.8042746, "lon": -122.4332683}, {"type": "node", "id": 2282799654, "lat": 37.8043118, "lon": -122.4329714}, {"type": "node", "id": 2282801961, "lat": 37.7689283, "lon": -122.4277704}, {"type": "node", "id": 2282801963, "lat": 37.7688315, "lon": -122.4278849}, {"type": "node", "id": 2282801964, "lat": 37.7690313, "lon": -122.4277337}, {"type": "node", "id": 2282801965, "lat": 37.768776, "lon": -122.4287807}, {"type": "node", "id": 2282801966, "lat": 37.7694442, "lon": -122.4277087}, {"type": "node", "id": 2282801967, "lat": 37.7688809, "lon": -122.4278898}, {"type": "node", "id": 2282801970, "lat": 37.7690354, "lon": -122.4276681}, {"type": "node", "id": 2282801971, "lat": 37.7691052, "lon": -122.4288134}, {"type": "node", "id": 2282804190, "lat": 37.7664463, "lon": -122.4089143}, {"type": "node", "id": 2294690551, "lat": 37.7693293, "lon": -122.4529985}, {"type": "node", "id": 2294690553, "lat": 37.7696717, "lon": -122.4525122}, {"type": "node", "id": 2294690556, "lat": 37.7697063, "lon": -122.453077}, {"type": "node", "id": 2294690561, "lat": 37.7697769, "lon": -122.4525341}, {"type": "node", "id": 2303037496, "lat": 37.7949012, "lon": -122.3928736, "tags": {"addr:city": "San Francisco", "addr:housename": "38C South Entrance", "addr:housenumber": "1", "addr:postcode": "94111", "addr:street": "Ferry Plaza", "name": "Buyer's Best Friend Wholesale & Market", "operator": "Buyer's Best Friend", "payment:bitcoin": "yes", "shop": "supermarket", "wheelchair": "yes"}}, {"type": "node", "id": 2338835471, "lat": 37.777716, "lon": -122.43816, "tags": {"addr:city": "San Francisco", "addr:housenumber": "860", "addr:postcode": "94117", "addr:state": "CA", "addr:street": "Divisadero Street", "name": "Green Earth", "opening_hours": "Mo-Su 09:00-21:00", "shop": "supermarket", "website": "http://www.greenearthnaturalfoods.com/"}}, {"type": "node", "id": 2368783178, "lat": 37.769376, "lon": -122.4526389}, {"type": "node", "id": 2368784957, "lat": 37.7696608, "lon": -122.4525962}, {"type": "node", "id": 2368791978, "lat": 37.7696463, "lon": -122.4525932}, {"type": "node", "id": 2368791980, "lat": 37.7696334, "lon": -122.4526924}, {"type": "node", "id": 2430288254, "lat": 37.772945, "lon": -122.430492, "tags": {"addr:city": "San Francisco", "addr:housenumber": "378", "addr:postcode": "94117", "addr:street": "Fillmore Street", "name": "Abes Market", "shop": "supermarket"}}, {"type": "node", "id": 2475998084, "lat": 37.8701314, "lon": -122.3013572, "tags": {"addr:city": "Berkeley", "addr:housenumber": "1786", "addr:postcode": "94710", "addr:state": "CA", "addr:street": "Fourth Street", "contact:instagram": "https://www.instagram.com/markethallfoods", "name": "Market Hall Foods", "opening_hours": "Mo-Su 10:00-16:00", "phone": "+1-510-250-6004", "shop": "supermarket", "website": "https://www.markethallfoodson4th.com/"}}, {"type": "node", "id": 2479681841, "lat": 37.7687435, "lon": -122.4270651, "tags": {"addr:housenumber": "2001", "addr:postcode": "94114", "addr:street": "Market Street", "brand": "Whole Foods Market", "brand:wikidata": "Q1809448", "brand:wikipedia": "en:Whole Foods Market", "name": "Whole Foods Market", "opening_hours": "Mo-Su 08:00-22:00", "phone": "+1 (510) 428-7400", "shop": "supermarket", "website": "https://www.wholefoodsmarket.com/stores/2001marketstreet"}}, {"type": "node", "id": 2509602338, "lat": 37.7759084, "lon": -122.4116478}, {"type": "node", "id": 2509602395, "lat": 37.7758048, "lon": -122.4117803}, {"type": "node", "id": 2509602403, "lat": 37.7758757, "lon": -122.411869}, {"type": "node", "id": 2509602414, "lat": 37.7758355, "lon": -122.4115565}, {"type": "node", "id": 2509602439, "lat": 37.7760661, "lon": -122.4116253}, {"type": "node", "id": 2509602452, "lat": 37.7759224, "lon": -122.4114454}, {"type": "node", "id": 2665234938, "lat": 37.7936808, "lon": -122.4043768}, {"type": "node", "id": 2665234939, "lat": 37.7937032, "lon": -122.4041987}, {"type": "node", "id": 2665234948, "lat": 37.7937253, "lon": -122.4042031}, {"type": "node", "id": 2665234954, "lat": 37.7937449, "lon": -122.404207}, {"type": "node", "id": 2665234969, "lat": 37.7938057, "lon": -122.4044019}, {"type": "node", "id": 2665234978, "lat": 37.793828, "lon": -122.4042238}, {"type": "node", "id": 2665287342, "lat": 37.7968117, "lon": -122.39884}, {"type": "node", "id": 2665287350, "lat": 37.7968648, "lon": -122.3984342}, {"type": "node", "id": 2665287363, "lat": 37.7969329, "lon": -122.3988642}, {"type": "node", "id": 2665287365, "lat": 37.7969899, "lon": -122.3984599}, {"type": "node", "id": 2665667337, "lat": 37.7982096, "lon": -122.4099919}, {"type": "node", "id": 2665667338, "lat": 37.7982245, "lon": -122.4098758}, {"type": "node", "id": 2665667343, "lat": 37.7983532, "lon": -122.4100213}, {"type": "node", "id": 2665667345, "lat": 37.798368, "lon": -122.4099052}, {"type": "node", "id": 2669246202, "lat": 37.7747303, "lon": -122.4376279}, {"type": "node", "id": 2669246205, "lat": 37.7747346, "lon": -122.4375929}, {"type": "node", "id": 2669246223, "lat": 37.7747609, "lon": -122.4373779}, {"type": "node", "id": 2669246227, "lat": 37.7747672, "lon": -122.4373269}, {"type": "node", "id": 2669246258, "lat": 37.7748409, "lon": -122.4373399}, {"type": "node", "id": 2669246260, "lat": 37.774841, "lon": -122.4376499}, {"type": "node", "id": 2669246322, "lat": 37.7748712, "lon": -122.4373464}, {"type": "node", "id": 2683767151, "lat": 37.775563, "lon": -122.4583124}, {"type": "node", "id": 2683767168, "lat": 37.7755918, "lon": -122.458079}, {"type": "node", "id": 2683767180, "lat": 37.7756085, "lon": -122.457956}, {"type": "node", "id": 2683767211, "lat": 37.7756434, "lon": -122.4583277}, {"type": "node", "id": 2683767212, "lat": 37.7756439, "lon": -122.4583181}, {"type": "node", "id": 2683767244, "lat": 37.7756909, "lon": -122.458331}, {"type": "node", "id": 2683767249, "lat": 37.7756934, "lon": -122.4583101}, {"type": "node", "id": 2683767259, "lat": 37.7756985, "lon": -122.4583115}, {"type": "node", "id": 2683767268, "lat": 37.7757259, "lon": -122.4581005}, {"type": "node", "id": 2683767278, "lat": 37.7757426, "lon": -122.4579669}, {"type": "node", "id": 2688485786, "lat": 37.7883712, "lon": -122.4346022}, {"type": "node", "id": 2688485788, "lat": 37.7884025, "lon": -122.4343461}, {"type": "node", "id": 2688485804, "lat": 37.7886779, "lon": -122.4346621}, {"type": "node", "id": 2688485805, "lat": 37.7887092, "lon": -122.434406}, {"type": "node", "id": 2693004231, "lat": 37.7694214, "lon": -122.4505453, "tags": {"addr:housenumber": "1699", "addr:street": "Haight Street", "name": "Frank's Liquors", "shop": "supermarket"}}, {"type": "node", "id": 2698387925, "lat": 37.7902045, "lon": -122.420782, "tags": {"addr:city": "San Francisco", "addr:housenumber": "1475", "addr:postcode": "94109", "addr:street": "Polk Street", "name": "golden farmers market", "payment:credit_cards": "yes", "phone": "(415) 771-9099", "shop": "supermarket", "wheelchair": "yes"}}, {"type": "node", "id": 2700575435, "lat": 37.7699991, "lon": -122.4476777}, {"type": "node", "id": 2700575437, "lat": 37.7700097, "lon": -122.4475913}, {"type": "node", "id": 2700575441, "lat": 37.7700199, "lon": -122.447508}, {"type": "node", "id": 2700575683, "lat": 37.7703536, "lon": -122.447747}, {"type": "node", "id": 2700575702, "lat": 37.7703879, "lon": -122.4477537}, {"type": "node", "id": 2700575711, "lat": 37.7703984, "lon": -122.4476674}, {"type": "node", "id": 2700575714, "lat": 37.7704086, "lon": -122.447584}, {"type": "node", "id": 2703036789, "lat": 37.7649828, "lon": -122.4497116}, {"type": "node", "id": 2703036791, "lat": 37.7649837, "lon": -122.4496844}, {"type": "node", "id": 2703036793, "lat": 37.764986, "lon": -122.4496849}, {"type": "node", "id": 2703036799, "lat": 37.7650247, "lon": -122.4493436}, {"type": "node", "id": 2703036827, "lat": 37.7650785, "lon": -122.44973}, {"type": "node", "id": 2703036830, "lat": 37.7650812, "lon": -122.4497069}, {"type": "node", "id": 2703036875, "lat": 37.765122, "lon": -122.4493684}, {"type": "node", "id": 2703036878, "lat": 37.7651227, "lon": -122.4493624}, {"type": "node", "id": 2781967130, "lat": 37.7863128, "lon": -122.4509854}, {"type": "node", "id": 2781967131, "lat": 37.7863306, "lon": -122.4509891}, {"type": "node", "id": 2781967133, "lat": 37.7863513, "lon": -122.4506878}, {"type": "node", "id": 2781967134, "lat": 37.7863648, "lon": -122.4506906}, {"type": "node", "id": 2781967135, "lat": 37.7863686, "lon": -122.4506612}, {"type": "node", "id": 2781967165, "lat": 37.786546, "lon": -122.4510337}, {"type": "node", "id": 2781967167, "lat": 37.7865526, "lon": -122.4510351}, {"type": "node", "id": 2781967169, "lat": 37.7865949, "lon": -122.4507081}, {"type": "node", "id": 2922201529, "lat": 37.7673166, "lon": -122.4096287}, {"type": "node", "id": 2972235799, "lat": 37.7673114, "lon": -122.4097311}, {"type": "node", "id": 2977763531, "lat": 37.8804898, "lon": -122.298084}, {"type": "node", "id": 2977763532, "lat": 37.8805674, "lon": -122.2976921}, {"type": "node", "id": 2977764834, "lat": 37.8805932, "lon": -122.2977003}, {"type": "node", "id": 2977764835, "lat": 37.8806871, "lon": -122.2972262}, {"type": "node", "id": 2977764836, "lat": 37.8808436, "lon": -122.2981889}, {"type": "node", "id": 2977764837, "lat": 37.8808822, "lon": -122.2979937}, {"type": "node", "id": 3148123214, "lat": 37.7979062, "lon": -122.4085421, "tags": {"name": "Pang Kee Bargain Market", "shop": "supermarket"}}, {"type": "node", "id": 3148123215, "lat": 37.798411, "lon": -122.4086385, "tags": {"name": "Sun Kau Shing Co., Inc.", "shop": "supermarket"}}, {"type": "node", "id": 3376135508, "lat": 37.7884234, "lon": -122.4165679, "tags": {"addr:city": "San Francisco", "addr:housenumber": "988", "addr:postcode": "94109", "addr:state": "CA", "addr:street": "Sutter Street", "name": "Sutter Fine Foods", "opening_hours": "Su,Mo-Fr 07:00-24:00; Sa off", "shop": "supermarket"}}, {"type": "node", "id": 3574958424, "lat": 37.8811421, "lon": -122.2973709}, {"type": "node", "id": 3574958425, "lat": 37.8810107, "lon": -122.2980346}, {"type": "node", "id": 3641710571, "lat": 37.7764867, "lon": -122.4116366, "tags": {"addr:street": "8th Street", "name": "Harvest Urban Market", "opening_hours": "Mo-Su 07:00-22:00", "shop": "supermarket"}}, {"type": "node", "id": 3850073315, "lat": 37.7639653, "lon": -122.4127878, "tags": {"addr:housenumber": "2111", "addr:postcode": "94110", "addr:street": "Harrison Street", "name": "Gus's Community Market", "opening_hours": "07:00-22:00", "phone": "+1 415 431 9300", "shop": "supermarket", "website": "https://gussmarket.com/"}}, {"type": "node", "id": 3969574176, "lat": 37.795529, "lon": -122.4100247, "tags": {"name": "Kiki Supermarket", "shop": "supermarket"}}, {"type": "node", "id": 3998379075, "lat": 37.7687884, "lon": -122.4155118}, {"type": "node", "id": 3998379080, "lat": 37.7689825, "lon": -122.4150091}, {"type": "node", "id": 3998379081, "lat": 37.7693163, "lon": -122.415273}, {"type": "node", "id": 3998379083, "lat": 37.7693231, "lon": -122.4153692}, {"type": "node", "id": 3998379085, "lat": 37.7693264, "lon": -122.4154047}, {"type": "node", "id": 4017211397, "lat": 37.7969706, "lon": -122.4083521, "tags": {"name": "Dong Hing Supermarket", "shop": "supermarket", "wheelchair": "yes"}}, {"type": "node", "id": 4017220288, "lat": 37.7970928, "lon": -122.4086681, "tags": {"addr:housenumber": "1215", "addr:street": "Stockton Street", "name": "J & L Vegi Supermarket", "shop": "supermarket"}}, {"type": "node", "id": 4318478491, "lat": 37.7853965, "lon": -122.2798406}, {"type": "node", "id": 4318478520, "lat": 37.7856854, "lon": -122.2811186}, {"type": "node", "id": 4318478521, "lat": 37.7856594, "lon": -122.2800186}, {"type": "node", "id": 4318478528, "lat": 37.7854007, "lon": -122.2800266}, {"type": "node", "id": 4485989999, "lat": 37.776893, "lon": -122.416756}, {"type": "node", "id": 4547291183, "lat": 37.7703233, "lon": -122.4187274}, {"type": "node", "id": 4625108173, "lat": 37.7948993, "lon": -122.4149473, "tags": {"name": "Jackson Market", "opening_hours": "Mo-Sa 14:00-19:00", "shop": "supermarket", "wheelchair": "yes"}}, {"type": "node", "id": 4631876719, "lat": 37.7840482, "lon": -122.4107866, "tags": {"name": "Cool Super Discount Market", "shop": "supermarket"}}, {"type": "node", "id": 4631891265, "lat": 37.7857309, "lon": -122.4145173, "tags": {"name": "Right Way", "shop": "supermarket"}}, {"type": "node", "id": 4637210183, "lat": 37.7944737, "lon": -122.4182553, "tags": {"name": "J H Grocery and Liquor", "shop": "supermarket"}}, {"type": "node", "id": 4637773272, "lat": 37.7842393, "lon": -122.4111301, "tags": {"name": "Daldas Market", "shop": "supermarket"}}, {"type": "node", "id": 4637773279, "lat": 37.7879975, "lon": -122.4118912, "tags": {"name": "Town and County Market", "opening_hours:signed": "no", "shop": "supermarket"}}, {"type": "node", "id": 4661543003, "lat": 37.7643298, "lon": -122.4027236, "tags": {"addr:city": "San Francisco", "addr:housenumber": "450", "addr:postcode": "94107", "addr:state": "CA", "addr:street": "Rhode Island Street", "brand": "Whole Foods Market", "brand:wikidata": "Q1809448", "brand:wikipedia": "en:Whole Foods Market", "name": "Whole Foods Market", "operator": "Whole Foods", "phone": "+1 415 552-1155", "shop": "supermarket", "website": "https://www.wholefoodsmarket.com/stores/potrerohill", "wheelchair": "no"}}, {"type": "node", "id": 4693634740, "lat": 37.7742721, "lon": -122.391412, "tags": {"addr:city": "San Francisco", "addr:housenumber": "1101", "addr:postcode": "94158", "addr:state": "CA", "addr:street": "4th Street", "name": "Gus's Community Market", "opening_hours": "PH,Mo-Su 08:00-21:00", "payment:cash": "yes", "payment:contactless": "yes", "payment:credit_cards": "yes", "shop": "supermarket", "wheelchair": "yes"}}, {"type": "node", "id": 4704557447, "lat": 37.785398, "lon": -122.4056288, "tags": {"addr:city": "San Francisco", "addr:housenumber": "10", "addr:postcode": "94103", "addr:state": "CA", "addr:street": "4th Street", "brand": "Trader Joe's", "brand:wikidata": "Q688825", "brand:wikipedia": "en:Trader Joe's", "check_date:opening_hours": "2022-10-14", "level": "-1", "name": "Trader Joe's", "opening_hours": "Mo-Su 08:00-21:00", "shop": "supermarket"}}, {"type": "node", "id": 4721943034, "lat": 37.8810757, "lon": -122.2977062}, {"type": "node", "id": 4721943052, "lat": 37.8811284, "lon": -122.2974403}, {"type": "node", "id": 4772921740, "lat": 37.8900977, "lon": -122.2871839}, {"type": "node", "id": 4772926230, "lat": 37.8904034, "lon": -122.286598}, {"type": "node", "id": 4772927354, "lat": 37.8904074, "lon": -122.2865785}, {"type": "node", "id": 4772927887, "lat": 37.8900423, "lon": -122.2871655}, {"type": "node", "id": 4777439529, "lat": 37.9072597, "lon": -122.3064353}, {"type": "node", "id": 4777439530, "lat": 37.9071811, "lon": -122.3063835}, {"type": "node", "id": 4777439531, "lat": 37.9072493, "lon": -122.3064607}, {"type": "node", "id": 4852448016, "lat": 37.7733138, "lon": -122.4389402, "tags": {"addr:city": "San Francisco", "addr:housenumber": "302", "addr:postcode": "94127", "addr:state": "CA", "addr:street": "Broderick Street", "level": "0", "name": "Falletti Foods", "opening_hours": "Mo-Su 07:00-21:00", "shop": "supermarket", "website": "http://fallettifoods.com"}}, {"type": "node", "id": 4925653001, "lat": 37.7935837, "lon": -122.4110435, "tags": {"shop": "supermarket"}}, {"type": "node", "id": 5070942446, "lat": 37.8369187, "lon": -122.2943658}, {"type": "node", "id": 5070942463, "lat": 37.8368594, "lon": -122.2943605}, {"type": "node", "id": 5070942480, "lat": 37.8369161, "lon": -122.2943788}, {"type": "node", "id": 5270843145, "lat": 37.7824723, "lon": -122.4317597}, {"type": "node", "id": 5421746769, "lat": 37.891182, "lon": -122.278712}, {"type": "node", "id": 5421746772, "lat": 37.8912276, "lon": -122.278722}, {"type": "node", "id": 5437182833, "lat": 37.7696338, "lon": -122.453061}, {"type": "node", "id": 5598432671, "lat": 37.7693808, "lon": -122.4286493}, {"type": "node", "id": 5598432672, "lat": 37.7693858, "lon": -122.4286499}, {"type": "node", "id": 5598432675, "lat": 37.7693221, "lon": -122.4289745}, {"type": "node", "id": 5598432676, "lat": 37.7693635, "lon": -122.4289297}, {"type": "node", "id": 5598432677, "lat": 37.7689041, "lon": -122.4278048}, {"type": "node", "id": 5598432678, "lat": 37.7689152, "lon": -122.4277865}, {"type": "node", "id": 5598432679, "lat": 37.7688885, "lon": -122.4278444}, {"type": "node", "id": 5598432680, "lat": 37.7688957, "lon": -122.4278238}, {"type": "node", "id": 5598432681, "lat": 37.7689593, "lon": -122.4277469}, {"type": "node", "id": 5598432682, "lat": 37.7688841, "lon": -122.4278667}, {"type": "node", "id": 5598432683, "lat": 37.7689934, "lon": -122.4277351}, {"type": "node", "id": 5598432684, "lat": 37.768943, "lon": -122.4277579}, {"type": "node", "id": 5598432685, "lat": 37.768976, "lon": -122.4277399}, {"type": "node", "id": 5598432686, "lat": 37.7690112, "lon": -122.4277334}, {"type": "node", "id": 5598432691, "lat": 37.7691561, "lon": -122.428975}, {"type": "node", "id": 5598432692, "lat": 37.7691572, "lon": -122.4289582}, {"type": "node", "id": 5616585421, "lat": 37.8852078, "lon": -122.2978846, "tags": {"addr:housenumber": "1075", "addr:postcode": "94706", "addr:street": "Monroe Street", "brand": "Sprouts Farmers Market", "brand:wikidata": "Q7581369", "brand:wikipedia": "en:Sprouts Farmers Market", "check_date:opening_hours": "2022-10-11", "name": "Sprouts Farmers Market", "opening_hours": "Mo-Su 07:00-22:00", "phone": "(510) 345-0461", "shop": "supermarket", "short_name": "Sprouts", "website": "https://www.sprouts.com/store/ca/albany/albany/", "wheelchair": "yes"}}, {"type": "node", "id": 5629883547, "lat": 37.8805544, "lon": -122.2981046}, {"type": "node", "id": 5629883548, "lat": 37.8805558, "lon": -122.2980974}, {"type": "node", "id": 6075530401, "lat": 37.7835246, "lon": -122.4476635}, {"type": "node", "id": 6075530411, "lat": 37.7832009, "lon": -122.4479173}, {"type": "node", "id": 6075530412, "lat": 37.7835265, "lon": -122.4476486}, {"type": "node", "id": 6075530424, "lat": 37.7831857, "lon": -122.4479142}, {"type": "node", "id": 6075574280, "lat": 37.7835756, "lon": -122.4478012}, {"type": "node", "id": 6075574281, "lat": 37.7835226, "lon": -122.4480882}, {"type": "node", "id": 6075583626, "lat": 37.7834154, "lon": -122.4480662}, {"type": "node", "id": 6075583629, "lat": 37.7832646, "lon": -122.4480355}, {"type": "node", "id": 6075583632, "lat": 37.7833813, "lon": -122.4480594}, {"type": "node", "id": 6469314085, "lat": 37.7890338, "lon": -122.3919796, "tags": {"addr:city": "San Francisco", "addr:housenumber": "203", "addr:postcode": "94105", "addr:state": "CA", "addr:street": "Folsom Street", "name": "Woodlands Market", "opening_hours": "Mo-Su 07:00-21:00", "shop": "supermarket", "website": "https://www.woodlandsmarket.com/san-francisco/"}}, {"type": "node", "id": 6612380473, "lat": 37.7696338, "lon": -122.4530619}, {"type": "node", "id": 6612380474, "lat": 37.769489, "lon": -122.4530318}, {"type": "node", "id": 7762107212, "lat": 37.7673422, "lon": -122.4092242}, {"type": "node", "id": 8118795249, "lat": 37.8294901, "lon": -122.2802443, "tags": {"addr:housenumber": "3889", "addr:postcode": "94608", "addr:street": "San Pablo Avenue", "designation": "Safeway", "name": "Pak N Save - Safeway", "opening_hours": "Mo-Su 06:00-22:00", "phone": "(510) 450-1200", "shop": "supermarket", "website": "https://local.safeway.com/pak-n-save/ca/emeryville/3889-san-pablo-ave.html"}}, {"type": "node", "id": 8140177640, "lat": 37.7972287, "lon": -122.4352703, "tags": {"addr:city": "San Francisco", "addr:housenumber": "2190", "addr:postcode": "94123", "addr:state": "CA", "addr:street": "Union Street", "name": "Luke's Local", "opening_hours": "Mo-Su 08:00-21:00", "opening_hours:covid19": "same", "organic": "yes", "payment:american_express": "yes", "payment:cash": "yes", "payment:contactless": "yes", "payment:credit_cards": "yes", "payment:debit_cards": "yes", "payment:mastercard": "yes", "payment:visa": "yes", "shop": "supermarket", "start_date": "2020-11-14", "website": "https://lukeslocal.com/"}}, {"type": "node", "id": 8758993181, "lat": 37.9058162, "lon": -122.3053631, "tags": {"name": "New india", "shop": "supermarket"}}, {"type": "node", "id": 8947382607, "lat": 37.7853758, "lon": -122.2811296}, {"type": "node", "id": 8947382608, "lat": 37.7852917, "lon": -122.2810346}, {"type": "node", "id": 8947382609, "lat": 37.7852578, "lon": -122.2799326}, {"type": "node", "id": 8947382610, "lat": 37.7853258, "lon": -122.2798426}, {"type": "node", "id": 9023293126, "lat": 37.8091295, "lon": -122.4187761, "tags": {"addr:housenumber": "Pier 47", "name": "J & P Bait", "phone": "(415) 507-1962", "shop": "supermarket", "website": "https://www.facebook.com/JP-Bait-190511807702436"}}, {"type": "node", "id": 9581957721, "lat": 37.7788891, "lon": -122.414112, "tags": {"addr:housenumber": "1185", "addr:street": "Market Street", "brand": "Whole Foods Market", "brand:wikidata": "Q1809448", "brand:wikipedia": "en:Whole Foods Market", "name": "Whole Foods Market", "opening_hours": "Mo-Su 08:00-21:00", "opening_hours:covid19": "same", "phone": "+1-415-354-7555", "shop": "supermarket", "website": "https://www.wholefoodsmarket.com/stores/trinity"}}, {"type": "node", "id": 9689397341, "lat": 37.9039617, "lon": -122.2778249}, {"type": "node", "id": 9689397344, "lat": 37.9039957, "lon": -122.2778303}, {"type": "node", "id": 9689397345, "lat": 37.904002, "lon": -122.2778198}, {"type": "node", "id": 9689397346, "lat": 37.9040703, "lon": -122.2779152}, {"type": "node", "id": 9689397347, "lat": 37.9040593, "lon": -122.2779047}, {"type": "node", "id": 9689397348, "lat": 37.9040707, "lon": -122.2778856}, {"type": "node", "id": 9689397349, "lat": 37.9040674, "lon": -122.277924}, {"type": "node", "id": 9765670368, "lat": 37.7692979, "lon": -122.415046, "tags": {"door": "sliding", "entrance": "main"}}, {"type": "node", "id": 9892676258, "lat": 37.8908911, "lon": -122.2789901}, {"type": "node", "id": 9892676259, "lat": 37.8909197, "lon": -122.2789964}, {"type": "node", "id": 9892676260, "lat": 37.8912391, "lon": -122.2782882}, {"type": "node", "id": 9908618530, "lat": 37.7833913, "lon": -122.4223935, "tags": {"addr:city": "San Francisco", "addr:housenumber": "995", "addr:postcode": "94109", "addr:state": "CA", "addr:street": "Ellis Street", "name": "College Market", "shop": "supermarket"}}, {"type": "node", "id": 10057579916, "lat": 37.8263913, "lon": -122.3704466, "tags": {"name": "Island Cove Market", "shop": "supermarket"}}, {"type": "node", "id": 10114600546, "lat": 37.7765808, "lon": -122.4163554}, {"type": "way", "id": 24206464, "nodes": [262105255, 262105293, 262105256, 262105257, 262105258, 262105259, 262105260, 262105261, 2019596502, 262105262, 262105263, 262105264, 262105265, 262105266, 262105267, 262105268, 262105273, 262105274, 262105276, 262105275, 262105269, 262105270, 262105271, 262105272, 262105255], "tags": {"addr:city": "El Cerrito", "addr:housenumber": "1000", "addr:postcode": "95430", "addr:state": "CA", "addr:street": "El Cerrito Plaza", "brand": "Lucky", "brand:wikidata": "Q6698032", "brand:wikipedia": "en:Lucky Stores", "building": "retail", "building:levels": "1", "name": "Lucky", "opening_hours": "Mo-Su 06:00-22:00", "phone": "(510) 524-7282", "shop": "supermarket", "website": "https://www.luckysupermarkets.com/stores/el-cerrito-709/5036", "wheelchair": "yes"}}, {"type": "way", "id": 25821952, "nodes": [281652956, 281652957, 281652958, 281652959, 281652956], "tags": {"addr:housenumber": "1800", "addr:street": "Folsom Street", "brand": "Foods Co", "brand:wikidata": "Q5465282", "brand:wikipedia": "en:Food 4 Less", "building": "retail", "name": "Foods Co", "opening_hours": "06:00-01:00", "shop": "supermarket"}}, {"type": "way", "id": 26135377, "nodes": [286131029, 286131030, 286131031, 286131032, 2282799648, 2282799645, 2282799654, 2282799649, 286131029], "tags": {"addr:city": "San Francisco", "addr:housenumber": "15", "addr:postcode": "94123", "addr:street": "Marina Boulevard", "brand": "Safeway", "brand:wikidata": "Q1508234", "brand:wikipedia": "en:Safeway Inc.", "building": "yes", "designation": "Safeway 1711", "height": "5", "name": "Safeway", "opening_hours": "24/7", "shop": "supermarket", "website": "https://local.safeway.com/ca/san-francisco-1711.html", "wheelchair": "yes"}}, {"type": "way", "id": 30877164, "nodes": [343311762, 343311763, 5421746769, 5421746772, 343311764, 2206283678, 343311765, 9892676260, 343311766, 343311767, 343311768, 343311769, 343311770, 2206283690, 343311771, 343311772, 9892676258, 9892676259, 343311773, 343311762], "tags": {"addr:city": "Berkeley", "addr:housenumber": "1850", "addr:postcode": "94707", "addr:street": "Solano Avenue", "alt_name": "Andronico's", "building": "retail", "name": "Andronico's Community Market", "old_name": "Safeway Community Markets;Park & Shop", "opening_hours": "Mo-Su 06:00-23:00", "phone": "(510) 524-1673", "shop": "supermarket", "website": "https://local.andronicos.com/ca/berkeley/1850-solano-ave.html"}}, {"type": "way", "id": 30877194, "nodes": [2206275696, 343311921, 343311922, 4772927354, 4772926230, 343311924, 4772927887, 4772921740, 343311937, 343311942, 343311943, 2206275695, 2206275696], "tags": {"addr:city": "Albany", "addr:housenumber": "1500", "addr:street": "Solano Avenue", "brand": "Safeway", "brand:wikidata": "Q1508234", "brand:wikipedia": "en:Safeway Inc.", "building": "retail", "name": "Safeway", "opening_hours": "24/7", "shop": "supermarket", "toilets": "yes", "website": "https://local.safeway.com/safeway/ca/albany/1500-solano-ave.html"}}, {"type": "way", "id": 32456726, "nodes": [364880844, 364880845, 364880846, 364880847, 988503860, 988503861, 364880848, 364880849, 364880850, 364880851, 364880844], "tags": {"addr:city": "Berkeley", "addr:housenumber": "1550", "addr:postcode": "94707", "addr:street": "Hopkins Street", "building": "retail", "building:levels": "1", "name": "Monterey Market", "note": "Really mostly a greengrocer", "opening_hours": "Mo-Fr 09:00-19:00; Sa, Su 08:30-18:00", "shop": "supermarket", "website": "https://en.m.wikipedia.org/wiki/Monterey_Market"}}, {"type": "way", "id": 34323155, "nodes": [393729801, 6075530401, 6075530412, 393729802, 6075530424, 6075530411, 393729803, 6075583629, 6075583632, 6075583626, 6075574281, 393729804, 6075574280, 393729801], "tags": {"addr:city": "San Francisco", "addr:country": "US", "addr:housenumber": "3", "addr:postcode": "94118", "addr:state": "CA", "addr:street": "Masonic Avenue", "brand": "Trader Joe's", "brand:wikidata": "Q688825", "brand:wikipedia": "en:Trader Joe's", "building": "retail", "building:levels": "1", "check_date:opening_hours": "2022-08-11", "height": "7", "name": "Trader Joe's", "opening_hours": "Mo-Su 08:00-21:00", "phone": "+1 (415) 346-9964", "ref": "100", "roof:levels": "0", "shop": "supermarket"}}, {"type": "way", "id": 42916777, "nodes": [537501766, 537501830, 537501829, 537501767, 537501769, 4547291183, 537501796, 537501770, 537501766], "tags": {"building": "yes", "height": "5", "name": "Cash & Carry", "shop": "supermarket"}}, {"type": "way", "id": 52769190, "nodes": [669533769, 669533770, 669533771, 669533772, 669533773, 669533774, 669533775, 669533777, 669533769], "tags": {"addr:housenumber": "920", "addr:street": "Heinz Avenue", "building": "yes", "name": "Berkeley Bowl West", "opening_hours": "Mo-Sa 09:00-20:00; Su 10:00-18:00", "phone": "(510) 898-9555", "shop": "supermarket", "website": "https://www.berkeleybowl.com/", "wheelchair": "yes"}}, {"type": "way", "id": 80493585, "nodes": [939010949, 939010950, 9689397349, 9689397346, 9689397347, 9689397348, 9689397345, 9689397344, 939010951, 9689397341, 939010952, 939010949], "tags": {"building": "retail", "building:levels": "2", "name": "Young's Market", "shop": "supermarket", "toilets": "yes", "toilets:access": "public"}}, {"type": "way", "id": 89905471, "nodes": [1042049295, 1042049322, 1042049263, 1042049251, 1042049261, 1042049354, 1042049298, 1042049303, 1042049332, 5070942463, 5070942480, 5070942446, 1042049262, 1042049283, 1042049295], "tags": {"addr:city": "Emeryville", "addr:housenumber": "5700;5751;5761;5765;5767;5769;5777;5791", "addr:postcode": "94608", "addr:state": "CA", "addr:street": "Christie Avenue", "brand": "Trader Joe's", "brand:wikidata": "Q688825", "brand:wikipedia": "en:Trader Joe's", "building": "yes", "name": "Trader Joe's", "shop": "supermarket", "wheelchair": "yes"}}, {"type": "way", "id": 127804758, "nodes": [1413800126, 1413800132, 1413800141, 4777439530, 4777439529, 4777439531, 1413800126], "tags": {"addr:housenumber": "10367", "addr:postcode": "94530", "addr:street": "San Pablo Avenue", "alt_name": "El Cerrito Natural Grocery", "building": "yes", "name": "The Natural Grocery Company", "opening_hours": "Mo-Su 08:30-19:30", "phone": "+1-510-526-1155", "shop": "supermarket", "website": "http://www.naturalgrocery.com/", "wheelchair": "yes"}}, {"type": "way", "id": 169204245, "nodes": [1803661676, 3998379075, 764070894, 276545898, 3998379085, 3998379083, 3998379081, 9765670368, 276545899, 276545900, 276545901, 1803661672, 1803661678, 3998379080, 1803661671, 1803661675, 1803661669, 1803661674, 1803661676], "tags": {"addr:city": "San Francisco", "addr:country": "US", "addr:housenumber": "1745", "addr:postcode": "94103", "addr:state": "CA", "addr:street": "Folsom Street", "building": "hall", "cooperative": "yes", "email": "general@rainbow.coop", "fixme": "Validate additional holidays for opening_hours key", "image": "https://upload.wikimedia.org/wikipedia/en/4/46/Rainbow_grocery_logo.png", "name": "Rainbow Grocery Coop", "note": "HOLIDAYS:( CLOSED ON ) Martin Luther King Day (3rd Monday in January) Gay Pride Day (Last Sunday in June)", "opening_hours": "Mo-Su 09:00-21:00; PH closed; Mar 31 closed; May 01 closed", "phone": "+1 415-863-0620", "shop": "supermarket", "source": "website", "website": "https://www.rainbow.coop/", "wheelchair": "yes", "wikidata": "Q7284643", "wikipedia": "en:Rainbow Grocery Cooperative"}}, {"type": "way", "id": 219058165, "nodes": [2282647807, 2282647824, 2282647817, 2282647818, 2282647810, 2282647819, 2282647806, 2282647814, 2282647813, 2282647820, 2282647815, 2282647804, 371233599, 5270843145, 2282647807], "tags": {"addr:city": "San Francisco", "addr:housenumber": "1335", "addr:postcode": "94115", "addr:street": "Webster Street", "branch": "0995", "brand": "Safeway", "brand:wikidata": "Q1508234", "brand:wikipedia": "en:Safeway Inc.", "building": "retail", "designation": "Safeway 0995", "height": "7", "name": "Safeway", "opening_hours": "06:00-24:00", "shop": "supermarket", "website": "https://local.safeway.com/ca/san-francisco-995.html"}}, {"type": "way", "id": 219072560, "nodes": [2282801965, 2282801971, 1723375479, 5598432691, 5598432692, 5598432675, 5598432676, 5598432671, 5598432672, 2282801966, 2282801970, 2282801964, 5598432686, 5598432683, 5598432685, 5598432681, 5598432684, 2282801961, 5598432678, 5598432677, 5598432680, 5598432679, 5598432682, 2282801967, 2282801963, 2282801965], "tags": {"addr:city": "San Francisco", "addr:housenumber": "2020", "addr:postcode": "94114", "addr:state": "CA", "addr:street": "Market Street", "brand": "Safeway", "brand:wikidata": "Q1508234", "brand:wikipedia": "en:Safeway Inc.", "building": "retail", "building:levels": "1", "height": "6", "name": "Safeway", "opening_hours": "24/7", "ref": "1507", "shop": "supermarket", "website": "https://local.safeway.com/ca/san-francisco-1507.html"}}, {"type": "way", "id": 228246796, "nodes": [2368791978, 2368791980, 2368783178, 2294690551, 6612380474, 5437182833, 6612380473, 2294690556, 2294690561, 2294690553, 2368784957, 2368791978], "tags": {"addr:housenumber": "690", "addr:street": "Stanyan Street", "brand": "Whole Foods Market", "brand:wikidata": "Q1809448", "brand:wikipedia": "en:Whole Foods Market", "building": "yes", "height": "6", "name": "Whole Foods Market", "opening_hours": "Mo-Su 08:00-22:00", "shop": "supermarket", "source": "Bing", "website": "https://www.wholefoodsmarket.com/stores/haightstreet"}}, {"type": "way", "id": 243571748, "nodes": [2509602439, 2509602403, 2509602395, 2509602338, 2509602414, 2509602452, 2509602439], "tags": {"addr:city": "San Francisco", "addr:country": "US", "addr:housenumber": "1201", "addr:postcode": "94103", "addr:street": "Howard Street", "building": "yes", "name": "Unimart", "phone": "415-431-0362", "shop": "supermarket", "survey:date": "2013-12-16", "website": "https://plus.google.com/115022724622950373845/about?gl=us&hl=en"}}, {"type": "way", "id": 260194579, "nodes": [2683767278, 2683767180, 2683767168, 2683767151, 2683767212, 2683767211, 2683767244, 2683767249, 2683767259, 2683767268, 2683767278], "tags": {"addr:city": "San Francisco", "addr:housenumber": "782", "addr:postcode": "94118", "addr:state": "CA", "addr:street": "Arguello Boulevard", "building": "commercial", "building:levels": "1", "height": "5", "name": "Arguello Market", "opening_hours": "Mo-Sa 07:30-20:00; Su 07:30-19:00; PH closed", "shop": "supermarket"}}, {"type": "way", "id": 260925348, "nodes": [2665234939, 2665234938, 2665234969, 2665234978, 2665234954, 2665234948, 2665234939], "tags": {"addr:housenumber": "686", "addr:street": "Sacramento Street", "building": "yes", "name": "Canton Bazaar", "shop": "supermarket"}}, {"type": "way", "id": 260930249, "nodes": [2665287350, 2665287342, 2665287363, 2665287365, 2665287350], "tags": {"addr:city": "San Francisco", "addr:housenumber": "145", "addr:postcode": "94111", "addr:state": "CA", "addr:street": "Jackson Street", "brand": "Safeway", "brand:wikidata": "Q1508234", "brand:wikipedia": "en:Safeway Inc.", "building": "yes", "ele": "0", "height": "13", "name": "Safeway", "opening_hours": "06:00-21:00", "phone": "+1 415 982 3112", "ref": "4601", "shop": "supermarket", "website": "https://local.safeway.com/ca/san-francisco-4601.html", "wheelchair": "yes"}}, {"type": "way", "id": 260967541, "nodes": [2665667343, 2665667345, 2665667338, 2665667337, 2665667343], "tags": {"addr:city": "San Francisco", "addr:housenumber": "775;779", "addr:postcode": "94133", "addr:state": "CA", "addr:street": "Vallejo Street", "atm": "no", "building": "yes", "building:levels": "2", "height": "8", "name": "Chef Bowl, Inc.", "phone": "415-398-3288", "shop": "supermarket", "source": "Observation"}}, {"type": "way", "id": 261292750, "nodes": [2669246260, 2669246322, 2669246258, 2669246227, 2669246223, 2669246205, 2669246202, 2669246260], "tags": {"addr:housename": "Bi-Rite Market", "addr:housenumber": "550", "addr:postcode": "94117", "addr:street": "Divisadero Street", "building": "yes", "name": "Bi-Rite Market", "shop": "supermarket", "website": "https://biritemarket.com/"}}, {"type": "way", "id": 263224863, "nodes": [2688485805, 2688485788, 2688485786, 2688485804, 2688485805], "tags": {"addr:city": "San Francisco", "addr:country": "US", "addr:housenumber": "2435", "addr:state": "CA", "addr:street": "California Street", "building": "yes", "height": "9", "name": "Mollie Stone's", "phone": "415-567-4902", "shop": "supermarket", "wheelchair": "yes"}}, {"type": "way", "id": 264371887, "nodes": [2700575711, 2700575714, 2700575441, 2700575437, 2700575435, 2700575683, 2700575702, 2700575711], "tags": {"addr:housename": "Haight Street Market", "addr:housenumber": "1530", "addr:postcode": "94117", "addr:street": "Haight Street", "building": "yes", "designation": "Grocery, product, deli, meats and fish", "height": "6", "name": "Haight Street Market", "opening_hours": "Mo-Su 07:00-21:30", "shop": "supermarket", "source": "first hand knwledge", "website": "http://www.haightstreetmarket.com"}}, {"type": "way", "id": 264645161, "nodes": [2703036827, 2703036830, 2703036875, 2703036878, 2703036799, 2703036791, 2703036793, 2703036789, 2703036827], "tags": {"addr:city": "San Francisco", "addr:country": "US", "addr:housenumber": "960", "addr:postcode": "94117", "addr:state": "CA", "addr:street": "Cole Street", "building": "retail", "height": "5", "name": "Luke's Local", "opening_hours": "Mo-Su 08:00-21:00", "payment:cash": "yes", "payment:credit_cards": "yes", "shop": "supermarket"}}, {"type": "way", "id": 273331515, "nodes": [2781967169, 2781967135, 2781967134, 2781967133, 2781967130, 2781967131, 2781967165, 2781967167, 2781967169], "tags": {"addr:housenumber": "3445", "addr:street": "California Street", "building": "yes", "height": "7", "name": "Bryan's Grocery", "shop": "supermarket"}}, {"type": "way", "id": 293604057, "nodes": [2972235799, 310601138, 310601139, 2282804190, 310601153, 310601154, 310601156, 310601157, 310601158, 310601159, 7762107212, 2922201529, 2972235799], "tags": {"addr:city": "San Francisco", "addr:housenumber": "2300", "addr:postcode": "94102", "addr:street": "16th Street", "addr:unit": "203", "brand": "Safeway", "brand:wikidata": "Q1508234", "brand:wikipedia": "en:Safeway Inc.", "building": "retail", "designation": "Safeway 1490", "name": "Safeway", "opening_hours": "24/7", "shop": "supermarket", "website": "https://local.safeway.com/ca/san-francisco-1490.html"}}, {"type": "way", "id": 294213897, "nodes": [3574958425, 2977764837, 2977764836, 5629883548, 5629883547, 2977763531, 2977763532, 2977764834, 2977764835, 3574958424, 4721943052, 4721943034, 3574958425], "tags": {"addr:housenumber": "1025", "addr:street": "Gilman Street", "brand": "Whole Foods Market", "brand:wikidata": "Q1809448", "brand:wikipedia": "en:Whole Foods Market", "building": "retail", "drinking_water": "yes", "name": "Whole Foods Market", "opening_hours": "Mo-Su 08:00-22:00", "phone": "(510) 809-8293", "ref": "1627736", "shop": "supermarket", "toilets": "yes", "toilets:disposal": "flush", "toilets:wheelchair": "yes", "website": "https://www.wholefoodsmarket.com/stores/gilman", "wheelchair": "yes"}}, {"type": "way", "id": 432920118, "nodes": [4318478528, 4318478491, 8947382610, 8947382609, 8947382608, 8947382607, 4318478520, 4318478521, 4318478528], "tags": {"brand": "Safeway", "brand:wikidata": "Q1508234", "brand:wikipedia": "en:Safeway Inc.", "building": "yes", "name": "Safeway", "opening_hours": "Mo-Su 05:00-01:00", "shop": "supermarket", "source": "Bing", "website": "https://local.safeway.com/safeway/ca/alameda/2600-5th-st.html?m"}}, {"type": "way", "id": 1105289817, "nodes": [4485989999, 10114600546, 411910256, 411910255, 4485989999], "tags": {"addr:city": "San Francisco", "addr:housenumber": "1355", "addr:postcode": "94103", "addr:state": "CA", "addr:street": "Market Street", "addr:unit": "100", "alt_name": "Market on Market", "fixme": "Needs survey for interior vendors.", "level": "0", "name": "The Market", "opening_hours": "09:00-20:00", "phone": "+1 415-767-5130", "shop": "supermarket", "website": "https://www.visitthemarket.com/"}}]}