{"version": 0.6, "generator": "Overpass API 0.7.59 e21c39fe", "osm3s": {"timestamp_osm_base": "2022-11-21T05:13:51Z", "copyright": "The data included in this document is from www.openstreetmap.org. The data is made available under ODbL."}, "elements": [{"type": "node", "id": 212435197, "lat": 37.8455422, "lon": -122.252612, "tags": {"brand": "Trader Joe's", "brand:wikidata": "Q688825", "brand:wikipedia": "en:Trader Joe's", "name": "Trader Joe's", "shop": "supermarket", "website": "https://locations.traderjoes.com/ca/oakland/231/"}}, {"type": "node", "id": 251271013, "lat": 37.8567101, "lon": -122.2675978}, {"type": "node", "id": 251271014, "lat": 37.8570632, "lon": -122.2676677}, {"type": "node", "id": 251271015, "lat": 37.8570676, "lon": -122.2676784}, {"type": "node", "id": 251271016, "lat": 37.8572421, "lon": -122.2676123}, {"type": "node", "id": 251271017, "lat": 37.8572196, "lon": -122.2675046}, {"type": "node", "id": 251271018, "lat": 37.8572289, "lon": -122.2675015}, {"type": "node", "id": 251271021, "lat": 37.857273, "lon": -122.2671438}, {"type": "node", "id": 251271022, "lat": 37.8573039, "lon": -122.2671123}, {"type": "node", "id": 251271026, "lat": 37.8573361, "lon": -122.2668981}, {"type": "node", "id": 251271027, "lat": 37.8568013, "lon": -122.2668362}, {"type": "node", "id": 262257319, "lat": 37.8804487, "lon": -122.2704056}, {"type": "node", "id": 262257320, "lat": 37.8807768, "lon": -122.2704675}, {"type": "node", "id": 262257321, "lat": 37.8806913, "lon": -122.2703316}, {"type": "node", "id": 262257322, "lat": 37.8810026, "lon": -122.2703729}, {"type": "node", "id": 262257323, "lat": 37.8810087, "lon": -122.2702967}, {"type": "node", "id": 262257324, "lat": 37.8810228, "lon": -122.270299}, {"type": "node", "id": 262257325, "lat": 37.8810757, "lon": -122.2697606}, {"type": "node", "id": 262257326, "lat": 37.8809448, "lon": -122.2696537}, {"type": "node", "id": 286081303, "lat": 37.8650305, "lon": -122.267112, "tags": {"addr:city": "Berkeley", "addr:housenumber": "2441", "addr:postcode": "94704", "addr:state": "CA", "addr:street": "Shattuck Avenue", "name": "Shattuck Market", "phone": "+1 510-703-0314", "shop": "supermarket", "website": "https://shattuck-market.business.site"}}, {"type": "node", "id": 343311762, "lat": 37.8909942, "lon": -122.2790762}, {"type": "node", "id": 343311763, "lat": 37.891048, "lon": -122.2786826}, {"type": "node", "id": 343311764, "lat": 37.8912778, "lon": -122.278733}, {"type": "node", "id": 343311765, "lat": 37.8913015, "lon": -122.2783203}, {"type": "node", "id": 343311766, "lat": 37.8909379, "lon": -122.2782242}, {"type": "node", "id": 343311767, "lat": 37.8909264, "lon": -122.2783103}, {"type": "node", "id": 343311768, "lat": 37.8909393, "lon": -122.2783319}, {"type": "node", "id": 343311769, "lat": 37.8909028, "lon": -122.2785995}, {"type": "node", "id": 343311770, "lat": 37.8909556, "lon": -122.2786111}, {"type": "node", "id": 343311771, "lat": 37.8909425, "lon": -122.2787065}, {"type": "node", "id": 343311772, "lat": 37.8909302, "lon": -122.2787038}, {"type": "node", "id": 343311773, "lat": 37.8909112, "lon": -122.279058}, {"type": "node", "id": 343311921, "lat": 37.8904558, "lon": -122.2865713}, {"type": "node", "id": 343311922, "lat": 37.8904513, "lon": -122.2865931}, {"type": "node", "id": 343311924, "lat": 37.8901754, "lon": -122.2865223}, {"type": "node", "id": 343311937, "lat": 37.8900829, "lon": -122.2872554}, {"type": "node", "id": 343311942, "lat": 37.8902563, "lon": -122.287313}, {"type": "node", "id": 343311943, "lat": 37.8902755, "lon": -122.2872202}, {"type": "node", "id": 364880844, "lat": 37.8812871, "lon": -122.2824995}, {"type": "node", "id": 364880845, "lat": 37.8813827, "lon": -122.2823104}, {"type": "node", "id": 364880846, "lat": 37.8813141, "lon": -122.2822546}, {"type": "node", "id": 364880847, "lat": 37.8813502, "lon": -122.2821832}, {"type": "node", "id": 364880848, "lat": 37.8810977, "lon": -122.2820825}, {"type": "node", "id": 364880849, "lat": 37.8810627, "lon": -122.2821518}, {"type": "node", "id": 364880850, "lat": 37.8810057, "lon": -122.2821055}, {"type": "node", "id": 364880851, "lat": 37.8809463, "lon": -122.2822228}, {"type": "node", "id": 446235213, "lat": 37.8557421, "lon": -122.2606902}, {"type": "node", "id": 446235215, "lat": 37.855799, "lon": -122.2602646}, {"type": "node", "id": 446235217, "lat": 37.8552391, "lon": -122.2601447}, {"type": "node", "id": 446235219, "lat": 37.8552262, "lon": -122.2606201}, {"type": "node", "id": 669533769, "lat": 37.8538145, "lon": -122.289775}, {"type": "node", "id": 669533770, "lat": 37.8536169, "lon": -122.2907319}, {"type": "node", "id": 669533771, "lat": 37.8532218, "lon": -122.290601}, {"type": "node", "id": 669533772, "lat": 37.8532039, "lon": -122.2906879}, {"type": "node", "id": 669533773, "lat": 37.8528307, "lon": -122.2905642}, {"type": "node", "id": 669533774, "lat": 37.8529648, "lon": -122.2899156}, {"type": "node", "id": 669533775, "lat": 37.8535852, "lon": -122.2901212}, {"type": "node", "id": 669533777, "lat": 37.8536668, "lon": -122.289726}, {"type": "node", "id": 746849177, "lat": 37.8551851, "lon": -122.2605491}, {"type": "node", "id": 746849182, "lat": 37.8552343, "lon": -122.2605597}, {"type": "node", "id": 746849197, "lat": 37.8555885, "lon": -122.2606573}, {"type": "node", "id": 775881481, "lat": 37.8717025, "lon": -122.2732154, "tags": {"addr:city": "Berkeley", "addr:country": "US", "addr:housenumber": "1885", "addr:state": "CA", "addr:street": "University Avenue", "brand": "Trader Joe's", "brand:wikidata": "Q688825", "brand:wikipedia": "en:Trader Joe's", "name": "Trader Joe's", "opening_hours": "Mo-Su 08:00-21:00", "phone": "(510) 204-9074", "shop": "supermarket", "website": "https://locations.traderjoes.com/ca/berkeley/186/", "wheelchair": "yes"}}, {"type": "node", "id": 910883477, "lat": 37.8683448, "lon": -122.29451, "tags": {"addr:street": "9th Street", "name": "Milan Indian Grocery", "opening_hours": "Tu-Su 09:30-18:00", "shop": "supermarket", "wheelchair": "limited"}}, {"type": "node", "id": 910883497, "lat": 37.8679107, "lon": -122.2919929, "tags": {"addr:street": "San Pablo Avenue", "name": "Mi Tierra", "opening_hours": "Mo-Su 06:30-20:00", "phone": "+15105408946", "shop": "supermarket"}}, {"type": "node", "id": 988503860, "lat": 37.8812074, "lon": -122.2820672}, {"type": "node", "id": 988503861, "lat": 37.88117, "lon": -122.2821411}, {"type": "node", "id": 1042049251, "lat": 37.8369883, "lon": -122.2939699}, {"type": "node", "id": 1042049261, "lat": 37.8368769, "lon": -122.2939617}, {"type": "node", "id": 1042049262, "lat": 37.8371214, "lon": -122.2944341}, {"type": "node", "id": 1042049263, "lat": 37.8370676, "lon": -122.2942436}, {"type": "node", "id": 1042049283, "lat": 37.8371068, "lon": -122.2945055}, {"type": "node", "id": 1042049295, "lat": 37.8372068, "lon": -122.2945395}, {"type": "node", "id": 1042049298, "lat": 37.8367992, "lon": -122.2942963}, {"type": "node", "id": 1042049303, "lat": 37.8368318, "lon": -122.2943675}, {"type": "node", "id": 1042049322, "lat": 37.8372292, "lon": -122.2944283}, {"type": "node", "id": 1042049332, "lat": 37.8368545, "lon": -122.2943508}, {"type": "node", "id": 1042049354, "lat": 37.8368156, "lon": -122.2942846}, {"type": "node", "id": 1305397495, "lat": 37.8423296, "lon": -122.283254, "tags": {"name": "Gateway Grocery", "shop": "supermarket"}}, {"type": "node", "id": 1478543322, "lat": 37.8809789, "lon": -122.2884199}, {"type": "node", "id": 1478543328, "lat": 37.8808466, "lon": -122.2887793}, {"type": "node", "id": 1478543345, "lat": 37.8810466, "lon": -122.2886975}, {"type": "node", "id": 1669811032, "lat": 37.8699429, "lon": -122.2922014, "tags": {"name": "99 cent store", "shop": "supermarket", "website": "https://99only.com/stores/berkeley-san-pablo-ave-289"}}, {"type": "node", "id": 1966450788, "lat": 37.8807765, "lon": -122.2885032}, {"type": "node", "id": 2206275695, "lat": 37.8903782, "lon": -122.2872543}, {"type": "node", "id": 2206275696, "lat": 37.8905155, "lon": -122.2865911}, {"type": "node", "id": 2206283678, "lat": 37.8912797, "lon": -122.2786997, "tags": {"entrance": "yes"}}, {"type": "node", "id": 2206283690, "lat": 37.8909513, "lon": -122.2786422, "tags": {"entrance": "yes"}}, {"type": "node", "id": 2242837160, "lat": 37.8807914, "lon": -122.2695882}, {"type": "node", "id": 2242837165, "lat": 37.880621, "lon": -122.2695244}, {"type": "node", "id": 2242837168, "lat": 37.8808657, "lon": -122.2696212}, {"type": "node", "id": 2475998084, "lat": 37.8701314, "lon": -122.3013572, "tags": {"addr:city": "Berkeley", "addr:housenumber": "1786", "addr:postcode": "94710", "addr:state": "CA", "addr:street": "Fourth Street", "contact:instagram": "https://www.instagram.com/markethallfoods", "name": "Market Hall Foods", "opening_hours": "Mo-Su 10:00-16:00", "phone": "+1-510-250-6004", "shop": "supermarket", "website": "https://www.markethallfoodson4th.com/"}}, {"type": "node", "id": 2487652502, "lat": 37.8506081, "lon": -122.25203, "tags": {"addr:city": "Oakland", "addr:housenumber": "6310", "addr:postcode": "94618", "addr:street": "College Avenue", "brand": "Safeway", "brand:wikidata": "Q1508234", "brand:wikipedia": "en:Safeway Inc.", "level": "0", "name": "Safeway", "opening_hours": "Mo-Su 05:00-00:00", "phone": "+15109850012", "shop": "supermarket", "website": "https://local.safeway.com/safeway/ca/oakland/6310-college-ave.html", "wheelchair": "yes"}}, {"type": "node", "id": 2906825972, "lat": 37.8804894, "lon": -122.2701012}, {"type": "node", "id": 2906825974, "lat": 37.8810096, "lon": -122.2696991}, {"type": "node", "id": 2906825975, "lat": 37.8805463, "lon": -122.2701103}, {"type": "node", "id": 2906825977, "lat": 37.8810326, "lon": -122.269728}, {"type": "node", "id": 2906825981, "lat": 37.8807258, "lon": -122.2695402}, {"type": "node", "id": 2906825983, "lat": 37.8808683, "lon": -122.2695963}, {"type": "node", "id": 2906825985, "lat": 37.8805385, "lon": -122.2704392}, {"type": "node", "id": 2906825987, "lat": 37.8809982, "lon": -122.2699407}, {"type": "node", "id": 2906825990, "lat": 37.880688, "lon": -122.2703759}, {"type": "node", "id": 2906825995, "lat": 37.8809818, "lon": -122.2701805}, {"type": "node", "id": 2906826000, "lat": 37.8810148, "lon": -122.2696765}, {"type": "node", "id": 2906828001, "lat": 37.8810308, "lon": -122.2702176}, {"type": "node", "id": 2906828005, "lat": 37.8810382, "lon": -122.2697136}, {"type": "node", "id": 2906828009, "lat": 37.8809472, "lon": -122.269634}, {"type": "node", "id": 2906828010, "lat": 37.880783, "lon": -122.2703894}, {"type": "node", "id": 2906828013, "lat": 37.88054, "lon": -122.2704259}, {"type": "node", "id": 2906828018, "lat": 37.880795, "lon": -122.2695586}, {"type": "node", "id": 2977763531, "lat": 37.8804898, "lon": -122.298084}, {"type": "node", "id": 2977763532, "lat": 37.8805674, "lon": -122.2976921}, {"type": "node", "id": 2977764834, "lat": 37.8805932, "lon": -122.2977003}, {"type": "node", "id": 2977764835, "lat": 37.8806871, "lon": -122.2972262}, {"type": "node", "id": 2977764836, "lat": 37.8808436, "lon": -122.2981889}, {"type": "node", "id": 2977764837, "lat": 37.8808822, "lon": -122.2979937}, {"type": "node", "id": 3160895119, "lat": 37.8784709, "lon": -122.2701915}, {"type": "node", "id": 3160895120, "lat": 37.8784747, "lon": -122.2701396}, {"type": "node", "id": 3160895121, "lat": 37.8784763, "lon": -122.2698559}, {"type": "node", "id": 3160895123, "lat": 37.8784891, "lon": -122.2696813}, {"type": "node", "id": 3160895124, "lat": 37.8784991, "lon": -122.2699762}, {"type": "node", "id": 3160895125, "lat": 37.8785077, "lon": -122.2698596}, {"type": "node", "id": 3160895126, "lat": 37.8785115, "lon": -122.270012}, {"type": "node", "id": 3160895127, "lat": 37.878514, "lon": -122.269978}, {"type": "node", "id": 3160895128, "lat": 37.8785205, "lon": -122.269685}, {"type": "node", "id": 3160895129, "lat": 37.878521, "lon": -122.2696776}, {"type": "node", "id": 3160895131, "lat": 37.8785429, "lon": -122.2701036}, {"type": "node", "id": 3160895132, "lat": 37.8785493, "lon": -122.2700164}, {"type": "node", "id": 3160895133, "lat": 37.8785669, "lon": -122.2702028}, {"type": "node", "id": 3160895136, "lat": 37.8789932, "lon": -122.2701238}, {"type": "node", "id": 3160895137, "lat": 37.8790026, "lon": -122.2702541}, {"type": "node", "id": 3160895138, "lat": 37.8790032, "lon": -122.2702455}, {"type": "node", "id": 3160895139, "lat": 37.8790043, "lon": -122.2699726}, {"type": "node", "id": 3160895140, "lat": 37.879052, "lon": -122.2699782}, {"type": "node", "id": 3160895141, "lat": 37.8790693, "lon": -122.2697422}, {"type": "node", "id": 3160895142, "lat": 37.8791119, "lon": -122.2702583}, {"type": "node", "id": 3160895143, "lat": 37.8791206, "lon": -122.2701388}, {"type": "node", "id": 3187950917, "lat": 37.8567558, "lon": -122.2671758}, {"type": "node", "id": 3187950918, "lat": 37.8567693, "lon": -122.2671782}, {"type": "node", "id": 3187950923, "lat": 37.8568599, "lon": -122.267629}, {"type": "node", "id": 3520676346, "lat": 37.8368407, "lon": -122.2759558, "tags": {"addr:street": "Adeline Street", "name": "Baseline Produce", "shop": "supermarket"}}, {"type": "node", "id": 3574958424, "lat": 37.8811421, "lon": -122.2973709}, {"type": "node", "id": 3574958425, "lat": 37.8810107, "lon": -122.2980346}, {"type": "node", "id": 4680790126, "lat": 37.8570528, "lon": -122.2676659}, {"type": "node", "id": 4680790137, "lat": 37.8573084, "lon": -122.2670787}, {"type": "node", "id": 4689251314, "lat": 37.8552566, "lon": -122.2606512}, {"type": "node", "id": 4689251438, "lat": 37.8555806, "lon": -122.2607165}, {"type": "node", "id": 4689251505, "lat": 37.8554492, "lon": -122.2607062}, {"type": "node", "id": 4689252325, "lat": 37.8556747, "lon": -122.2607714}, {"type": "node", "id": 4689253259, "lat": 37.8556682, "lon": -122.2608201}, {"type": "node", "id": 4689253383, "lat": 37.8556114, "lon": -122.2607579}, {"type": "node", "id": 4689254646, "lat": 37.8555238, "lon": -122.2607363}, {"type": "node", "id": 4689255432, "lat": 37.8552251, "lon": -122.2606288}, {"type": "node", "id": 4689255622, "lat": 37.8555256, "lon": -122.2607226}, {"type": "node", "id": 4689257420, "lat": 37.8556159, "lon": -122.2607241}, {"type": "node", "id": 4689258383, "lat": 37.8554901, "lon": -122.260729}, {"type": "node", "id": 4689259274, "lat": 37.8553018, "lon": -122.2606468}, {"type": "node", "id": 4689259467, "lat": 37.8553, "lon": -122.2606605}, {"type": "node", "id": 4689260158, "lat": 37.8552586, "lon": -122.260636}, {"type": "node", "id": 4689262127, "lat": 37.8554832, "lon": -122.2607805}, {"type": "node", "id": 4689263011, "lat": 37.8554528, "lon": -122.2606791}, {"type": "node", "id": 4712468080, "lat": 37.8784785, "lon": -122.2698254}, {"type": "node", "id": 4721943034, "lat": 37.8810757, "lon": -122.2977062}, {"type": "node", "id": 4721943052, "lat": 37.8811284, "lon": -122.2974403}, {"type": "node", "id": 4772921740, "lat": 37.8900977, "lon": -122.2871839}, {"type": "node", "id": 4772926230, "lat": 37.8904034, "lon": -122.286598}, {"type": "node", "id": 4772927354, "lat": 37.8904074, "lon": -122.2865785}, {"type": "node", "id": 4772927887, "lat": 37.8900423, "lon": -122.2871655}, {"type": "node", "id": 5070942446, "lat": 37.8369187, "lon": -122.2943658}, {"type": "node", "id": 5070942463, "lat": 37.8368594, "lon": -122.2943605}, {"type": "node", "id": 5070942480, "lat": 37.8369161, "lon": -122.2943788}, {"type": "node", "id": 5421746769, "lat": 37.891182, "lon": -122.278712}, {"type": "node", "id": 5421746772, "lat": 37.8912276, "lon": -122.278722}, {"type": "node", "id": 5616585421, "lat": 37.8852078, "lon": -122.2978846, "tags": {"addr:housenumber": "1075", "addr:postcode": "94706", "addr:street": "Monroe Street", "brand": "Sprouts Farmers Market", "brand:wikidata": "Q7581369", "brand:wikipedia": "en:Sprouts Farmers Market", "check_date:opening_hours": "2022-10-11", "name": "Sprouts Farmers Market", "opening_hours": "Mo-Su 07:00-22:00", "phone": "(510) 345-0461", "shop": "supermarket", "short_name": "Sprouts", "website": "https://www.sprouts.com/store/ca/albany/albany/", "wheelchair": "yes"}}, {"type": "node", "id": 5629883547, "lat": 37.8805544, "lon": -122.2981046}, {"type": "node", "id": 5629883548, "lat": 37.8805558, "lon": -122.2980974}, {"type": "node", "id": 6313658719, "lat": 37.8410129, "lon": -122.2741335, "tags": {"amenity": "restaurant", "name": "Al Maida Hot Food and Market", "shop": "grocery"}}, {"type": "node", "id": 9344941253, "lat": 37.8374422, "lon": -122.2616309, "tags": {"addr:housenumber": "5101;5179;5199", "addr:street": "Telegraph Avenue", "brand": "Whole Foods Market", "brand:wikidata": "Q1809448", "brand:wikipedia": "en:Whole Foods Market", "name": "Whole Foods Market", "shop": "supermarket"}}, {"type": "node", "id": 9892676258, "lat": 37.8908911, "lon": -122.2789901}, {"type": "node", "id": 9892676259, "lat": 37.8909197, "lon": -122.2789964}, {"type": "node", "id": 9892676260, "lat": 37.8912391, "lon": -122.2782882}, {"type": "way", "id": 23226440, "nodes": [251271013, 3187950923, 4680790126, 251271014, 251271015, 251271016, 251271017, 251271018, 251271021, 251271022, 4680790137, 251271026, 251271027, 3187950917, 3187950918, 251271013], "tags": {"addr:city": "Berkeley", "addr:housenumber": "2020", "addr:street": "Oregon Street", "building": "retail", "building:levels": "1", "name": "Berkeley Bowl", "opening_hours": "Mo-Sa 09:00-20:00; Su 10:00-18:00", "phone": "+15108436929", "shop": "supermarket", "website": "https://www.berkeleybowl.com/", "wheelchair": "yes"}}, {"type": "way", "id": 24221445, "nodes": [262257319, 2906828013, 2906825985, 262257320, 2906828010, 2906825990, 262257321, 262257322, 262257323, 262257324, 2906828001, 2906825995, 2906825987, 262257325, 2906825977, 2906828005, 2906825974, 2906826000, 262257326, 2906828009, 2242837168, 2906825983, 2242837160, 2906828018, 2906825981, 2242837165, 2906825975, 2906825972, 262257319], "tags": {"addr:city": "Berkeley", "addr:country": "US", "addr:housenumber": "1444", "addr:postcode": "94709", "addr:state": "CA", "addr:street": "Shattuck Avenue", "brand": "Safeway", "brand:wikidata": "Q1508234", "brand:wikipedia": "en:Safeway Inc.", "building": "retail", "building:levels": "1", "name": "Safeway", "opening_hours": "Mo-Su 05:00-23:00", "phone": "15105263086", "shop": "supermarket", "website": "https://local.safeway.com/safeway/ca/berkeley/1444-shattuck-place.html", "wheelchair": "yes"}}, {"type": "way", "id": 30877164, "nodes": [343311762, 343311763, 5421746769, 5421746772, 343311764, 2206283678, 343311765, 9892676260, 343311766, 343311767, 343311768, 343311769, 343311770, 2206283690, 343311771, 343311772, 9892676258, 9892676259, 343311773, 343311762], "tags": {"addr:city": "Berkeley", "addr:housenumber": "1850", "addr:postcode": "94707", "addr:street": "Solano Avenue", "alt_name": "Andronico's", "building": "retail", "name": "Andronico's Community Market", "old_name": "Safeway Community Markets;Park & Shop", "opening_hours": "Mo-Su 06:00-23:00", "phone": "(510) 524-1673", "shop": "supermarket", "website": "https://local.andronicos.com/ca/berkeley/1850-solano-ave.html"}}, {"type": "way", "id": 30877194, "nodes": [2206275696, 343311921, 343311922, 4772927354, 4772926230, 343311924, 4772927887, 4772921740, 343311937, 343311942, 343311943, 2206275695, 2206275696], "tags": {"addr:city": "Albany", "addr:housenumber": "1500", "addr:street": "Solano Avenue", "brand": "Safeway", "brand:wikidata": "Q1508234", "brand:wikipedia": "en:Safeway Inc.", "building": "retail", "name": "Safeway", "opening_hours": "24/7", "shop": "supermarket", "toilets": "yes", "website": "https://local.safeway.com/safeway/ca/albany/1500-solano-ave.html"}}, {"type": "way", "id": 32456726, "nodes": [364880844, 364880845, 364880846, 364880847, 988503860, 988503861, 364880848, 364880849, 364880850, 364880851, 364880844], "tags": {"addr:city": "Berkeley", "addr:housenumber": "1550", "addr:postcode": "94707", "addr:street": "Hopkins Street", "building": "retail", "building:levels": "1", "name": "Monterey Market", "note": "Really mostly a greengrocer", "opening_hours": "Mo-Fr 09:00-19:00; Sa, Su 08:30-18:00", "shop": "supermarket", "website": "https://en.m.wikipedia.org/wiki/Monterey_Market"}}, {"type": "way", "id": 37994792, "nodes": [446235213, 446235215, 446235217, 746849177, 746849182, 446235219, 4689255432, 4689260158, 4689251314, 4689259467, 4689259274, 4689263011, 4689251505, 4689255622, 4689254646, 4689258383, 4689262127, 4689253259, 4689252325, 4689253383, 4689257420, 4689251438, 746849197, 446235213], "tags": {"brand": "Whole Foods Market", "brand:wikidata": "Q1809448", "brand:wikipedia": "en:Whole Foods Market", "building": "retail", "name": "Whole Foods Market", "opening_hours": "Mo-Su 08:00-21:00", "shop": "supermarket", "website": "https://www.wholefoodsmarket.com/stores/berkeley"}}, {"type": "way", "id": 52769190, "nodes": [669533769, 669533770, 669533771, 669533772, 669533773, 669533774, 669533775, 669533777, 669533769], "tags": {"addr:housenumber": "920", "addr:street": "Heinz Avenue", "building": "yes", "name": "Berkeley Bowl West", "opening_hours": "Mo-Sa 09:00-20:00; Su 10:00-18:00", "phone": "(510) 898-9555", "shop": "supermarket", "website": "https://www.berkeleybowl.com/", "wheelchair": "yes"}}, {"type": "way", "id": 89905471, "nodes": [1042049295, 1042049322, 1042049263, 1042049251, 1042049261, 1042049354, 1042049298, 1042049303, 1042049332, 5070942463, 5070942480, 5070942446, 1042049262, 1042049283, 1042049295], "tags": {"addr:city": "Emeryville", "addr:housenumber": "5700;5751;5761;5765;5767;5769;5777;5791", "addr:postcode": "94608", "addr:state": "CA", "addr:street": "Christie Avenue", "brand": "Trader Joe's", "brand:wikidata": "Q688825", "brand:wikipedia": "en:Trader Joe's", "building": "yes", "name": "Trader Joe's", "shop": "supermarket", "wheelchair": "yes"}}, {"type": "way", "id": 134483637, "nodes": [1478543345, 1478543322, 1966450788, 1478543328, 1478543345], "tags": {"addr:city": "Berkeley", "addr:housenumber": "1336", "addr:street": "Gilman Street", "building": "retail", "name": "Berkeley Natural Grocery", "opening_hours": "Mo-Su 09:00-19:30", "shop": "grocery", "website": "http://naturalgrocery.com/"}}, {"type": "way", "id": 294213897, "nodes": [3574958425, 2977764837, 2977764836, 5629883548, 5629883547, 2977763531, 2977763532, 2977764834, 2977764835, 3574958424, 4721943052, 4721943034, 3574958425], "tags": {"addr:housenumber": "1025", "addr:street": "Gilman Street", "brand": "Whole Foods Market", "brand:wikidata": "Q1809448", "brand:wikipedia": "en:Whole Foods Market", "building": "retail", "drinking_water": "yes", "name": "Whole Foods Market", "opening_hours": "Mo-Su 08:00-22:00", "phone": "(510) 809-8293", "ref": "1627736", "shop": "supermarket", "toilets": "yes", "toilets:disposal": "flush", "toilets:wheelchair": "yes", "website": "https://www.wholefoodsmarket.com/stores/gilman", "wheelchair": "yes"}}, {"type": "way", "id": 310635103, "nodes": [3160895133, 3160895137, 3160895138, 3160895142, 3160895143, 3160895136, 3160895139, 3160895140, 3160895141, 3160895129, 3160895128, 3160895123, 4712468080, 3160895121, 3160895125, 3160895124, 3160895127, 3160895126, 3160895132, 3160895131, 3160895120, 3160895119, 3160895133], "tags": {"addr:city": "Berkeley", "addr:housenumber": "1550", "addr:postcode": "94709", "addr:state": "CA", "addr:street": "Shattuck Avenue", "brand": "Safeway", "brand:wikidata": "Q1508234", "brand:wikipedia": "en:Safeway Inc.", "building": "retail", "building:levels": "2", "name": "Andronico's", "old_name": "Safeway Community Markets", "opening_hours": "Mo-Su 07:00-22:00", "organic": "yes", "phone": "+1 510 8413042", "shop": "supermarket", "website": "https://local.andronicos.com/ca/berkeley/1550-shattuck-ave.html", "wheelchair": "yes"}}]}