{"version": 0.6, "generator": "Overpass API 0.7.59 e21c39fe", "osm3s": {"timestamp_osm_base": "2022-11-18T20:50:09Z", "copyright": "The data included in this document is from www.openstreetmap.org. The data is made available under ODbL."}, "elements": [{"type": "node", "id": 275513434, "lat": 37.7428959, "lon": -122.4223888}, {"type": "node", "id": 276545898, "lat": 37.7693329, "lon": -122.4154926}, {"type": "node", "id": 276545899, "lat": 37.7692666, "lon": -122.4146292}, {"type": "node", "id": 276545900, "lat": 37.7689868, "lon": -122.4146569}, {"type": "node", "id": 276545901, "lat": 37.7689858, "lon": -122.4148131}, {"type": "node", "id": 281652956, "lat": 37.7679744, "lon": -122.4165852}, {"type": "node", "id": 281652957, "lat": 37.7672095, "lon": -122.4165222}, {"type": "node", "id": 281652958, "lat": 37.76726, "lon": -122.4156472}, {"type": "node", "id": 281652959, "lat": 37.7680342, "lon": -122.4157332}, {"type": "node", "id": 286131029, "lat": 37.8046226, "lon": -122.4333382}, {"type": "node", "id": 286131030, "lat": 37.8047381, "lon": -122.4324163}, {"type": "node", "id": 286131031, "lat": 37.8042758, "lon": -122.4323235}, {"type": "node", "id": 286131032, "lat": 37.8041617, "lon": -122.4332338}, {"type": "node", "id": 293632937, "lat": 37.7767382, "lon": -122.3942265, "tags": {"addr:city": "San Francisco", "addr:housenumber": "298", "addr:postcode": "94107", "addr:street": "King Street", "brand": "Safeway", "brand:wikidata": "Q1508234", "brand:wikipedia": "en:Safeway Inc.", "designation": "Safeway 2606", "name": "Safeway", "opening_hours": "Su-Sa 05:00-24:00", "ref": "2606", "shop": "supermarket", "website": "https://local.safeway.com/ca/san-francisco-2606.html", "wheelchair": "yes"}}, {"type": "node", "id": 310601138, "lat": 37.7664883, "lon": -122.4096523}, {"type": "node", "id": 310601139, "lat": 37.7664021, "lon": -122.409644}, {"type": "node", "id": 310601153, "lat": 37.7666921, "lon": -122.4089355}, {"type": "node", "id": 310601154, "lat": 37.7672511, "lon": -122.4089754}, {"type": "node", "id": 310601156, "lat": 37.7672579, "lon": -122.408863}, {"type": "node", "id": 310601157, "lat": 37.7673411, "lon": -122.408871}, {"type": "node", "id": 310601158, "lat": 37.7673308, "lon": -122.4090414}, {"type": "node", "id": 310601159, "lat": 37.7673537, "lon": -122.4090436}, {"type": "node", "id": 332787306, "lat": 37.786265, "lon": -122.4528047, "tags": {"name": "Calmart", "shop": "supermarket", "wheelchair": "yes"}}, {"type": "node", "id": 371233599, "lat": 37.7824579, "lon": -122.4318791}, {"type": "node", "id": 389404007, "lat": 37.7811499, "lon": -122.3997789, "tags": {"brand": "Whole Foods Market", "brand:wikidata": "Q1809448", "brand:wikipedia": "en:Whole Foods Market", "name": "Whole Foods Market", "opening_hours": "8:00-20:00", "phone": "415.618.0066", "shop": "supermarket", "website": "https://www.wholefoodsmarket.com/stores/soma"}}, {"type": "node", "id": 393729801, "lat": 37.7835915, "lon": -122.4476773}, {"type": "node", "id": 393729802, "lat": 37.7832277, "lon": -122.4475872}, {"type": "node", "id": 393729803, "lat": 37.7831877, "lon": -122.4480197}, {"type": "node", "id": 393729804, "lat": 37.7835385, "lon": -122.4480914}, {"type": "node", "id": 411910255, "lat": 37.7765031, "lon": -122.4172584}, {"type": "node", "id": 411910256, "lat": 37.7761861, "lon": -122.4168639}, {"type": "node", "id": 416779714, "lat": 37.8000223, "lon": -122.4416127, "tags": {"addr:city": "San Francisco", "addr:housenumber": "2323", "addr:state": "CA", "addr:street": "Chestnut Street", "name": "Marina Supermarket", "shop": "supermarket", "wheelchair": "yes"}}, {"type": "node", "id": 459504817, "lat": 37.7606657, "lon": -122.4365592, "tags": {"addr:housenumber": "4201", "addr:street": "18th Street", "name": "Mollie Stone's", "opening_hours": "Mo-Su 07:00-21:00", "phone": "(415) 255-8959", "shop": "supermarket", "website": "https://www.molliestones.com/"}}, {"type": "node", "id": 537501766, "lat": 37.7708354, "lon": -122.4181574}, {"type": "node", "id": 537501767, "lat": 37.770181, "lon": -122.4185049}, {"type": "node", "id": 537501769, "lat": 37.770219, "lon": -122.4187577}, {"type": "node", "id": 537501770, "lat": 37.7708659, "lon": -122.4185617}, {"type": "node", "id": 537501796, "lat": 37.77063, "lon": -122.4186344}, {"type": "node", "id": 537501829, "lat": 37.7707192, "lon": -122.4183405}, {"type": "node", "id": 537501830, "lat": 37.7707039, "lon": -122.4181199}, {"type": "node", "id": 612767884, "lat": 37.7986741, "lon": -122.4090015, "tags": {"addr:city": "San Francisco", "addr:country": "US", "addr:housenumber": "1401", "addr:state": "CA", "addr:street": "Stockton Street", "name": "JW & L Market", "name:zh": "\u6046\u8208\u8d85\u7d1a\u5e02\u5834", "phone": "+1 415 3972668", "shop": "supermarket"}}, {"type": "node", "id": 652928220, "lat": 37.6982993, "lon": -122.462305}, {"type": "node", "id": 652928221, "lat": 37.6974115, "lon": -122.4622627}, {"type": "node", "id": 652928223, "lat": 37.697398, "lon": -122.4627149}, {"type": "node", "id": 652928242, "lat": 37.6974718, "lon": -122.4630028}, {"type": "node", "id": 652928244, "lat": 37.6974695, "lon": -122.4630951}, {"type": "node", "id": 652928258, "lat": 37.6980776, "lon": -122.4631237}, {"type": "node", "id": 652928260, "lat": 37.6980805, "lon": -122.4630194}, {"type": "node", "id": 652928261, "lat": 37.6981641, "lon": -122.4630234}, {"type": "node", "id": 652928263, "lat": 37.6981828, "lon": -122.4623968}, {"type": "node", "id": 652928264, "lat": 37.6982964, "lon": -122.4624022}, {"type": "node", "id": 732040844, "lat": 37.8064387, "lon": -122.41289, "tags": {"addr:city": "San Francisco", "addr:housenumber": "350", "addr:postcode": "94133", "addr:street": "Bay Street", "branch": "1206", "brand": "Safeway", "brand:wikidata": "Q1508234", "brand:wikipedia": "en:Safeway Inc.", "designation": "Safeway 1206", "name": "Safeway", "opening_hours": "06:00-24:00", "shop": "supermarket", "website": "https://local.safeway.com/ca/san-francisco-1206.html"}}, {"type": "node", "id": 764070894, "lat": 37.7690068, "lon": -122.4155183}, {"type": "node", "id": 903709628, "lat": 37.7632581, "lon": -122.4196733, "tags": {"name": "One $ Store", "shop": "supermarket"}}, {"type": "node", "id": 904141569, "lat": 37.7797642, "lon": -122.4099802, "tags": {"name": "Starco Mart", "organic": "only", "shop": "supermarket"}}, {"type": "node", "id": 1002186270, "lat": 37.7900899, "lon": -122.4234142, "tags": {"addr:city": "San Francisco", "addr:country": "US", "addr:housenumber": "1765", "addr:postcode": "94109", "addr:state": "CA", "addr:street": "California Street", "brand": "Whole Foods Market", "brand:wikidata": "Q1809448", "brand:wikipedia": "en:Whole Foods Market", "name": "Whole Foods Market", "opening_hours": "Mo-Su 08:00-22:00", "phone": "+1 415 674 0500", "shop": "supermarket"}}, {"type": "node", "id": 1205120785, "lat": 37.7367631, "lon": -122.3897193, "tags": {"name": "Super Save", "shop": "supermarket"}}, {"type": "node", "id": 1213823254, "lat": 37.7709988, "lon": -122.4077368, "tags": {"addr:city": "San Francisco", "addr:housenumber": "555", "addr:postcode": "94103", "addr:state": "CA", "addr:street": "9th Street", "brand": "Trader Joe's", "brand:wikidata": "Q688825", "brand:wikipedia": "en:Trader Joe's", "name": "Trader Joe's", "opening_hours": "Mo-Su 08:00-22:00", "phone": "+1 415-863-1292", "shop": "supermarket", "wheelchair": "yes"}}, {"type": "node", "id": 1221413899, "lat": 37.7418624, "lon": -122.387192, "tags": {"addr:city": "San Francisco", "addr:housenumber": "3801", "addr:postcode": "94124", "addr:state": "CA", "addr:street": "3rd Street", "name": "Lucky", "opening_hours": "06:00-21:00", "operator": "Lucky", "shop": "supermarket", "website": "https://www.luckysupermarkets.com/bayview"}}, {"type": "node", "id": 1229920646, "lat": 37.7168741, "lon": -122.4415313, "tags": {"name": "Pho Tot", "shop": "supermarket"}}, {"type": "node", "id": 1350484814, "lat": 37.7928844, "lon": -122.416234, "tags": {"addr:housenumber": "1263", "addr:postcode": "94109", "addr:street": "Leavenworth Street", "name": "Le Beau Market", "payment:cash": "yes", "payment:credit_cards": "yes", "shop": "supermarket", "source": "personal knowlege"}}, {"type": "node", "id": 1366261149, "lat": 37.7796231, "lon": -122.4075474, "tags": {"name": "Mi Tierra", "shop": "supermarket", "wheelchair": "yes"}}, {"type": "node", "id": 1478520948, "lat": 37.7965466, "lon": -122.4217072, "tags": {"addr:city": "San Francisco", "addr:housenumber": "2140", "addr:postcode": "94109", "addr:state": "CA", "addr:street": "Polk Street", "alt_name": "The Real Food Co.", "check_date": "2021-08-11", "contact:instagram": "realfoodspolk", "email": "hello@realfoodco.com", "name": "Real Food Company", "opening_hours": "Mo-Su 8:00-21:00", "opening_hours:url": "https://www.realfoodco.com/", "organic": "yes", "phone": "+1 415 6737420", "shop": "supermarket", "website": "https://www.realfoodco.com/"}}, {"type": "node", "id": 1640101688, "lat": 37.7295906, "lon": -122.3987257}, {"type": "node", "id": 1640101706, "lat": 37.7299571, "lon": -122.3984362}, {"type": "node", "id": 1706618868, "lat": 37.7761053, "lon": -122.4459793, "tags": {"addr:city": "San Francisco", "addr:country": "US", "addr:housenumber": "1750", "addr:postcode": "94117", "addr:state": "CA", "addr:street": "Fulton Street", "alt_name": "Fulton Market", "brand": "Lucky", "brand:wikidata": "Q6698032", "brand:wikipedia": "en:Lucky Stores", "name": "Lucky", "old_name": "Petrini Market", "shop": "supermarket"}}, {"type": "node", "id": 1723375479, "lat": 37.7690956, "lon": -122.428969}, {"type": "node", "id": 1803661669, "lat": 37.7689766, "lon": -122.4151784}, {"type": "node", "id": 1803661671, "lat": 37.7689904, "lon": -122.4150092}, {"type": "node", "id": 1803661672, "lat": 37.7689123, "lon": -122.4148112}, {"type": "node", "id": 1803661674, "lat": 37.7687992, "lon": -122.4151657}, {"type": "node", "id": 1803661675, "lat": 37.7689925, "lon": -122.4151795}, {"type": "node", "id": 1803661676, "lat": 37.7687892, "lon": -122.415501}, {"type": "node", "id": 1803661678, "lat": 37.7689111, "lon": -122.4150064}, {"type": "node", "id": 1806966482, "lat": 37.6962185, "lon": -122.4641873}, {"type": "node", "id": 1806966484, "lat": 37.6962206, "lon": -122.4638034}, {"type": "node", "id": 1806966493, "lat": 37.6965929, "lon": -122.4638066}, {"type": "node", "id": 1806966494, "lat": 37.6965931, "lon": -122.4637682}, {"type": "node", "id": 1806966502, "lat": 37.6966225, "lon": -122.4642044}, {"type": "node", "id": 1806966505, "lat": 37.6966228, "lon": -122.4641491}, {"type": "node", "id": 1806966519, "lat": 37.6967373, "lon": -122.4641501}, {"type": "node", "id": 1806966527, "lat": 37.6967393, "lon": -122.4637694}, {"type": "node", "id": 1806966556, "lat": 37.6974038, "lon": -122.462521}, {"type": "node", "id": 1819811637, "lat": 37.7821021, "lon": -122.4653403}, {"type": "node", "id": 1819811638, "lat": 37.7821299, "lon": -122.4649765}, {"type": "node", "id": 1819811648, "lat": 37.7823784, "lon": -122.4649935}, {"type": "node", "id": 1819811654, "lat": 37.7824584, "lon": -122.465369}, {"type": "node", "id": 1819811655, "lat": 37.782474, "lon": -122.465004}, {"type": "node", "id": 1924130352, "lat": 37.7237981, "lon": -122.4546813, "tags": {"addr:housenumber": "1150", "addr:postcode": "94112", "addr:street": "Ocean Avenue", "brand": "Whole Foods Market", "brand:wikidata": "Q1809448", "brand:wikipedia": "en:Whole Foods Market", "contact:phone": "+1 (415) 333-7400", "name": "Whole Foods Market", "shop": "supermarket"}}, {"type": "node", "id": 2047570603, "lat": 37.7504228, "lon": -122.4181255, "tags": {"addr:housenumber": "2909", "addr:street": "Mission Street", "name": "Casa Guadalupe", "shop": "supermarket"}}, {"type": "node", "id": 2047570604, "lat": 37.7492129, "lon": -122.4180336, "tags": {"name": "Casa Guadalupe", "shop": "supermarket", "wheelchair": "limited"}}, {"type": "node", "id": 2050131394, "lat": 37.7522423, "lon": -122.4205203, "tags": {"addr:housenumber": "1299", "addr:street": "Valencia Street", "name": "Valencia Farmers Market", "shop": "supermarket"}}, {"type": "node", "id": 2054170689, "lat": 37.7518683, "lon": -122.4306687}, {"type": "node", "id": 2054170700, "lat": 37.7518413, "lon": -122.4311146}, {"type": "node", "id": 2054170702, "lat": 37.7521619, "lon": -122.430697}, {"type": "node", "id": 2054170704, "lat": 37.752135, "lon": -122.4311429}, {"type": "node", "id": 2057494891, "lat": 37.7119724, "lon": -122.452816, "tags": {"addr:city": "San Francisco", "addr:housenumber": "2900", "addr:postcode": "94112", "addr:state": "CA", "addr:street": "Alemany Boulevard", "name": "Pacific Super", "opening_hours": "Mo-Su 09:00-19:00", "payment:cash": "yes", "payment:credit_cards": "yes", "payment:debit_cards": "yes", "phone": "+1 415 337 1628", "shop": "supermarket", "website": "https://pacificsupermarket.com"}}, {"type": "node", "id": 2059226347, "lat": 37.7303902, "lon": -122.4051055, "tags": {"name": "San Bruno Supermarket", "shop": "supermarket"}}, {"type": "node", "id": 2069159598, "lat": 37.7570365, "lon": -122.4209796, "tags": {"addr:housenumber": "999", "addr:street": "Valencia Street", "name": "Valencia Whole Foods", "shop": "supermarket"}}, {"type": "node", "id": 2078333126, "lat": 37.7346227, "lon": -122.4337115, "tags": {"name": "Buddies Market", "shop": "supermarket"}}, {"type": "node", "id": 2095919655, "lat": 37.7302007, "lon": -122.429136}, {"type": "node", "id": 2095938862, "lat": 37.7301126, "lon": -122.4287874}, {"type": "node", "id": 2130264969, "lat": 37.8054807, "lon": -122.4137896, "tags": {"addr:city": "San Francisco", "addr:housenumber": "401", "addr:postcode": "94133", "addr:state": "CA", "addr:street": "Bay Street", "brand": "Trader Joe's", "brand:wikidata": "Q688825", "brand:wikipedia": "en:Trader Joe's", "name": "Trader Joe's", "opening_hours": "Mo-Su 08:00-21:00", "phone": "+1 415-351-1013", "shop": "supermarket"}}, {"type": "node", "id": 2184767720, "lat": 37.7852546, "lon": -122.4310324, "tags": {"addr:city": "San Francisco", "addr:housenumber": "1737", "addr:postcode": "94115", "addr:state": "CA", "addr:street": "Post Street", "addr:unit": "#333", "brand:wikidata": "Q24566947", "brand:wikipedia": "en:Nijiya Market", "cuisine": "japanese", "level": "0", "name": "Nijiya Market", "opening_hours": "Mo-Su 10:00-20:00", "opening_hours:url": "https://www.nijiya.com/store-location", "organic": "yes", "phone": "+1 415 5631901", "shop": "supermarket", "website": "https://www.nijiya.com/", "wheelchair": "yes", "wikimedia_commons": "Category:Nijiya Market (San Francisco store)"}}, {"type": "node", "id": 2184790554, "lat": 37.7907686, "lon": -122.4179305, "tags": {"addr:city": "San Francisco", "addr:housenumber": "1095", "addr:postcode": "94109", "addr:state": "CA", "addr:street": "Hyde Street", "brand": "Trader Joe's", "brand:wikidata": "Q688825", "brand:wikipedia": "en:Trader Joe's", "name": "Trader Joe's", "opening_hours": "Mo-Su 08:00-22:00", "phone": "+1 415-292-7665", "shop": "supermarket"}}, {"type": "node", "id": 2220082604, "lat": 37.7959769, "lon": -122.4149018, "tags": {"addr:city": "San Francisco", "addr:street": "Jones Street", "name": "New Russian Hill Market", "shop": "supermarket"}}, {"type": "node", "id": 2282647804, "lat": 37.782928, "lon": -122.4319648}, {"type": "node", "id": 2282647806, "lat": 37.7830319, "lon": -122.4311293}, {"type": "node", "id": 2282647807, "lat": 37.7824894, "lon": -122.4316353}, {"type": "node", "id": 2282647810, "lat": 37.7825633, "lon": -122.4310618}, {"type": "node", "id": 2282647813, "lat": 37.78307, "lon": -122.4312996}, {"type": "node", "id": 2282647814, "lat": 37.7830141, "lon": -122.431288}, {"type": "node", "id": 2282647815, "lat": 37.7829484, "lon": -122.4318096}, {"type": "node", "id": 2282647817, "lat": 37.7824226, "lon": -122.4313783}, {"type": "node", "id": 2282647818, "lat": 37.7824603, "lon": -122.4310423}, {"type": "node", "id": 2282647819, "lat": 37.7825668, "lon": -122.4310345}, {"type": "node", "id": 2282647820, "lat": 37.7830065, "lon": -122.4318159}, {"type": "node", "id": 2282647824, "lat": 37.7825207, "lon": -122.4313928}, {"type": "node", "id": 2282680192, "lat": 37.73111, "lon": -122.450356}, {"type": "node", "id": 2282680196, "lat": 37.7311261, "lon": -122.4497847}, {"type": "node", "id": 2282680197, "lat": 37.7310722, "lon": -122.4499886}, {"type": "node", "id": 2282680198, "lat": 37.7311371, "lon": -122.4497848}, {"type": "node", "id": 2282680202, "lat": 37.731409, "lon": -122.4497476}, {"type": "node", "id": 2282680206, "lat": 37.7311263, "lon": -122.4497456}, {"type": "node", "id": 2282680211, "lat": 37.7314079, "lon": -122.4503555}, {"type": "node", "id": 2282680212, "lat": 37.7311105, "lon": -122.4499886}, {"type": "node", "id": 2282680235, "lat": 37.7311369, "lon": -122.4498258}, {"type": "node", "id": 2282680238, "lat": 37.7310722, "lon": -122.4498256}, {"type": "node", "id": 2282681693, "lat": 37.7433621, "lon": -122.4220867}, {"type": "node", "id": 2282681700, "lat": 37.7434679, "lon": -122.4223476}, {"type": "node", "id": 2282789014, "lat": 37.7433438, "lon": -122.4386015}, {"type": "node", "id": 2282789020, "lat": 37.7433598, "lon": -122.4388627}, {"type": "node", "id": 2282789021, "lat": 37.7433163, "lon": -122.4393339}, {"type": "node", "id": 2282789026, "lat": 37.7432879, "lon": -122.4388697}, {"type": "node", "id": 2282794078, "lat": 37.7744839, "lon": -122.4658527}, {"type": "node", "id": 2282794079, "lat": 37.7746281, "lon": -122.4654338}, {"type": "node", "id": 2282794081, "lat": 37.7746387, "lon": -122.4652327}, {"type": "node", "id": 2282794083, "lat": 37.7746726, "lon": -122.4651281}, {"type": "node", "id": 2282794085, "lat": 37.7746306, "lon": -122.4653561}, {"type": "node", "id": 2282794090, "lat": 37.7745487, "lon": -122.4650638}, {"type": "node", "id": 2282794092, "lat": 37.7746348, "lon": -122.4652922}, {"type": "node", "id": 2282794093, "lat": 37.7746412, "lon": -122.4651629}, {"type": "node", "id": 2282794094, "lat": 37.7746385, "lon": -122.4654341}, {"type": "node", "id": 2282794095, "lat": 37.7743926, "lon": -122.4658519}, {"type": "node", "id": 2282794097, "lat": 37.7746493, "lon": -122.4652355}, {"type": "node", "id": 2282794098, "lat": 37.7745485, "lon": -122.465013}, {"type": "node", "id": 2282794101, "lat": 37.7742824, "lon": -122.4658401}, {"type": "node", "id": 2282794103, "lat": 37.7746115, "lon": -122.4650476}, {"type": "node", "id": 2282794106, "lat": 37.7744426, "lon": -122.465847, "tags": {"barrier": "gate"}}, {"type": "node", "id": 2282794112, "lat": 37.7746164, "lon": -122.4658629}, {"type": "node", "id": 2282794113, "lat": 37.7743211, "lon": -122.4649966}, {"type": "node", "id": 2282794114, "lat": 37.7746451, "lon": -122.4652976}, {"type": "node", "id": 2282794117, "lat": 37.7746624, "lon": -122.4650637}, {"type": "node", "id": 2282794118, "lat": 37.7746069, "lon": -122.465066}, {"type": "node", "id": 2282794119, "lat": 37.7746434, "lon": -122.4653562}, {"type": "node", "id": 2282799645, "lat": 37.8042499, "lon": -122.432959}, {"type": "node", "id": 2282799648, "lat": 37.8042141, "lon": -122.4332443}, {"type": "node", "id": 2282799649, "lat": 37.8042746, "lon": -122.4332683}, {"type": "node", "id": 2282799654, "lat": 37.8043118, "lon": -122.4329714}, {"type": "node", "id": 2282801961, "lat": 37.7689283, "lon": -122.4277704}, {"type": "node", "id": 2282801963, "lat": 37.7688315, "lon": -122.4278849}, {"type": "node", "id": 2282801964, "lat": 37.7690313, "lon": -122.4277337}, {"type": "node", "id": 2282801965, "lat": 37.768776, "lon": -122.4287807}, {"type": "node", "id": 2282801966, "lat": 37.7694442, "lon": -122.4277087}, {"type": "node", "id": 2282801967, "lat": 37.7688809, "lon": -122.4278898}, {"type": "node", "id": 2282801970, "lat": 37.7690354, "lon": -122.4276681}, {"type": "node", "id": 2282801971, "lat": 37.7691052, "lon": -122.4288134}, {"type": "node", "id": 2282804190, "lat": 37.7664463, "lon": -122.4089143}, {"type": "node", "id": 2294690551, "lat": 37.7693293, "lon": -122.4529985}, {"type": "node", "id": 2294690553, "lat": 37.7696717, "lon": -122.4525122}, {"type": "node", "id": 2294690556, "lat": 37.7697063, "lon": -122.453077}, {"type": "node", "id": 2294690561, "lat": 37.7697769, "lon": -122.4525341}, {"type": "node", "id": 2303037496, "lat": 37.7949012, "lon": -122.3928736, "tags": {"addr:city": "San Francisco", "addr:housename": "38C South Entrance", "addr:housenumber": "1", "addr:postcode": "94111", "addr:street": "Ferry Plaza", "name": "Buyer's Best Friend Wholesale & Market", "operator": "Buyer's Best Friend", "payment:bitcoin": "yes", "shop": "supermarket", "wheelchair": "yes"}}, {"type": "node", "id": 2321151156, "lat": 37.7521403, "lon": -122.4310542}, {"type": "node", "id": 2321151157, "lat": 37.7521548, "lon": -122.4308141}, {"type": "node", "id": 2321151158, "lat": 37.7521876, "lon": -122.4310073}, {"type": "node", "id": 2321151160, "lat": 37.7521966, "lon": -122.4308727}, {"type": "node", "id": 2338835471, "lat": 37.777716, "lon": -122.43816, "tags": {"addr:city": "San Francisco", "addr:housenumber": "860", "addr:postcode": "94117", "addr:state": "CA", "addr:street": "Divisadero Street", "name": "Green Earth", "opening_hours": "Mo-Su 09:00-21:00", "shop": "supermarket", "website": "http://www.greenearthnaturalfoods.com/"}}, {"type": "node", "id": 2338865775, "lat": 37.7387895, "lon": -122.4165863}, {"type": "node", "id": 2338865776, "lat": 37.7388058, "lon": -122.4167762}, {"type": "node", "id": 2338865787, "lat": 37.7389844, "lon": -122.4165595}, {"type": "node", "id": 2338865788, "lat": 37.7390009, "lon": -122.4167478}, {"type": "node", "id": 2368783178, "lat": 37.769376, "lon": -122.4526389}, {"type": "node", "id": 2368784957, "lat": 37.7696608, "lon": -122.4525962}, {"type": "node", "id": 2368791978, "lat": 37.7696463, "lon": -122.4525932}, {"type": "node", "id": 2368791980, "lat": 37.7696334, "lon": -122.4526924}, {"type": "node", "id": 2399950826, "lat": 37.7436057, "lon": -122.4226174}, {"type": "node", "id": 2399950838, "lat": 37.7430726, "lon": -122.4228166}, {"type": "node", "id": 2399950876, "lat": 37.7435329, "lon": -122.4223055}, {"type": "node", "id": 2430288254, "lat": 37.772945, "lon": -122.430492, "tags": {"addr:city": "San Francisco", "addr:housenumber": "378", "addr:postcode": "94117", "addr:street": "Fillmore Street", "name": "Abes Market", "shop": "supermarket"}}, {"type": "node", "id": 2479681841, "lat": 37.7687435, "lon": -122.4270651, "tags": {"addr:housenumber": "2001", "addr:postcode": "94114", "addr:street": "Market Street", "brand": "Whole Foods Market", "brand:wikidata": "Q1809448", "brand:wikipedia": "en:Whole Foods Market", "name": "Whole Foods Market", "opening_hours": "Mo-Su 08:00-22:00", "phone": "+1 (510) 428-7400", "shop": "supermarket", "website": "https://www.wholefoodsmarket.com/stores/2001marketstreet"}}, {"type": "node", "id": 2509602338, "lat": 37.7759084, "lon": -122.4116478}, {"type": "node", "id": 2509602395, "lat": 37.7758048, "lon": -122.4117803}, {"type": "node", "id": 2509602403, "lat": 37.7758757, "lon": -122.411869}, {"type": "node", "id": 2509602414, "lat": 37.7758355, "lon": -122.4115565}, {"type": "node", "id": 2509602439, "lat": 37.7760661, "lon": -122.4116253}, {"type": "node", "id": 2509602452, "lat": 37.7759224, "lon": -122.4114454}, {"type": "node", "id": 2625322054, "lat": 37.7437994, "lon": -122.453828}, {"type": "node", "id": 2625322057, "lat": 37.7438836, "lon": -122.4537246}, {"type": "node", "id": 2625322059, "lat": 37.7437646, "lon": -122.4535629}, {"type": "node", "id": 2625322060, "lat": 37.7436754, "lon": -122.4536628}, {"type": "node", "id": 2625322074, "lat": 37.7438746, "lon": -122.453712}, {"type": "node", "id": 2634481110, "lat": 37.7528984, "lon": -122.4161843}, {"type": "node", "id": 2634481119, "lat": 37.7529052, "lon": -122.4160688}, {"type": "node", "id": 2634481133, "lat": 37.7529094, "lon": -122.4159977}, {"type": "node", "id": 2634481139, "lat": 37.7529151, "lon": -122.4159008}, {"type": "node", "id": 2635592104, "lat": 37.7528007, "lon": -122.4104963}, {"type": "node", "id": 2635592106, "lat": 37.7528015, "lon": -122.4104601}, {"type": "node", "id": 2635592110, "lat": 37.7528042, "lon": -122.4105444}, {"type": "node", "id": 2635592116, "lat": 37.7528066, "lon": -122.4104968}, {"type": "node", "id": 2635592120, "lat": 37.7528084, "lon": -122.4105447}, {"type": "node", "id": 2635592122, "lat": 37.7528142, "lon": -122.4104579}, {"type": "node", "id": 2635592146, "lat": 37.7528899, "lon": -122.4104758}, {"type": "node", "id": 2635592150, "lat": 37.7528905, "lon": -122.4104641}, {"type": "node", "id": 2635592186, "lat": 37.7529432, "lon": -122.4105557}, {"type": "node", "id": 2635592188, "lat": 37.7529436, "lon": -122.410549}, {"type": "node", "id": 2635592241, "lat": 37.7529976, "lon": -122.4105018}, {"type": "node", "id": 2635592243, "lat": 37.7529984, "lon": -122.4104847}, {"type": "node", "id": 2635592271, "lat": 37.7530455, "lon": -122.4105573}, {"type": "node", "id": 2635592278, "lat": 37.7530481, "lon": -122.4105059}, {"type": "node", "id": 2641796593, "lat": 37.7415785, "lon": -122.4053683, "tags": {"addr:city": "San Francisco", "addr:housenumber": "355", "addr:postcode": "94124", "addr:street": "Bayshore Boulevard", "brand": "Smart & Final", "brand:wikidata": "Q7543916", "brand:wikipedia": "en:Smart & Final", "fax": "1-415-642-0799", "name": "Smart & Final", "phone": "1-415-642-0799", "shop": "supermarket", "website": "https://www.smartandfinal.com/locations/locations.asp?id=438"}}, {"type": "node", "id": 2665234938, "lat": 37.7936808, "lon": -122.4043768}, {"type": "node", "id": 2665234939, "lat": 37.7937032, "lon": -122.4041987}, {"type": "node", "id": 2665234948, "lat": 37.7937253, "lon": -122.4042031}, {"type": "node", "id": 2665234954, "lat": 37.7937449, "lon": -122.404207}, {"type": "node", "id": 2665234969, "lat": 37.7938057, "lon": -122.4044019}, {"type": "node", "id": 2665234978, "lat": 37.793828, "lon": -122.4042238}, {"type": "node", "id": 2665287342, "lat": 37.7968117, "lon": -122.39884}, {"type": "node", "id": 2665287350, "lat": 37.7968648, "lon": -122.3984342}, {"type": "node", "id": 2665287363, "lat": 37.7969329, "lon": -122.3988642}, {"type": "node", "id": 2665287365, "lat": 37.7969899, "lon": -122.3984599}, {"type": "node", "id": 2665667337, "lat": 37.7982096, "lon": -122.4099919}, {"type": "node", "id": 2665667338, "lat": 37.7982245, "lon": -122.4098758}, {"type": "node", "id": 2665667343, "lat": 37.7983532, "lon": -122.4100213}, {"type": "node", "id": 2665667345, "lat": 37.798368, "lon": -122.4099052}, {"type": "node", "id": 2667574537, "lat": 37.7529431, "lon": -122.4087167, "tags": {"addr:city": "San Francisco", "addr:housenumber": "2824", "addr:postcode": "94110", "addr:street": "24th Street", "name": "Five Markets", "payment:bitcoin": "no", "phone": "+1 415 282 6838", "shop": "supermarket", "website": "https://www.facebook.com/pages/Five-Markets/123964861127962"}}, {"type": "node", "id": 2669246202, "lat": 37.7747303, "lon": -122.4376279}, {"type": "node", "id": 2669246205, "lat": 37.7747346, "lon": -122.4375929}, {"type": "node", "id": 2669246223, "lat": 37.7747609, "lon": -122.4373779}, {"type": "node", "id": 2669246227, "lat": 37.7747672, "lon": -122.4373269}, {"type": "node", "id": 2669246258, "lat": 37.7748409, "lon": -122.4373399}, {"type": "node", "id": 2669246260, "lat": 37.774841, "lon": -122.4376499}, {"type": "node", "id": 2669246322, "lat": 37.7748712, "lon": -122.4373464}, {"type": "node", "id": 2683767151, "lat": 37.775563, "lon": -122.4583124}, {"type": "node", "id": 2683767168, "lat": 37.7755918, "lon": -122.458079}, {"type": "node", "id": 2683767180, "lat": 37.7756085, "lon": -122.457956}, {"type": "node", "id": 2683767211, "lat": 37.7756434, "lon": -122.4583277}, {"type": "node", "id": 2683767212, "lat": 37.7756439, "lon": -122.4583181}, {"type": "node", "id": 2683767244, "lat": 37.7756909, "lon": -122.458331}, {"type": "node", "id": 2683767249, "lat": 37.7756934, "lon": -122.4583101}, {"type": "node", "id": 2683767259, "lat": 37.7756985, "lon": -122.4583115}, {"type": "node", "id": 2683767268, "lat": 37.7757259, "lon": -122.4581005}, {"type": "node", "id": 2683767278, "lat": 37.7757426, "lon": -122.4579669}, {"type": "node", "id": 2688485786, "lat": 37.7883712, "lon": -122.4346022}, {"type": "node", "id": 2688485788, "lat": 37.7884025, "lon": -122.4343461}, {"type": "node", "id": 2688485804, "lat": 37.7886779, "lon": -122.4346621}, {"type": "node", "id": 2688485805, "lat": 37.7887092, "lon": -122.434406}, {"type": "node", "id": 2693004231, "lat": 37.7694214, "lon": -122.4505453, "tags": {"addr:housenumber": "1699", "addr:street": "Haight Street", "name": "Frank's Liquors", "shop": "supermarket"}}, {"type": "node", "id": 2698387925, "lat": 37.7902045, "lon": -122.420782, "tags": {"addr:city": "San Francisco", "addr:housenumber": "1475", "addr:postcode": "94109", "addr:street": "Polk Street", "name": "golden farmers market", "payment:credit_cards": "yes", "phone": "(415) 771-9099", "shop": "supermarket", "wheelchair": "yes"}}, {"type": "node", "id": 2700575435, "lat": 37.7699991, "lon": -122.4476777}, {"type": "node", "id": 2700575437, "lat": 37.7700097, "lon": -122.4475913}, {"type": "node", "id": 2700575441, "lat": 37.7700199, "lon": -122.447508}, {"type": "node", "id": 2700575683, "lat": 37.7703536, "lon": -122.447747}, {"type": "node", "id": 2700575702, "lat": 37.7703879, "lon": -122.4477537}, {"type": "node", "id": 2700575711, "lat": 37.7703984, "lon": -122.4476674}, {"type": "node", "id": 2700575714, "lat": 37.7704086, "lon": -122.447584}, {"type": "node", "id": 2703036789, "lat": 37.7649828, "lon": -122.4497116}, {"type": "node", "id": 2703036791, "lat": 37.7649837, "lon": -122.4496844}, {"type": "node", "id": 2703036793, "lat": 37.764986, "lon": -122.4496849}, {"type": "node", "id": 2703036799, "lat": 37.7650247, "lon": -122.4493436}, {"type": "node", "id": 2703036827, "lat": 37.7650785, "lon": -122.44973}, {"type": "node", "id": 2703036830, "lat": 37.7650812, "lon": -122.4497069}, {"type": "node", "id": 2703036875, "lat": 37.765122, "lon": -122.4493684}, {"type": "node", "id": 2703036878, "lat": 37.7651227, "lon": -122.4493624}, {"type": "node", "id": 2781967130, "lat": 37.7863128, "lon": -122.4509854}, {"type": "node", "id": 2781967131, "lat": 37.7863306, "lon": -122.4509891}, {"type": "node", "id": 2781967133, "lat": 37.7863513, "lon": -122.4506878}, {"type": "node", "id": 2781967134, "lat": 37.7863648, "lon": -122.4506906}, {"type": "node", "id": 2781967135, "lat": 37.7863686, "lon": -122.4506612}, {"type": "node", "id": 2781967165, "lat": 37.786546, "lon": -122.4510337}, {"type": "node", "id": 2781967167, "lat": 37.7865526, "lon": -122.4510351}, {"type": "node", "id": 2781967169, "lat": 37.7865949, "lon": -122.4507081}, {"type": "node", "id": 2796438866, "lat": 37.782117, "lon": -122.4649925}, {"type": "node", "id": 2796438867, "lat": 37.7821292, "lon": -122.4649934}, {"type": "node", "id": 2796438868, "lat": 37.7821718, "lon": -122.4653539}, {"type": "node", "id": 2796439469, "lat": 37.7821722, "lon": -122.4653451}, {"type": "node", "id": 2796439470, "lat": 37.7824582, "lon": -122.4653735}, {"type": "node", "id": 2796439471, "lat": 37.7824742, "lon": -122.465}, {"type": "node", "id": 2811437034, "lat": 37.7445387, "lon": -122.4523911}, {"type": "node", "id": 2811437045, "lat": 37.7447405, "lon": -122.4525843}, {"type": "node", "id": 2811437047, "lat": 37.7447538, "lon": -122.4520316}, {"type": "node", "id": 2811437054, "lat": 37.744946, "lon": -122.4522207}, {"type": "node", "id": 2822033315, "lat": 37.7339527, "lon": -122.4337752}, {"type": "node", "id": 2822033316, "lat": 37.7339764, "lon": -122.4339191}, {"type": "node", "id": 2822033317, "lat": 37.7341861, "lon": -122.4338796}, {"type": "node", "id": 2822037996, "lat": 37.7341506, "lon": -122.4337099}, {"type": "node", "id": 2922201529, "lat": 37.7673166, "lon": -122.4096287}, {"type": "node", "id": 2922628167, "lat": 37.711616, "lon": -122.4533296}, {"type": "node", "id": 2922628168, "lat": 37.7116897, "lon": -122.4534235}, {"type": "node", "id": 2922628169, "lat": 37.7117108, "lon": -122.4530746}, {"type": "node", "id": 2922628170, "lat": 37.7117453, "lon": -122.4529837}, {"type": "node", "id": 2922628171, "lat": 37.7117456, "lon": -122.4529998}, {"type": "node", "id": 2922628172, "lat": 37.7117458, "lon": -122.4531177}, {"type": "node", "id": 2922628173, "lat": 37.7117485, "lon": -122.4530129}, {"type": "node", "id": 2922628174, "lat": 37.7117506, "lon": -122.452965}, {"type": "node", "id": 2922628175, "lat": 37.7117518, "lon": -122.453022}, {"type": "node", "id": 2922628177, "lat": 37.7117711, "lon": -122.4529309}, {"type": "node", "id": 2922628178, "lat": 37.711774, "lon": -122.4529347}, {"type": "node", "id": 2922628179, "lat": 37.7118663, "lon": -122.4527919}, {"type": "node", "id": 2922628180, "lat": 37.7119683, "lon": -122.4531731}, {"type": "node", "id": 2922628183, "lat": 37.7119772, "lon": -122.4526701}, {"type": "node", "id": 2922628184, "lat": 37.7119782, "lon": -122.4526709}, {"type": "node", "id": 2922628185, "lat": 37.7119893, "lon": -122.4526566}, {"type": "node", "id": 2922628186, "lat": 37.7120051, "lon": -122.452641}, {"type": "node", "id": 2922628187, "lat": 37.7120194, "lon": -122.4526368}, {"type": "node", "id": 2922628188, "lat": 37.7120317, "lon": -122.4526376}, {"type": "node", "id": 2922628189, "lat": 37.7120439, "lon": -122.4526425}, {"type": "node", "id": 2922628190, "lat": 37.7120456, "lon": -122.4526445}, {"type": "node", "id": 2922628192, "lat": 37.7121258, "lon": -122.4525416}, {"type": "node", "id": 2922628193, "lat": 37.7121386, "lon": -122.4525557}, {"type": "node", "id": 2922628195, "lat": 37.712284, "lon": -122.4523695}, {"type": "node", "id": 2922628196, "lat": 37.7123169, "lon": -122.4524332}, {"type": "node", "id": 2922628197, "lat": 37.7123267, "lon": -122.4524202}, {"type": "node", "id": 2922628198, "lat": 37.7124133, "lon": -122.4526061}, {"type": "node", "id": 2922628199, "lat": 37.7124159, "lon": -122.4526093}, {"type": "node", "id": 2922629101, "lat": 37.7124367, "lon": -122.4525829}, {"type": "node", "id": 2931450175, "lat": 37.7294328, "lon": -122.3987638}, {"type": "node", "id": 2931450176, "lat": 37.7294494, "lon": -122.3988528}, {"type": "node", "id": 2931450178, "lat": 37.7295404, "lon": -122.3988251}, {"type": "node", "id": 2931450180, "lat": 37.7295639, "lon": -122.398527}, {"type": "node", "id": 2931450181, "lat": 37.7295915, "lon": -122.3990759}, {"type": "node", "id": 2931450183, "lat": 37.7296392, "lon": -122.3990642}, {"type": "node", "id": 2931450185, "lat": 37.7296585, "lon": -122.3992052}, {"type": "node", "id": 2931450905, "lat": 37.7300539, "lon": -122.3991152}, {"type": "node", "id": 2941223964, "lat": 37.7195831, "lon": -122.4388085}, {"type": "node", "id": 2941223965, "lat": 37.7197078, "lon": -122.4390628}, {"type": "node", "id": 2941223966, "lat": 37.7197236, "lon": -122.4390504}, {"type": "node", "id": 2941223967, "lat": 37.7199305, "lon": -122.4394804}, {"type": "node", "id": 2941223968, "lat": 37.7199591, "lon": -122.4385257}, {"type": "node", "id": 2941223969, "lat": 37.7199688, "lon": -122.4385441}, {"type": "node", "id": 2941223970, "lat": 37.7199759, "lon": -122.4391421}, {"type": "node", "id": 2941223972, "lat": 37.7200595, "lon": -122.4384762}, {"type": "node", "id": 2941223973, "lat": 37.7200611, "lon": -122.4393178}, {"type": "node", "id": 2941223974, "lat": 37.7200829, "lon": -122.4393641}, {"type": "node", "id": 2941223988, "lat": 37.7202654, "lon": -122.4389597}, {"type": "node", "id": 2972235799, "lat": 37.7673114, "lon": -122.4097311}, {"type": "node", "id": 3088427373, "lat": 37.7533476, "lon": -122.4155082}, {"type": "node", "id": 3088427374, "lat": 37.7533052, "lon": -122.4162235}, {"type": "node", "id": 3148123214, "lat": 37.7979062, "lon": -122.4085421, "tags": {"name": "Pang Kee Bargain Market", "shop": "supermarket"}}, {"type": "node", "id": 3148123215, "lat": 37.798411, "lon": -122.4086385, "tags": {"name": "Sun Kau Shing Co., Inc.", "shop": "supermarket"}}, {"type": "node", "id": 3376135508, "lat": 37.7884234, "lon": -122.4165679, "tags": {"addr:city": "San Francisco", "addr:housenumber": "988", "addr:postcode": "94109", "addr:state": "CA", "addr:street": "Sutter Street", "name": "Sutter Fine Foods", "opening_hours": "Su,Mo-Fr 07:00-24:00; Sa off", "shop": "supermarket"}}, {"type": "node", "id": 3641710571, "lat": 37.7764867, "lon": -122.4116366, "tags": {"addr:street": "8th Street", "name": "Harvest Urban Market", "opening_hours": "Mo-Su 07:00-22:00", "shop": "supermarket"}}, {"type": "node", "id": 3811475327, "lat": 37.7614046, "lon": -122.424704, "tags": {"addr:city": "San Francisco", "addr:housenumber": "3639", "addr:postcode": "94110", "addr:street": "18th Street", "name": "Bi-Rite Market", "opening_hours": "Mo-Su 08:00-21:00", "phone": "+1 (415) 241-9760", "shop": "supermarket", "website": "https://biritemarket.com/"}}, {"type": "node", "id": 3850073315, "lat": 37.7639653, "lon": -122.4127878, "tags": {"addr:housenumber": "2111", "addr:postcode": "94110", "addr:street": "Harrison Street", "name": "Gus's Community Market", "opening_hours": "07:00-22:00", "phone": "+1 415 431 9300", "shop": "supermarket", "website": "https://gussmarket.com/"}}, {"type": "node", "id": 3857827557, "lat": 37.749437, "lon": -122.413623, "tags": {"addr:city": "San Francisco", "addr:housenumber": "2997", "addr:street": "Folsom Street", "name": "Rubin's Market", "shop": "supermarket"}}, {"type": "node", "id": 3969574176, "lat": 37.795529, "lon": -122.4100247, "tags": {"name": "Kiki Supermarket", "shop": "supermarket"}}, {"type": "node", "id": 3998379075, "lat": 37.7687884, "lon": -122.4155118}, {"type": "node", "id": 3998379080, "lat": 37.7689825, "lon": -122.4150091}, {"type": "node", "id": 3998379081, "lat": 37.7693163, "lon": -122.415273}, {"type": "node", "id": 3998379083, "lat": 37.7693231, "lon": -122.4153692}, {"type": "node", "id": 3998379085, "lat": 37.7693264, "lon": -122.4154047}, {"type": "node", "id": 4017211397, "lat": 37.7969706, "lon": -122.4083521, "tags": {"name": "Dong Hing Supermarket", "shop": "supermarket", "wheelchair": "yes"}}, {"type": "node", "id": 4017220288, "lat": 37.7970928, "lon": -122.4086681, "tags": {"addr:housenumber": "1215", "addr:street": "Stockton Street", "name": "J & L Vegi Supermarket", "shop": "supermarket"}}, {"type": "node", "id": 4173551409, "lat": 37.754856, "lon": -122.412313, "tags": {"name": "Local Mission Market", "shop": "supermarket"}}, {"type": "node", "id": 4173566690, "lat": 37.753871, "lon": -122.416268, "tags": {"name": "Casa Maria", "shop": "supermarket"}}, {"type": "node", "id": 4218361464, "lat": 37.7603364, "lon": -122.41941, "tags": {"name": "City Discount Meat & Grocery Market", "shop": "supermarket"}}, {"type": "node", "id": 4485989999, "lat": 37.776893, "lon": -122.416756}, {"type": "node", "id": 4547291183, "lat": 37.7703233, "lon": -122.4187274}, {"type": "node", "id": 4548821705, "lat": 37.7528358, "lon": -122.4183448, "tags": {"addr:housenumber": "2765", "addr:street": "Mission Street", "name": "Mi Pueblito Market", "shop": "supermarket"}}, {"type": "node", "id": 4625108173, "lat": 37.7948993, "lon": -122.4149473, "tags": {"name": "Jackson Market", "opening_hours": "Mo-Sa 14:00-19:00", "shop": "supermarket", "wheelchair": "yes"}}, {"type": "node", "id": 4631876719, "lat": 37.7840482, "lon": -122.4107866, "tags": {"name": "Cool Super Discount Market", "shop": "supermarket"}}, {"type": "node", "id": 4631891265, "lat": 37.7857309, "lon": -122.4145173, "tags": {"name": "Right Way", "shop": "supermarket"}}, {"type": "node", "id": 4637210183, "lat": 37.7944737, "lon": -122.4182553, "tags": {"name": "J H Grocery and Liquor", "shop": "supermarket"}}, {"type": "node", "id": 4637773272, "lat": 37.7842393, "lon": -122.4111301, "tags": {"name": "Daldas Market", "shop": "supermarket"}}, {"type": "node", "id": 4637773279, "lat": 37.7879975, "lon": -122.4118912, "tags": {"name": "Town and County Market", "opening_hours:signed": "no", "shop": "supermarket"}}, {"type": "node", "id": 4661543003, "lat": 37.7643298, "lon": -122.4027236, "tags": {"addr:city": "San Francisco", "addr:housenumber": "450", "addr:postcode": "94107", "addr:state": "CA", "addr:street": "Rhode Island Street", "brand": "Whole Foods Market", "brand:wikidata": "Q1809448", "brand:wikipedia": "en:Whole Foods Market", "name": "Whole Foods Market", "operator": "Whole Foods", "phone": "+1 415 552-1155", "shop": "supermarket", "website": "https://www.wholefoodsmarket.com/stores/potrerohill", "wheelchair": "no"}}, {"type": "node", "id": 4693634740, "lat": 37.7742721, "lon": -122.391412, "tags": {"addr:city": "San Francisco", "addr:housenumber": "1101", "addr:postcode": "94158", "addr:state": "CA", "addr:street": "4th Street", "name": "Gus's Community Market", "opening_hours": "PH,Mo-Su 08:00-21:00", "payment:cash": "yes", "payment:contactless": "yes", "payment:credit_cards": "yes", "shop": "supermarket", "wheelchair": "yes"}}, {"type": "node", "id": 4704557447, "lat": 37.785398, "lon": -122.4056288, "tags": {"addr:city": "San Francisco", "addr:housenumber": "10", "addr:postcode": "94103", "addr:state": "CA", "addr:street": "4th Street", "brand": "Trader Joe's", "brand:wikidata": "Q688825", "brand:wikipedia": "en:Trader Joe's", "check_date:opening_hours": "2022-10-14", "level": "-1", "name": "Trader Joe's", "opening_hours": "Mo-Su 08:00-21:00", "shop": "supermarket"}}, {"type": "node", "id": 4852448016, "lat": 37.7733138, "lon": -122.4389402, "tags": {"addr:city": "San Francisco", "addr:housenumber": "302", "addr:postcode": "94127", "addr:state": "CA", "addr:street": "Broderick Street", "level": "0", "name": "Falletti Foods", "opening_hours": "Mo-Su 07:00-21:00", "shop": "supermarket", "website": "http://fallettifoods.com"}}, {"type": "node", "id": 4925653001, "lat": 37.7935837, "lon": -122.4110435, "tags": {"shop": "supermarket"}}, {"type": "node", "id": 4934810052, "lat": 37.7305295, "lon": -122.4291782}, {"type": "node", "id": 4934810053, "lat": 37.7304058, "lon": -122.429167}, {"type": "node", "id": 4934810054, "lat": 37.730402, "lon": -122.4292351}, {"type": "node", "id": 4934810055, "lat": 37.7303285, "lon": -122.4292285}, {"type": "node", "id": 4934810056, "lat": 37.7303331, "lon": -122.4291477}, {"type": "node", "id": 4934810057, "lat": 37.7300934, "lon": -122.4291264}, {"type": "node", "id": 4934810058, "lat": 37.7303553, "lon": -122.4288093}, {"type": "node", "id": 4934810059, "lat": 37.7303596, "lon": -122.4287336}, {"type": "node", "id": 4934810060, "lat": 37.7305536, "lon": -122.4287511}, {"type": "node", "id": 4937396411, "lat": 37.7529229, "lon": -122.4157704}, {"type": "node", "id": 4937396412, "lat": 37.7529944, "lon": -122.4157778}, {"type": "node", "id": 4937396413, "lat": 37.7529991, "lon": -122.415697}, {"type": "node", "id": 4937396414, "lat": 37.7531614, "lon": -122.4157123}, {"type": "node", "id": 4937396415, "lat": 37.7531818, "lon": -122.4157323}, {"type": "node", "id": 4937396416, "lat": 37.7533204, "lon": -122.4155056}, {"type": "node", "id": 5270843145, "lat": 37.7824723, "lon": -122.4317597}, {"type": "node", "id": 5437182833, "lat": 37.7696338, "lon": -122.453061}, {"type": "node", "id": 5598432671, "lat": 37.7693808, "lon": -122.4286493}, {"type": "node", "id": 5598432672, "lat": 37.7693858, "lon": -122.4286499}, {"type": "node", "id": 5598432675, "lat": 37.7693221, "lon": -122.4289745}, {"type": "node", "id": 5598432676, "lat": 37.7693635, "lon": -122.4289297}, {"type": "node", "id": 5598432677, "lat": 37.7689041, "lon": -122.4278048}, {"type": "node", "id": 5598432678, "lat": 37.7689152, "lon": -122.4277865}, {"type": "node", "id": 5598432679, "lat": 37.7688885, "lon": -122.4278444}, {"type": "node", "id": 5598432680, "lat": 37.7688957, "lon": -122.4278238}, {"type": "node", "id": 5598432681, "lat": 37.7689593, "lon": -122.4277469}, {"type": "node", "id": 5598432682, "lat": 37.7688841, "lon": -122.4278667}, {"type": "node", "id": 5598432683, "lat": 37.7689934, "lon": -122.4277351}, {"type": "node", "id": 5598432684, "lat": 37.768943, "lon": -122.4277579}, {"type": "node", "id": 5598432685, "lat": 37.768976, "lon": -122.4277399}, {"type": "node", "id": 5598432686, "lat": 37.7690112, "lon": -122.4277334}, {"type": "node", "id": 5598432691, "lat": 37.7691561, "lon": -122.428975}, {"type": "node", "id": 5598432692, "lat": 37.7691572, "lon": -122.4289582}, {"type": "node", "id": 6075530401, "lat": 37.7835246, "lon": -122.4476635}, {"type": "node", "id": 6075530411, "lat": 37.7832009, "lon": -122.4479173}, {"type": "node", "id": 6075530412, "lat": 37.7835265, "lon": -122.4476486}, {"type": "node", "id": 6075530424, "lat": 37.7831857, "lon": -122.4479142}, {"type": "node", "id": 6075574280, "lat": 37.7835756, "lon": -122.4478012}, {"type": "node", "id": 6075574281, "lat": 37.7835226, "lon": -122.4480882}, {"type": "node", "id": 6075583626, "lat": 37.7834154, "lon": -122.4480662}, {"type": "node", "id": 6075583629, "lat": 37.7832646, "lon": -122.4480355}, {"type": "node", "id": 6075583632, "lat": 37.7833813, "lon": -122.4480594}, {"type": "node", "id": 6454343835, "lat": 37.7438495, "lon": -122.4391969}, {"type": "node", "id": 6454343840, "lat": 37.7438124, "lon": -122.4385904}, {"type": "node", "id": 6454343841, "lat": 37.7437827, "lon": -122.4385585}, {"type": "node", "id": 6454343842, "lat": 37.7437894, "lon": -122.4392876}, {"type": "node", "id": 6469314085, "lat": 37.7890338, "lon": -122.3919796, "tags": {"addr:city": "San Francisco", "addr:housenumber": "203", "addr:postcode": "94105", "addr:state": "CA", "addr:street": "Folsom Street", "name": "Woodlands Market", "opening_hours": "Mo-Su 07:00-21:00", "shop": "supermarket", "website": "https://www.woodlandsmarket.com/san-francisco/"}}, {"type": "node", "id": 6612380473, "lat": 37.7696338, "lon": -122.4530619}, {"type": "node", "id": 6612380474, "lat": 37.769489, "lon": -122.4530318}, {"type": "node", "id": 7071730541, "lat": 37.7449469, "lon": -122.4522357}, {"type": "node", "id": 7071730543, "lat": 37.7449398, "lon": -122.4522091}, {"type": "node", "id": 7071730544, "lat": 37.7449433, "lon": -122.4522142}, {"type": "node", "id": 7071730545, "lat": 37.7449446, "lon": -122.4522424}, {"type": "node", "id": 7071730546, "lat": 37.7449473, "lon": -122.4522274}, {"type": "node", "id": 7160241710, "lat": 37.6963421, "lon": -122.4641883}, {"type": "node", "id": 7160241719, "lat": 37.696342, "lon": -122.464202}, {"type": "node", "id": 7762107212, "lat": 37.7673422, "lon": -122.4092242}, {"type": "node", "id": 7825214059, "lat": 37.6973916, "lon": -122.4629978}, {"type": "node", "id": 7825214060, "lat": 37.6975637, "lon": -122.463099}, {"type": "node", "id": 7825214063, "lat": 37.6975656, "lon": -122.4630757}, {"type": "node", "id": 7825214064, "lat": 37.6977037, "lon": -122.4630853}, {"type": "node", "id": 7825214065, "lat": 37.6977048, "lon": -122.4631152}, {"type": "node", "id": 7825214066, "lat": 37.6978436, "lon": -122.4631242}, {"type": "node", "id": 7825214067, "lat": 37.6978466, "lon": -122.4630961}, {"type": "node", "id": 7825214068, "lat": 37.697983, "lon": -122.4631226}, {"type": "node", "id": 7825217385, "lat": 37.6974701, "lon": -122.4630697}, {"type": "node", "id": 7825217398, "lat": 37.6979828, "lon": -122.4631016}, {"type": "node", "id": 8140177640, "lat": 37.7972287, "lon": -122.4352703, "tags": {"addr:city": "San Francisco", "addr:housenumber": "2190", "addr:postcode": "94123", "addr:state": "CA", "addr:street": "Union Street", "name": "Luke's Local", "opening_hours": "Mo-Su 08:00-21:00", "opening_hours:covid19": "same", "organic": "yes", "payment:american_express": "yes", "payment:cash": "yes", "payment:contactless": "yes", "payment:credit_cards": "yes", "payment:debit_cards": "yes", "payment:mastercard": "yes", "payment:visa": "yes", "shop": "supermarket", "start_date": "2020-11-14", "website": "https://lukeslocal.com/"}}, {"type": "node", "id": 8245516499, "lat": 37.6980795, "lon": -122.4630557, "tags": {"entrance": "main", "level": "0", "wheelchair": "yes"}}, {"type": "node", "id": 8713627653, "lat": 37.7528609, "lon": -122.4104106, "tags": {"shop": "supermarket"}}, {"type": "node", "id": 9023293126, "lat": 37.8091295, "lon": -122.4187761, "tags": {"addr:housenumber": "Pier 47", "name": "J & P Bait", "phone": "(415) 507-1962", "shop": "supermarket", "website": "https://www.facebook.com/JP-Bait-190511807702436"}}, {"type": "node", "id": 9581957721, "lat": 37.7788891, "lon": -122.414112, "tags": {"addr:housenumber": "1185", "addr:street": "Market Street", "brand": "Whole Foods Market", "brand:wikidata": "Q1809448", "brand:wikipedia": "en:Whole Foods Market", "name": "Whole Foods Market", "opening_hours": "Mo-Su 08:00-21:00", "opening_hours:covid19": "same", "phone": "+1-415-354-7555", "shop": "supermarket", "website": "https://www.wholefoodsmarket.com/stores/trinity"}}, {"type": "node", "id": 9765670368, "lat": 37.7692979, "lon": -122.415046, "tags": {"door": "sliding", "entrance": "main"}}, {"type": "node", "id": 9908618530, "lat": 37.7833913, "lon": -122.4223935, "tags": {"addr:city": "San Francisco", "addr:housenumber": "995", "addr:postcode": "94109", "addr:state": "CA", "addr:street": "Ellis Street", "name": "College Market", "shop": "supermarket"}}, {"type": "node", "id": 10028455855, "lat": 37.7339782, "lon": -122.4339306}, {"type": "node", "id": 10114600546, "lat": 37.7765808, "lon": -122.4163554}, {"type": "way", "id": 25821952, "nodes": [281652956, 281652957, 281652958, 281652959, 281652956], "tags": {"addr:housenumber": "1800", "addr:street": "Folsom Street", "brand": "Foods Co", "brand:wikidata": "Q5465282", "brand:wikipedia": "en:Food 4 Less", "building": "retail", "name": "Foods Co", "opening_hours": "06:00-01:00", "shop": "supermarket"}}, {"type": "way", "id": 26135377, "nodes": [286131029, 286131030, 286131031, 286131032, 2282799648, 2282799645, 2282799654, 2282799649, 286131029], "tags": {"addr:city": "San Francisco", "addr:housenumber": "15", "addr:postcode": "94123", "addr:street": "Marina Boulevard", "brand": "Safeway", "brand:wikidata": "Q1508234", "brand:wikipedia": "en:Safeway Inc.", "building": "yes", "designation": "Safeway 1711", "height": "5", "name": "Safeway", "opening_hours": "24/7", "shop": "supermarket", "website": "https://local.safeway.com/ca/san-francisco-1711.html", "wheelchair": "yes"}}, {"type": "way", "id": 34323155, "nodes": [393729801, 6075530401, 6075530412, 393729802, 6075530424, 6075530411, 393729803, 6075583629, 6075583632, 6075583626, 6075574281, 393729804, 6075574280, 393729801], "tags": {"addr:city": "San Francisco", "addr:country": "US", "addr:housenumber": "3", "addr:postcode": "94118", "addr:state": "CA", "addr:street": "Masonic Avenue", "brand": "Trader Joe's", "brand:wikidata": "Q688825", "brand:wikipedia": "en:Trader Joe's", "building": "retail", "building:levels": "1", "check_date:opening_hours": "2022-08-11", "height": "7", "name": "Trader Joe's", "opening_hours": "Mo-Su 08:00-21:00", "phone": "+1 (415) 346-9964", "ref": "100", "roof:levels": "0", "shop": "supermarket"}}, {"type": "way", "id": 42916777, "nodes": [537501766, 537501830, 537501829, 537501767, 537501769, 4547291183, 537501796, 537501770, 537501766], "tags": {"building": "yes", "height": "5", "name": "Cash & Carry", "shop": "supermarket"}}, {"type": "way", "id": 51183434, "nodes": [7825214059, 652928242, 7825217385, 652928244, 7825214060, 7825214063, 7825214064, 7825214065, 7825214066, 7825214067, 7825217398, 7825214068, 652928258, 8245516499, 652928260, 652928261, 652928263, 652928264, 652928220, 652928221, 1806966556, 652928223, 7825214059], "tags": {"brand": "Lucky", "brand:wikidata": "Q6698032", "brand:wikipedia": "en:Lucky Stores", "building": "yes", "name": "Lucky", "shop": "supermarket", "source": "Yahoo"}}, {"type": "way", "id": 151183375, "nodes": [2931450905, 1640101706, 2931450180, 1640101688, 2931450175, 2931450176, 2931450178, 2931450181, 2931450183, 2931450185, 2931450905], "tags": {"addr:city": "San Francisco", "addr:housenumber": "345", "addr:postcode": "94124", "addr:state": "CA", "addr:street": "Williams Avenue", "building": "yes", "height": "6", "name": "Foodsco", "opening_hours": "Mo-Su 06:00-00:00", "phone": "+1-415-330-1870", "shop": "supermarket", "website": "foodsco.net"}}, {"type": "way", "id": 169204245, "nodes": [1803661676, 3998379075, 764070894, 276545898, 3998379085, 3998379083, 3998379081, 9765670368, 276545899, 276545900, 276545901, 1803661672, 1803661678, 3998379080, 1803661671, 1803661675, 1803661669, 1803661674, 1803661676], "tags": {"addr:city": "San Francisco", "addr:country": "US", "addr:housenumber": "1745", "addr:postcode": "94103", "addr:state": "CA", "addr:street": "Folsom Street", "building": "hall", "cooperative": "yes", "email": "general@rainbow.coop", "fixme": "Validate additional holidays for opening_hours key", "image": "https://upload.wikimedia.org/wikipedia/en/4/46/Rainbow_grocery_logo.png", "name": "Rainbow Grocery Coop", "note": "HOLIDAYS:( CLOSED ON ) Martin Luther King Day (3rd Monday in January) Gay Pride Day (Last Sunday in June)", "opening_hours": "Mo-Su 09:00-21:00; PH closed; Mar 31 closed; May 01 closed", "phone": "+1 415-863-0620", "shop": "supermarket", "source": "website", "website": "https://www.rainbow.coop/", "wheelchair": "yes", "wikidata": "Q7284643", "wikipedia": "en:Rainbow Grocery Cooperative"}}, {"type": "way", "id": 169535829, "nodes": [1806966502, 1806966505, 1806966519, 1806966527, 1806966494, 1806966493, 1806966484, 1806966482, 7160241710, 7160241719, 1806966502], "tags": {"brand": "Smart & Final", "brand:wikidata": "Q7543916", "brand:wikipedia": "en:Smart & Final", "building": "yes", "name": "Smart & Final", "shop": "supermarket", "source": "Bing"}}, {"type": "way", "id": 170845442, "nodes": [1819811655, 2796439471, 1819811648, 1819811638, 2796438867, 2796438866, 1819811637, 2796439469, 2796438868, 2796439470, 1819811654, 1819811655], "tags": {"brand": "Smart & Final", "brand:wikidata": "Q7543916", "brand:wikipedia": "en:Smart & Final", "building": "yes", "height": "8", "name": "Smart & Final", "shop": "supermarket", "wheelchair": "yes"}}, {"type": "way", "id": 194906343, "nodes": [2054170700, 2054170689, 2054170702, 2321151157, 2321151160, 2321151158, 2321151156, 2054170704, 2054170700], "tags": {"addr:city": "San Francisco", "addr:housenumber": "3950", "addr:postcode": "94114", "addr:state": "CA", "addr:street": "24th Street", "brand": "Whole Foods Market", "brand:wikidata": "Q1809448", "brand:wikipedia": "en:Whole Foods Market", "building": "yes", "name": "Whole Foods Market", "operator": "Whole Foods", "phone": "+1 415 282-4700", "shop": "supermarket", "website": "https://www.wholefoodsmarket.com/stores/noevalley"}}, {"type": "way", "id": 219058165, "nodes": [2282647807, 2282647824, 2282647817, 2282647818, 2282647810, 2282647819, 2282647806, 2282647814, 2282647813, 2282647820, 2282647815, 2282647804, 371233599, 5270843145, 2282647807], "tags": {"addr:city": "San Francisco", "addr:housenumber": "1335", "addr:postcode": "94115", "addr:street": "Webster Street", "branch": "0995", "brand": "Safeway", "brand:wikidata": "Q1508234", "brand:wikipedia": "en:Safeway Inc.", "building": "retail", "designation": "Safeway 0995", "height": "7", "name": "Safeway", "opening_hours": "06:00-24:00", "shop": "supermarket", "website": "https://local.safeway.com/ca/san-francisco-995.html"}}, {"type": "way", "id": 219059390, "nodes": [2282680197, 2282680238, 2282680235, 2282680198, 2282680196, 2282680206, 2282680202, 2282680211, 2282680192, 2282680212, 2282680197], "tags": {"addr:city": "San Francisco", "addr:housenumber": "625", "addr:postcode": "94127", "addr:street": "Monterey Boulevard", "branch": "0759", "brand": "Safeway", "brand:wikidata": "Q1508234", "brand:wikipedia": "en:Safeway Inc.", "building": "yes", "designation": "Safeway 0759", "name": "Safeway", "opening_hours": "06:00-24:00", "ref": "759", "shop": "supermarket", "website": "https://local.safeway.com/ca/san-francisco-759.html"}}, {"type": "way", "id": 219071301, "nodes": [2282789021, 2282789026, 2282789020, 2282789014, 6454343841, 6454343840, 6454343835, 6454343842, 2282789021], "tags": {"addr:city": "San Francisco", "addr:housenumber": "5290", "addr:postcode": "94131", "addr:street": "Diamond Heights Boulevard", "branch": "0667", "brand": "Safeway", "brand:wikidata": "Q1508234", "brand:wikipedia": "en:Safeway Inc.", "building": "yes", "designation": "Safeway 0667", "height": "6", "name": "Safeway", "opening_hours": "06:00-02:00", "phone": "+1 (415) 824-7744", "ref": "0667", "shop": "supermarket", "website": "https://local.safeway.com/ca/san-francisco-667.html", "wheelchair": "yes"}}, {"type": "way", "id": 219071796, "nodes": [2282794101, 2282794095, 2282794106, 2282794078, 2282794112, 2282794079, 2282794094, 2282794119, 2282794085, 2282794092, 2282794114, 2282794097, 2282794081, 2282794093, 2282794083, 2282794117, 2282794103, 2282794118, 2282794090, 2282794098, 2282794113, 2282794101], "tags": {"addr:city": "San Francisco", "addr:country": "US", "addr:housenumber": "735", "addr:postcode": "94118", "addr:state": "CA", "addr:street": "7th Avenue", "branch": "2646", "brand": "Safeway", "brand:wikidata": "Q1508234", "brand:wikipedia": "en:Safeway Inc.", "building": "yes", "designation": "Safeway 2646", "height": "5", "name": "Safeway", "opening_hours": "24/7", "shop": "supermarket", "website": "https://local.safeway.com/ca/san-francisco-2646.html"}}, {"type": "way", "id": 219072560, "nodes": [2282801965, 2282801971, 1723375479, 5598432691, 5598432692, 5598432675, 5598432676, 5598432671, 5598432672, 2282801966, 2282801970, 2282801964, 5598432686, 5598432683, 5598432685, 5598432681, 5598432684, 2282801961, 5598432678, 5598432677, 5598432680, 5598432679, 5598432682, 2282801967, 2282801963, 2282801965], "tags": {"addr:city": "San Francisco", "addr:housenumber": "2020", "addr:postcode": "94114", "addr:state": "CA", "addr:street": "Market Street", "brand": "Safeway", "brand:wikidata": "Q1508234", "brand:wikipedia": "en:Safeway Inc.", "building": "retail", "building:levels": "1", "height": "6", "name": "Safeway", "opening_hours": "24/7", "ref": "1507", "shop": "supermarket", "website": "https://local.safeway.com/ca/san-francisco-1507.html"}}, {"type": "way", "id": 225063111, "nodes": [2338865788, 2338865787, 2338865775, 2338865776, 2338865788], "tags": {"addr:housenumber": "448", "addr:postcode": "94110", "addr:street": "Cortland Avenue", "building": "yes", "name": "Good Life Grocery", "opening_hours": "Mo-Su 07:00-21:30", "shop": "supermarket", "wheelchair": "yes"}}, {"type": "way", "id": 228246796, "nodes": [2368791978, 2368791980, 2368783178, 2294690551, 6612380474, 5437182833, 6612380473, 2294690556, 2294690561, 2294690553, 2368784957, 2368791978], "tags": {"addr:housenumber": "690", "addr:street": "Stanyan Street", "brand": "Whole Foods Market", "brand:wikidata": "Q1809448", "brand:wikipedia": "en:Whole Foods Market", "building": "yes", "height": "6", "name": "Whole Foods Market", "opening_hours": "Mo-Su 08:00-22:00", "shop": "supermarket", "source": "Bing", "website": "https://www.wholefoodsmarket.com/stores/haightstreet"}}, {"type": "way", "id": 231656266, "nodes": [2399950838, 2399950826, 2399950876, 2282681700, 2282681693, 275513434, 2399950838], "tags": {"addr:city": "San Francisco", "addr:housenumber": "3350", "addr:postcode": "94110", "addr:street": "Mission Street", "brand": "Safeway", "brand:wikidata": "Q1508234", "brand:wikipedia": "en:Safeway Inc.", "building": "yes", "designation": "Safeway 0739", "height": "7", "name": "Safeway", "opening_hours": "24/7", "ref": "0739", "shop": "supermarket", "website": "https://local.safeway.com/ca/san-francisco-739.html", "wheelchair": "yes"}}, {"type": "way", "id": 243571748, "nodes": [2509602439, 2509602403, 2509602395, 2509602338, 2509602414, 2509602452, 2509602439], "tags": {"addr:city": "San Francisco", "addr:country": "US", "addr:housenumber": "1201", "addr:postcode": "94103", "addr:street": "Howard Street", "building": "yes", "name": "Unimart", "phone": "415-431-0362", "shop": "supermarket", "survey:date": "2013-12-16", "website": "https://plus.google.com/115022724622950373845/about?gl=us&hl=en"}}, {"type": "way", "id": 256912288, "nodes": [2625322054, 2625322057, 2625322074, 2625322059, 2625322060, 2625322054], "tags": {"addr:city": "San Francisco", "addr:housenumber": "755", "addr:postcode": "94127", "addr:street": "Portola Drive", "building": "retail", "height": "6", "name": "Miraloma Market", "shop": "supermarket"}}, {"type": "way", "id": 258157210, "nodes": [2635592120, 2635592186, 2635592188, 2635592271, 2635592278, 2635592241, 2635592243, 2635592146, 2635592150, 2635592122, 2635592106, 2635592104, 2635592116, 2635592110, 2635592120], "tags": {"addr:city": "San Francisco", "addr:housenumber": "2918", "addr:state": "CA", "addr:street": "24th Street", "building": "yes", "height": "9", "name": "Lo-cost Meat Market", "shop": "supermarket"}}, {"type": "way", "id": 260194579, "nodes": [2683767278, 2683767180, 2683767168, 2683767151, 2683767212, 2683767211, 2683767244, 2683767249, 2683767259, 2683767268, 2683767278], "tags": {"addr:city": "San Francisco", "addr:housenumber": "782", "addr:postcode": "94118", "addr:state": "CA", "addr:street": "Arguello Boulevard", "building": "commercial", "building:levels": "1", "height": "5", "name": "Arguello Market", "opening_hours": "Mo-Sa 07:30-20:00; Su 07:30-19:00; PH closed", "shop": "supermarket"}}, {"type": "way", "id": 260925348, "nodes": [2665234939, 2665234938, 2665234969, 2665234978, 2665234954, 2665234948, 2665234939], "tags": {"addr:housenumber": "686", "addr:street": "Sacramento Street", "building": "yes", "name": "Canton Bazaar", "shop": "supermarket"}}, {"type": "way", "id": 260930249, "nodes": [2665287350, 2665287342, 2665287363, 2665287365, 2665287350], "tags": {"addr:city": "San Francisco", "addr:housenumber": "145", "addr:postcode": "94111", "addr:state": "CA", "addr:street": "Jackson Street", "brand": "Safeway", "brand:wikidata": "Q1508234", "brand:wikipedia": "en:Safeway Inc.", "building": "yes", "ele": "0", "height": "13", "name": "Safeway", "opening_hours": "06:00-21:00", "phone": "+1 415 982 3112", "ref": "4601", "shop": "supermarket", "website": "https://local.safeway.com/ca/san-francisco-4601.html", "wheelchair": "yes"}}, {"type": "way", "id": 260967541, "nodes": [2665667343, 2665667345, 2665667338, 2665667337, 2665667343], "tags": {"addr:city": "San Francisco", "addr:housenumber": "775;779", "addr:postcode": "94133", "addr:state": "CA", "addr:street": "Vallejo Street", "atm": "no", "building": "yes", "building:levels": "2", "height": "8", "name": "Chef Bowl, Inc.", "phone": "415-398-3288", "shop": "supermarket", "source": "Observation"}}, {"type": "way", "id": 261292750, "nodes": [2669246260, 2669246322, 2669246258, 2669246227, 2669246223, 2669246205, 2669246202, 2669246260], "tags": {"addr:housename": "Bi-Rite Market", "addr:housenumber": "550", "addr:postcode": "94117", "addr:street": "Divisadero Street", "building": "yes", "name": "Bi-Rite Market", "shop": "supermarket", "website": "https://biritemarket.com/"}}, {"type": "way", "id": 263224863, "nodes": [2688485805, 2688485788, 2688485786, 2688485804, 2688485805], "tags": {"addr:city": "San Francisco", "addr:country": "US", "addr:housenumber": "2435", "addr:state": "CA", "addr:street": "California Street", "building": "yes", "height": "9", "name": "Mollie Stone's", "phone": "415-567-4902", "shop": "supermarket", "wheelchair": "yes"}}, {"type": "way", "id": 264371887, "nodes": [2700575711, 2700575714, 2700575441, 2700575437, 2700575435, 2700575683, 2700575702, 2700575711], "tags": {"addr:housename": "Haight Street Market", "addr:housenumber": "1530", "addr:postcode": "94117", "addr:street": "Haight Street", "building": "yes", "designation": "Grocery, product, deli, meats and fish", "height": "6", "name": "Haight Street Market", "opening_hours": "Mo-Su 07:00-21:30", "shop": "supermarket", "source": "first hand knwledge", "website": "http://www.haightstreetmarket.com"}}, {"type": "way", "id": 264645161, "nodes": [2703036827, 2703036830, 2703036875, 2703036878, 2703036799, 2703036791, 2703036793, 2703036789, 2703036827], "tags": {"addr:city": "San Francisco", "addr:country": "US", "addr:housenumber": "960", "addr:postcode": "94117", "addr:state": "CA", "addr:street": "Cole Street", "building": "retail", "height": "5", "name": "Luke's Local", "opening_hours": "Mo-Su 08:00-21:00", "payment:cash": "yes", "payment:credit_cards": "yes", "shop": "supermarket"}}, {"type": "way", "id": 273331515, "nodes": [2781967169, 2781967135, 2781967134, 2781967133, 2781967130, 2781967131, 2781967165, 2781967167, 2781967169], "tags": {"addr:housenumber": "3445", "addr:street": "California Street", "building": "yes", "height": "7", "name": "Bryan's Grocery", "shop": "supermarket"}}, {"type": "way", "id": 276546465, "nodes": [2811437045, 7071730545, 7071730541, 7071730546, 2811437054, 7071730544, 7071730543, 2811437047, 2811437034, 2811437045], "tags": {"addr:city": "San Francisco", "addr:country": "US", "addr:housenumber": "635", "addr:postcode": "94127", "addr:state": "CA", "addr:street": "Portola Drive", "alt_name": "Tower Market", "building": "retail", "building:levels": "1", "height": "7", "name": "Mollie Stone's", "opening_hours": "07:00-21:00", "shop": "supermarket", "wheelchair": "yes"}}, {"type": "way", "id": 277743066, "nodes": [2822033316, 2822033315, 2822037996, 2822033317, 10028455855, 2822033316], "tags": {"addr:city": "San Francisco", "addr:housenumber": "2815", "addr:postcode": "94131", "addr:street": "Diamond Street", "building": "commercial", "level": "1", "name": "Canyon Market", "phone": "+1 415 586 9999", "shop": "supermarket", "smoking": "no", "website": "http://www.canyonmarket.com/"}}, {"type": "way", "id": 288709542, "nodes": [2922629101, 2922628196, 2922628197, 2922628195, 2922628193, 2922628192, 2922628190, 2922628189, 2922628188, 2922628187, 2922628186, 2922628185, 2922628184, 2922628183, 2922628179, 2922628177, 2922628178, 2922628174, 2922628170, 2922628171, 2922628173, 2922628175, 2922628169, 2922628172, 2922628167, 2922628168, 2922628180, 2922628198, 2922628199, 2922629101], "tags": {"building": "yes", "height": "6", "shop": "supermarket"}}, {"type": "way", "id": 290616523, "nodes": [2941223973, 2941223970, 2941223988, 2941223972, 2941223969, 2941223968, 2941223964, 2941223965, 2941223966, 2941223967, 2941223974, 2941223973], "tags": {"addr:city": "San Francisco", "addr:housenumber": "4950", "addr:postcode": "94112", "addr:street": "Mission Street", "brand": "Safeway", "brand:wikidata": "Q1508234", "brand:wikipedia": "en:Safeway Inc.", "building": "yes", "designation": "Safeway 0964", "height": "6", "name": "Safeway", "opening_hours": "24/7", "shop": "supermarket", "website": "https://local.safeway.com/ca/san-francisco-964.html"}}, {"type": "way", "id": 293604057, "nodes": [2972235799, 310601138, 310601139, 2282804190, 310601153, 310601154, 310601156, 310601157, 310601158, 310601159, 7762107212, 2922201529, 2972235799], "tags": {"addr:city": "San Francisco", "addr:housenumber": "2300", "addr:postcode": "94102", "addr:street": "16th Street", "addr:unit": "203", "brand": "Safeway", "brand:wikidata": "Q1508234", "brand:wikipedia": "en:Safeway Inc.", "building": "retail", "designation": "Safeway 1490", "name": "Safeway", "opening_hours": "24/7", "shop": "supermarket", "website": "https://local.safeway.com/ca/san-francisco-1490.html"}}, {"type": "way", "id": 503144637, "nodes": [4934810052, 4934810053, 4934810054, 4934810055, 4934810056, 2095919655, 4934810057, 2095938862, 4934810058, 4934810059, 4934810060, 4934810052], "tags": {"addr:city": "San Francisco", "addr:housenumber": "4175", "addr:postcode": "94112", "addr:state": "CA", "addr:street": "Mission Street", "building": "yes", "name": "Manila Oriental Market", "opening_hours": "Mo-Sa 08:30-20:30, Su 08:00-20:30", "phone": "1-415-337-7272", "shop": "supermarket"}}, {"type": "way", "id": 503427028, "nodes": [3088427374, 2634481110, 2634481119, 2634481133, 2634481139, 4937396411, 4937396412, 4937396413, 4937396414, 4937396415, 4937396416, 3088427373, 3088427374], "tags": {"addr:city": "San Francisco", "addr:housenumber": "1245", "addr:postcode": "94110", "addr:state": "CA", "addr:street": "South Van Ness Avenue", "brand": "Grocery Outlet", "brand:wikidata": "Q5609934", "brand:wikipedia": "en:Grocery Outlet", "building": "yes", "name": "Grocery Outlet", "official_name": "Grocery Outlet Bargain Market", "opening_hours": "Mo-Su 08:00-20:00", "phone": "+1-415-872-7170", "shop": "supermarket", "website": "https://groceryoutlet.com/circulars/storeid/306"}}, {"type": "way", "id": 1105289817, "nodes": [4485989999, 10114600546, 411910256, 411910255, 4485989999], "tags": {"addr:city": "San Francisco", "addr:housenumber": "1355", "addr:postcode": "94103", "addr:state": "CA", "addr:street": "Market Street", "addr:unit": "100", "alt_name": "Market on Market", "fixme": "Needs survey for interior vendors.", "level": "0", "name": "The Market", "opening_hours": "09:00-20:00", "phone": "+1 415-767-5130", "shop": "supermarket", "website": "https://www.visitthemarket.com/"}}]}