{"version": 0.6, "generator": "Overpass API 0.7.59 e21c39fe", "osm3s": {"timestamp_osm_base": "2022-11-18T21:34:31Z", "copyright": "The data included in this document is from www.openstreetmap.org. The data is made available under ODbL."}, "elements": [{"type": "node", "id": 286632462, "lat": 37.8686097, "lon": -122.258768, "tags": {"addr:city": "Berkeley", "addr:postcode": "94704", "addr:street": "Bancroft Way", "alt_name": "Jamba", "amenity": "fast_food", "brand": "Jamba", "brand:wikidata": "Q3088784", "brand:wikipedia": "en:Jamba Juice", "cuisine": "juice", "name": "Jamba Juice", "takeaway": "yes", "website": "https://www.jamba.com/ca/berkeley/bancroft-150", "wheelchair": "limited", "wheelchair:description": "Cashier & order counter are high and the door could be difficult, but the inside is clear & there's no step."}}, {"type": "node", "id": 288991105, "lat": 37.8709518, "lon": -122.274845, "tags": {"addr:city": "Berkeley", "addr:housenumber": "1800", "addr:postcode": "94703", "addr:street": "University Avenue", "amenity": "fast_food", "cuisine": "burger", "drive_in": "no", "microbrewery": "no", "name": "Nation's Giant Hamburgers", "opening_hours": "Su-Th 06:00-00:30, Sa,Su 06:00-01:30", "phone": "+1 510 8437326", "smoking": "no", "website": "http://www.nationsrestaurants.com/", "wheelchair": "yes"}}, {"type": "node", "id": 314115417, "lat": 37.8798656, "lon": -122.268921, "tags": {"amenity": "fast_food", "cuisine": "mexican", "name": "Mexicana Taqueria", "opening_hours": "Mo-Su 11:00-19:00", "phone": "+1-510-6292040", "website": "https://www.mexicanataqueria.com/"}}, {"type": "node", "id": 314115730, "lat": 37.872303, "lon": -122.268629, "tags": {"addr:city": "Berkeley", "addr:country": "US", "addr:housenumber": "1998", "addr:postcode": "94704", "addr:state": "CA", "addr:street": "Shattuck Avenue", "amenity": "fast_food", "brand": "McDonald's", "brand:wikidata": "Q38076", "brand:wikipedia": "en:McDonald's", "cuisine": "burger", "diet:vegetarian": "yes", "drive_in": "no", "drive_through": "no", "internet_access": "wlan", "internet_access:fee": "no", "name": "McDonald's", "opening_hours": "Su-Tu 05:00-23:00; We-Sa 05:00-00:00", "phone": "+1 510 8431500", "takeaway": "yes", "website": "https://www.mcdonalds.com/us/en-us/location/ca/berkeley/1998-shattuck-ave/4372.html", "wheelchair": "yes"}}, {"type": "node", "id": 318886210, "lat": 37.8752789, "lon": -122.259678, "tags": {"addr:housenumber": "2490", "addr:street": "Hearst Avenue", "amenity": "fast_food", "brand": "Subway", "brand:wikidata": "Q244457", "brand:wikipedia": "en:Subway (restaurant)", "cuisine": "sandwich", "diet:vegetarian": "yes", "name": "Subway", "opening_hours": "Mo-Fr 10:00-17:00", "operator": "Subway IP Inc.", "phone": "(510)849-9009", "takeaway": "yes", "website": "https://order.subway.com/"}}, {"type": "node", "id": 318886226, "lat": 37.8758027, "lon": -122.260426, "tags": {"addr:city": "Berkeley", "addr:housenumber": "1814", "addr:postcode": "94709", "addr:state": "CA", "addr:street": "Euclid Avenue", "amenity": "fast_food", "cuisine": "vietnamese;sandwich", "name": "Banh Mi and Rolls Factory", "opening_hours": "Mo-Su 10:00-17:00", "website": "https://places.singleplatform.com/banh-mi--roll-factory/menu"}}, {"type": "node", "id": 343317738, "lat": 37.9023271, "lon": -122.3040885, "tags": {"amenity": "fast_food", "brand": "Burger King", "brand:wikidata": "Q177054", "brand:wikipedia": "en:Burger King", "cuisine": "burger", "delivery": "no", "drive_through": "no", "name": "Burger King", "opening_hours": "Mo-Sa 06:00-24:00; Sa 07:00-24:00", "phone": "+1 510 525 6377", "takeaway": "yes", "wheelchair": "yes"}}, {"type": "node", "id": 343610923, "lat": 37.8916031, "lon": -122.2777571, "tags": {"amenity": "fast_food", "brand": "Noah's Bagels", "brand:wikidata": "Q64517373", "cuisine": "bagel", "diet:vegetarian": "yes", "name": "Noah's Bagels", "official_name": "Noah's New York Bagels", "takeaway": "yes", "website": "https://locations.noahs.com/us/ca/berkeley/1883-solano-ave"}}, {"type": "node", "id": 343610977, "lat": 37.8909468, "lon": -122.2894918, "tags": {"addr:city": "Albany", "addr:housenumber": "1423", "addr:street": "Solano Avenue", "amenity": "fast_food", "cuisine": "mexican", "drive_through": "no", "indoor_seating": "no", "name": "Gordo Taqueria", "opening_hours": "Mo-Su 10:00-21:00", "outdoor_seating": "no", "phone": "(510) 528-8226", "takeaway": "only", "website": "https://www.gordotaqueria.shop/s/order?location=11e9d8b4dd2463b5b1e20cc47a2ae3c4", "wheelchair": "yes"}}, {"type": "node", "id": 343610978, "lat": 37.8909437, "lon": -122.2895478, "tags": {"addr:city": "Berkeley", "addr:housenumber": "1421", "addr:postcode": "94706", "addr:street": "Solano Avenue", "amenity": "fast_food", "brand": "Domino's", "brand:wikidata": "Q839466", "brand:wikipedia": "en:Domino's Pizza", "cuisine": "pizza", "delivery": "yes", "drive_through": "no", "name": "Domino's", "old_name": "Domino's Pizza", "opening_hours": "Su-Th 10:30-00:00; Fr-Sa 10:30-01:00", "phone": "(510) 526-9346", "takeaway": "only", "website": "https://www.dominos.com/", "wheelchair": "limited"}}, {"type": "node", "id": 343610994, "lat": 37.8906942, "lon": -122.2938478, "tags": {"addr:city": "Albany", "addr:housenumber": "1247", "addr:postcode": "94706", "addr:state": "CA", "addr:street": "Solano Avenue", "amenity": "fast_food", "cuisine": "japanese;korean", "indoor_seating": "yes", "name": "Oori Rice Triangles", "opening_hours": "Mo-Su 11:00-21:00", "outdoor_seating": "yes", "takeaway": "yes", "website": "https://www.ooririce.com/location/oori-foods-albany/", "wheelchair": "limited"}}, {"type": "node", "id": 343611008, "lat": 37.8900058, "lon": -122.298601, "tags": {"addr:city": "Albany", "addr:street": "San Pablo Avenue", "amenity": "fast_food", "cuisine": "mexican", "drive_through": "no", "name": "The Hot Shop", "opening_hours": "Mo-Sa 11:00-20:00", "phone": "5105289011"}}, {"type": "node", "id": 346416732, "lat": 37.7989102, "lon": -122.2565706, "tags": {"amenity": "fast_food", "cuisine": "mexican", "name": "Tacos Mi Rancho", "outdoor_seating": "no", "phone": "(510) 485-3054", "takeaway": "only"}}, {"type": "node", "id": 354035785, "lat": 37.8678906, "lon": -122.2573998, "tags": {"addr:street": "Durant Avenue", "amenity": "fast_food", "cuisine": "hot_dog", "name": "Top Dog", "phone": "+1 510 8435967", "website": "http://www.topdoghotdogs.com/"}}, {"type": "node", "id": 354703981, "lat": 37.870408, "lon": -122.266249, "tags": {"addr:city": "Berkeley", "addr:housenumber": "2160", "addr:street": "Center Street", "amenity": "fast_food", "cuisine": "american;hot_dog", "drive_in": "no", "microbrewery": "no", "name": "Top Dog", "opening_hours": "Mo-Fr 10:00-23:00; Su 11:00-22:00; Sa 11:00-23:00", "outdoor_seating": "yes", "smoking": "no", "takeaway": "yes", "wheelchair": "yes"}}, {"type": "node", "id": 365795396, "lat": 37.8676865, "lon": -122.2588201, "tags": {"addr:city": "Berkeley", "addr:housenumber": "2355", "addr:postcode": "94704", "addr:street": "Telegraph Avenue", "amenity": "fast_food", "cuisine": "burger", "drive_through": "no", "name": "Super Duper Burger", "opening_hours": "Mo-Su 07:00-22:00", "phone": "+1-510-9906483", "takeaway": "yes", "website": "https://superduperburgers.com/"}}, {"type": "node", "id": 365795484, "lat": 37.869831, "lon": -122.259703, "tags": {"amenity": "fast_food", "name": "Golden Bear Cafe", "opening_hours": "Mo-Th 07:30-19:30; Fr 07:30-17:30; Sa 09:00-16:30", "wheelchair": "yes"}}, {"type": "node", "id": 366086633, "lat": 37.8685789, "lon": -122.2592801, "tags": {"amenity": "fast_food", "brand": "Subway", "brand:wikidata": "Q244457", "brand:wikipedia": "en:Subway (restaurant)", "cuisine": "sandwich", "name": "Subway", "opening_hours": "Mo-Fr 09:00-19:00; Sa 09:00-17:00; Su 10:00-16:00", "takeaway": "yes", "wheelchair": "yes"}}, {"type": "node", "id": 366086636, "lat": 37.8683714, "lon": -122.2589537, "tags": {"addr:city": "Berkeley", "addr:housenumber": "2311", "addr:postcode": "94704", "addr:state": "CA", "addr:street": "Telegraph Avenue", "amenity": "fast_food", "brand": "Chipotle", "brand:wikidata": "Q465751", "brand:wikipedia": "en:Chipotle Mexican Grill", "cuisine": "mexican", "fax": "+1-5105480353", "name": "Chipotle", "official_name": "Chipotle Mexican Grill", "opening_hours": "Mo-Su 10:45-22:00", "phone": "+15105480340", "takeaway": "yes", "website": "https://locations.chipotle.com/ca/berkeley/2311-telegraph-ave"}}, {"type": "node", "id": 366086641, "lat": 37.8680186, "lon": -122.259166, "tags": {"addr:city": "Berkeley", "addr:housenumber": "2340", "addr:postcode": "94704", "addr:state": "CA", "addr:street": "Telegraph Avenue", "amenity": "fast_food", "cuisine": "pizza", "drive_through": "no", "name": "Blondie's Pizza", "old_name": "Abe's Pizza", "opening_hours": "Mo-Su 10:00- 00:00", "website": "http://www.abespizza.com/bk-store.html"}}, {"type": "node", "id": 368204308, "lat": 37.865293, "lon": -122.258151, "tags": {"addr:city": "Berkeley", "addr:country": "US", "addr:housenumber": "2505", "addr:postcode": "94704", "addr:state": "CA", "addr:street": "Dwight Way", "amenity": "fast_food", "cuisine": "burger", "drive_in": "no", "drive_through": "no", "name": "Bongo Burger", "phone": "+1 510 5484100", "website": "https://bongoburger.com/", "wheelchair": "yes"}}, {"type": "node", "id": 430012066, "lat": 37.8123935, "lon": -122.2696099}, {"type": "node", "id": 430012067, "lat": 37.8123764, "lon": -122.2695139}, {"type": "node", "id": 430012068, "lat": 37.8121676, "lon": -122.2695733}, {"type": "node", "id": 430012069, "lat": 37.8121846, "lon": -122.2696693}, {"type": "node", "id": 430531301, "lat": 37.8306834, "lon": -122.264522}, {"type": "node", "id": 430531302, "lat": 37.8306508, "lon": -122.2643414}, {"type": "node", "id": 430531303, "lat": 37.8305888, "lon": -122.2645494}, {"type": "node", "id": 430531709, "lat": 37.8305562, "lon": -122.2643688}, {"type": "node", "id": 540609033, "lat": 37.871489, "lon": -122.26852, "tags": {"addr:city": "Berkeley", "addr:housenumber": "2024", "addr:postcode": "94704", "addr:state": "CA", "addr:street": "Shattuck Avenue", "amenity": "fast_food", "cuisine": "mexican", "drive_through": "no", "name": "Comal Next Door", "opening_hours": "Su-Th 11:30-21:00; Fr-Sa 11:30-22:00", "phone": "510-422-6625", "smoking": "no", "takeaway": "yes", "website": "https://comalnextdoor.com/", "wheelchair": "yes"}}, {"type": "node", "id": 540609040, "lat": 37.8717244, "lon": -122.2685364, "tags": {"addr:city": "Berkeley", "addr:housenumber": "2012", "addr:postcode": "94704", "addr:street": "Shattuck Avenue", "amenity": "fast_food", "cuisine": "indian;pizza", "diet:vegetarian": "yes", "name": "Barbarian Grub & Ale", "opening_hours": "Mo-Th 11:00-23:00; Fr,Sa 11:00-24:00", "wheelchair": "yes"}}, {"type": "node", "id": 544331882, "lat": 37.8696838, "lon": -122.2897665}, {"type": "node", "id": 544331883, "lat": 37.8696903, "lon": -122.2896756}, {"type": "node", "id": 544331884, "lat": 37.8695692, "lon": -122.2896617}, {"type": "node", "id": 544331885, "lat": 37.8695627, "lon": -122.2897527}, {"type": "node", "id": 585429735, "lat": 37.837044, "lon": -122.262146, "tags": {"addr:city": "Oakland", "addr:housenumber": "5098", "addr:postcode": "94609", "addr:street": "Telegraph Avenue", "amenity": "fast_food", "cuisine": "american", "delivery": "no", "drive_through": "no", "internet_access": "no", "name": "Bakesale Betty's", "opening_hours": "Tu-Sa 11:00-14:00", "outdoor_seating": "yes", "phone": "+1-510-985-1213", "smoking": "outside", "takeaway": "only", "website": "https://www.bakesalebetty.com/", "wheelchair": "yes"}}, {"type": "node", "id": 626216926, "lat": 37.8718677, "lon": -122.2928112, "tags": {"amenity": "fast_food", "brand": "Popeyes", "brand:wikidata": "Q1330910", "brand:wikipedia": "en:Popeyes", "cuisine": "chicken", "name": "Popeyes", "official_name": "Popeyes Louisiana Kitchen", "takeaway": "yes"}}, {"type": "node", "id": 655373734, "lat": 37.811359, "lon": -122.2640024, "tags": {"addr:housenumber": "146", "addr:street": "Grand Avenue", "amenity": "fast_food", "cuisine": "burger", "name": "True Burger", "opening_hours": "Mo-Su 11:00-20:00", "website": "http://trueburgeroakland.com/", "wheelchair": "yes"}}, {"type": "node", "id": 712611649, "lat": 37.8002564, "lon": -122.2163861, "tags": {"addr:housenumber": "3465", "addr:street": "Fruitvale Avenue", "amenity": "fast_food", "cuisine": "pizza", "name": "CyBelle's Pizza"}}, {"type": "node", "id": 712649446, "lat": 37.8003766, "lon": -122.215843, "tags": {"addr:city": "Oakland", "addr:housenumber": "2208", "addr:postcode": "94602", "addr:state": "CA", "addr:street": "MacArthur Boulevard", "amenity": "fast_food", "contact:facebook": "dimondpizza", "contact:instagram": "dimondslicepizza", "contact:yelp": "https://www.yelp.com/biz/dimond-slice-pizza-oakland", "cuisine": "pizza", "description": "Vegetarian pizzeria", "diet:vegan": "yes", "diet:vegetarian": "only", "drive_through": "no", "email": "slices@dimondpizza.com", "indoor_seating": "yes", "name": "Dimond Slice Pizza", "opening_hours": "Tu-Su 11:00-20:00; Mo off", "opening_hours:url": "https://www.dimondpizza.com/", "phone": "+1 510 8428773", "takeaway": "yes", "website": "https://www.dimondpizza.com/", "website:menu": "https://www.dimondpizza.com/menu"}}, {"type": "node", "id": 712649450, "lat": 37.8003205, "lon": -122.2156503, "tags": {"amenity": "fast_food", "cuisine": "mexican", "name": "Dimond Kitchen"}}, {"type": "node", "id": 835034059, "lat": 37.87055, "lon": -122.270508, "tags": {"addr:city": "Berkeley", "addr:housenumber": "2109", "addr:postcode": "94704", "addr:street": "Milvia Street", "amenity": "fast_food", "drive_in": "no", "microbrewery": "no", "name": "Yummy house", "outdoor_seating": "no", "takeaway": "only", "wheelchair": "yes"}}, {"type": "node", "id": 1042049281, "lat": 37.8368303, "lon": -122.2936143}, {"type": "node", "id": 1042049330, "lat": 37.8368421, "lon": -122.2933042}, {"type": "node", "id": 1042049342, "lat": 37.8369389, "lon": -122.2936238}, {"type": "node", "id": 1042049346, "lat": 37.8369558, "lon": -122.2933141}, {"type": "node", "id": 1140526023, "lat": 37.8720196, "lon": -122.2679645, "tags": {"addr:city": "Berkeley", "addr:housenumber": "2000", "addr:postcode": "94704", "addr:state": "CA", "addr:street": "Kala Bagai Way", "amenity": "fast_food", "cuisine": "burger", "diet:vegan": "yes", "diet:vegetarian": "only", "name": "Stand-Up Burgers", "old_name": "veggiegrill", "opening_hours": "Mo-Su 11:00-21:00", "website": "https://www.standupburgers.com/berkeley"}}, {"type": "node", "id": 1186413847, "lat": 37.8039098, "lon": -122.2728111, "tags": {"amenity": "fast_food", "brand": "Jamba Juice", "brand:wikidata": "Q3088784", "brand:wikipedia": "en:Jamba Juice", "cuisine": "juice", "name": "Jamba Juice", "takeaway": "yes", "wheelchair": "yes"}}, {"type": "node", "id": 1186413872, "lat": 37.804109, "lon": -122.2725697, "tags": {"amenity": "fast_food", "name": "Top Dog", "wheelchair": "yes"}}, {"type": "node", "id": 1186413874, "lat": 37.8042743, "lon": -122.2735085, "tags": {"amenity": "fast_food", "brand": "Quiznos", "brand:wikidata": "Q1936229", "brand:wikipedia": "en:Quiznos", "cuisine": "sandwich", "name": "Quiznos", "takeaway": "yes", "wheelchair": "yes"}}, {"type": "node", "id": 1244706626, "lat": 37.7990538, "lon": -122.2116541, "tags": {"amenity": "fast_food", "name": "Kasper's Hot Dogs"}}, {"type": "node", "id": 1244709708, "lat": 37.7987274, "lon": -122.208312, "tags": {"amenity": "fast_food", "cuisine": "international", "name": "Bay Cafe"}}, {"type": "node", "id": 1305397498, "lat": 37.8407703, "lon": -122.2912564, "tags": {"amenity": "fast_food", "brand": "Subway", "brand:wikidata": "Q244457", "brand:wikipedia": "en:Subway (restaurant)", "cuisine": "sandwich", "name": "Subway", "takeaway": "yes"}}, {"type": "node", "id": 1305397505, "lat": 37.8429195, "lon": -122.2835129, "tags": {"amenity": "fast_food", "name": "Red Door Pizza"}}, {"type": "node", "id": 1374984803, "lat": 37.8558832, "lon": -122.2797964, "tags": {"addr:city": "Berkeley", "addr:country": "US", "addr:housenumber": "2830", "addr:state": "CA", "addr:street": "Sacramento Street", "amenity": "fast_food", "cuisine": "mexican", "drive_through": "no", "name": "Tacos sinaloa"}}, {"type": "node", "id": 1467717299, "lat": 37.8288915, "lon": -122.2823444, "tags": {"amenity": "fast_food", "brand": "Taco Bell", "brand:wikidata": "Q752941", "brand:wikipedia": "en:Taco Bell", "cuisine": "tex-mex", "name": "Taco Bell", "opening_hours": "Mo-Su 10:00-22:00", "phone": "(510) 844-0531", "takeaway": "yes", "website": "https://locations.tacobell.com/ca/emeryville/3839-emery-street.html"}}, {"type": "node", "id": 1467717306, "lat": 37.8305962, "lon": -122.279995, "tags": {"addr:city": "Emeryville", "addr:housenumber": "3999", "addr:postcode": "94608", "addr:street": "San Pablo Avenue", "amenity": "fast_food", "brand": "Subway", "brand:wikidata": "Q244457", "brand:wikipedia": "en:Subway (restaurant)", "cuisine": "sandwich", "name": "Subway", "takeaway": "yes", "website": "https://catering.subway.com/Cart/Menu2.aspx?r=1585456230"}}, {"type": "node", "id": 1489746246, "lat": 37.8379545, "lon": -122.2818295, "tags": {"amenity": "fast_food", "name": "Lee's Donuts and Chinese"}}, {"type": "node", "id": 1490108963, "lat": 37.8343883, "lon": -122.281185, "tags": {"alt_name": "Kentucky Fried Chicken", "amenity": "fast_food", "brand": "KFC", "brand:wikidata": "Q524757", "brand:wikipedia": "en:KFC", "cuisine": "chicken", "name": "KFC", "takeaway": "yes", "website": "https://locations.kfc.com/ca/emeryville/4501-san-pablo-avenue"}}, {"type": "node", "id": 1491645169, "lat": 37.8364829, "lon": -122.294988, "tags": {"amenity": "fast_food", "brand": "Jamba Juice", "brand:wikidata": "Q3088784", "brand:wikipedia": "en:Jamba Juice", "cuisine": "juice", "name": "Jamba Juice", "takeaway": "yes"}}, {"type": "node", "id": 1491645204, "lat": 37.8360974, "lon": -122.294827, "tags": {"amenity": "fast_food", "brand": "Togo's", "brand:wikidata": "Q3530375", "brand:wikipedia": "en:Togo's", "cuisine": "sandwich", "name": "Togo's", "takeaway": "yes"}}, {"type": "node", "id": 1507828034, "lat": 37.8306789, "lon": -122.280716, "tags": {"addr:city": "Emeryville", "addr:housenumber": "1199", "addr:postcode": "94608", "addr:street": "40th Street", "amenity": "fast_food", "brand": "Little Caesars", "brand:wikidata": "Q1393809", "brand:wikipedia": "en:Little Caesars", "cuisine": "pizza", "name": "Little Caesars", "phone": "(510) 547 - 7499", "takeaway": "yes", "website": "https://littlecaesars.com/en-us/store/9084"}}, {"type": "node", "id": 1515953792, "lat": 37.8434497, "lon": -122.2958161, "tags": {"amenity": "fast_food", "name": "Subway Sandwich"}}, {"type": "node", "id": 1519114319, "lat": 37.866736, "lon": -122.291042, "tags": {"addr:city": "Berkeley", "addr:housenumber": "2197", "addr:street": "San Pablo Avenue", "amenity": "fast_food", "brand": "Jack in the Box", "brand:wikidata": "Q1538507", "brand:wikipedia": "en:Jack in the Box", "cuisine": "burger", "drive_in": "no", "drive_through": "yes", "name": "Jack in the Box", "opening_hours": "Mo-Su 06:00-23:58", "phone": "(510) 841-3574", "source": "Bing", "takeaway": "yes", "website": "https://locations.jackinthebox.com/us/ca/berkeley/2197-san-pablo-ave", "wheelchair": "yes"}}, {"type": "node", "id": 1529100863, "lat": 37.8996079, "lon": -122.2983248, "tags": {"addr:city": "El Cerrito", "addr:housenumber": "340", "addr:postcode": "94530", "addr:state": "CA", "addr:street": "El Cerrito Plaza", "amenity": "fast_food", "brand": "Wingstop", "brand:wikidata": "Q8025339", "brand:wikipedia": "en:Wingstop", "cuisine": "wings", "drive_through": "no", "name": "Wingstop", "opening_hours": "Mo-Fr 11:00-24:00", "phone": "+1 510 528 9464", "takeaway": "yes", "website": "https://www.wingstop.com/location/wingstop-477-el-cerrito-ca-94530/menu", "wheelchair": "yes"}}, {"type": "node", "id": 1556251731, "lat": 37.8065699, "lon": -122.2700361, "tags": {"amenity": "fast_food", "cuisine": "sandwich", "name": "Prospect Park Sandwiches"}}, {"type": "node", "id": 1556251749, "lat": 37.8093669, "lon": -122.273146, "tags": {"amenity": "fast_food", "brand": "Subway", "brand:wikidata": "Q244457", "brand:wikipedia": "en:Subway (restaurant)", "cuisine": "sandwich", "name": "Subway", "takeaway": "yes"}}, {"type": "node", "id": 1630431833, "lat": 37.9329885, "lon": -122.3297566, "tags": {"amenity": "fast_food", "brand": "Panda Express", "brand:wikidata": "Q1358690", "brand:wikipedia": "en:Panda Express", "cuisine": "chinese", "name": "Panda Express", "takeaway": "yes", "wheelchair": "yes"}}, {"type": "node", "id": 1630431892, "lat": 37.9329695, "lon": -122.3296547, "tags": {"amenity": "fast_food", "brand": "Subway", "brand:wikidata": "Q244457", "brand:wikipedia": "en:Subway (restaurant)", "cuisine": "sandwich", "name": "Subway", "takeaway": "yes", "wheelchair": "yes"}}, {"type": "node", "id": 1669802067, "lat": 37.8693438, "lon": -122.2918273, "tags": {"addr:housenumber": "1105", "addr:street": "University Avenue", "amenity": "fast_food", "brand": "Subway", "brand:wikidata": "Q244457", "brand:wikipedia": "en:Subway (restaurant)", "cuisine": "sandwich", "diet:vegetarian": "yes", "name": "Subway", "opening_hours": "Mo-Fr 08:00-21:00; Sa, Su 09:00-21:00", "phone": "+15105408900", "takeaway": "yes", "website": "https://order.subway.com/en-US/restaurant/14973", "wheelchair": "yes"}}, {"type": "node", "id": 1669803325, "lat": 37.8696952, "lon": -122.2920391, "tags": {"amenity": "fast_food", "cuisine": "bbq;burger", "name": "Everett and Jones", "opening_hours": "We-Su 12:00-19:00", "phone": "(510) 663-2350", "website": "https://eandjbbq.com/"}}, {"type": "node", "id": 1669803326, "lat": 37.8693914, "lon": -122.2917132, "tags": {"addr:housenumber": "1109", "addr:street": "University Avenue", "amenity": "fast_food", "brand": "Little Caesars", "brand:wikidata": "Q1393809", "brand:wikipedia": "en:Little Caesars", "cuisine": "pizza", "name": "Little Caesars", "takeaway": "yes", "website": "https://littlecaesars.com/en-us/store/9101"}}, {"type": "node", "id": 1766506789, "lat": 37.9252233, "lon": -122.3190844}, {"type": "node", "id": 1785876296, "lat": 37.8110533, "lon": -122.266617, "tags": {"addr:housenumber": "2204", "addr:postcode": "94612", "addr:street": "Broadway", "amenity": "fast_food", "brand": "Ike's Love and Sandwiches", "brand:wikidata": "Q112028897", "cuisine": "sandwich", "name": "Ike's Love and Sandwiches", "old_name": "Ike's Place", "opening_hours": "Mo-Su 10:00-19:00", "phone": "+1 510 3386789", "short_name": "Ike's", "takeaway": "yes", "website": "https://locations.ikessandwich.com/ca/oakland/sandwich-shop-112.html", "wheelchair": "yes"}}, {"type": "node", "id": 1837176575, "lat": 37.9338562, "lon": -122.3246896, "tags": {"amenity": "fast_food", "brand": "Wendy's", "brand:wikidata": "Q550258", "brand:wikipedia": "en:Wendy's", "cuisine": "burger", "drive_through": "yes", "name": "Wendy's", "source": "survey", "takeaway": "yes", "wheelchair": "yes"}}, {"type": "node", "id": 1845784089, "lat": 37.9249603, "lon": -122.3186686}, {"type": "node", "id": 1845784138, "lat": 37.9249597, "lon": -122.3185138}, {"type": "node", "id": 1845784155, "lat": 37.9250508, "lon": -122.3186681}, {"type": "node", "id": 1845784159, "lat": 37.9250503, "lon": -122.3185133}, {"type": "node", "id": 1899722070, "lat": 37.8107228, "lon": -122.244684, "tags": {"amenity": "fast_food", "brand": "Chipotle", "brand:wikidata": "Q465751", "brand:wikipedia": "en:Chipotle Mexican Grill", "cuisine": "mexican", "name": "Chipotle", "official_name": "Chipotle Mexican Grill", "takeaway": "yes"}}, {"type": "node", "id": 2095579173, "lat": 37.868903, "lon": -122.268231, "tags": {"addr:city": "Berkeley", "addr:housenumber": "2222", "addr:state": "CA", "addr:street": "Shattuck Avenue", "amenity": "fast_food", "brand": "Papa John's", "brand:wikidata": "Q2759586", "brand:wikipedia": "en:Papa John's Pizza", "cuisine": "pizza", "diet:vegetarian": "yes", "drive_in": "no", "drive_through": "no", "name": "Papa John's", "opening_hours": "Mo-Th 09:30-23:25; Fr 09:30-00:40; Sa 10:00-00:40; Su 10:00-23:40", "phone": "+1 510-845-7272", "takeaway": "yes", "website": "https://locations.papajohns.com/united-states/ca/94704/berkeley/2222-shattuck-ave", "wheelchair": "yes"}}, {"type": "node", "id": 2169807691, "lat": 37.8052616, "lon": -122.29397, "tags": {"amenity": "fast_food", "brand": "Subway", "brand:wikidata": "Q244457", "cuisine": "sandwich", "name": "Subway", "takeaway": "yes", "website": "https://www.subway.com"}}, {"type": "node", "id": 2186238363, "lat": 37.8713221, "lon": -122.267892, "tags": {"addr:city": "Berkeley", "addr:housenumber": "92", "addr:street": "Shattuck Square", "amenity": "fast_food", "brand": "Subway", "brand:wikidata": "Q244457", "brand:wikipedia": "en:Subway (restaurant)", "cuisine": "sandwich", "diet:vegan": "yes", "diet:vegetarian": "yes", "drive_in": "no", "drive_through": "no", "name": "Subway", "opening_hours": "Mo-Fr 07:00-21:00; Sa 08:30-21:00; Su 09:30-20:30", "opening_hours:covid19": "Mo-Su 10:00-18:00", "phone": "(510) 649-0224", "takeaway": "yes", "website": "https://www.subway.com", "wheelchair": "yes"}}, {"type": "node", "id": 2217677430, "lat": 37.8369094, "lon": -122.2632331, "tags": {"amenity": "fast_food", "brand": "Noah's Bagels", "brand:wikidata": "Q64517373", "cuisine": "bagel", "name": "Noah's Bagels", "official_name": "Noah's New York Bagels", "phone": "+15103795557", "takeaway": "yes"}}, {"type": "node", "id": 2328402797, "lat": 37.8008281, "lon": -122.273632, "tags": {"addr:city": "Oakland", "addr:housenumber": "831", "addr:postcode": "94612", "addr:street": "Broadway", "amenity": "fast_food", "brand": "Sweetgreen", "brand:wikidata": "Q18636413", "cuisine": "salad", "name": "Sweetgreen", "old_name": "PopupHood", "takeaway": "yes"}}, {"type": "node", "id": 2329583711, "lat": 37.8794183, "lon": -122.296137, "tags": {"addr:city": "Albany", "addr:housenumber": "1050", "addr:street": "Gilman Street", "amenity": "fast_food", "brand": "Chipotle", "brand:wikidata": "Q465751", "brand:wikipedia": "en:Chipotle Mexican Grill", "cuisine": "mexican", "name": "Chipotle", "official_name": "Chipotle Mexican Grill", "opening_hours": "Mo-Su 10:46-22:00", "phone": "(510)900-2658", "takeaway": "yes", "website": "https://chipotle.com"}}, {"type": "node", "id": 2342888634, "lat": 37.8705505, "lon": -122.268421, "tags": {"addr:city": "Berkeley", "addr:housenumber": "2122", "addr:postcode": "94704", "addr:state": "CA", "addr:street": "Shattuck Avenue", "amenity": "fast_food", "cuisine": "sandwich", "diet:halal": "yes", "name": "Crave Subs", "opening_hours": "Mo-Fr 10:00-20:00; Sa 11:00-20:00; Su 11:00-19:00", "outdoor_seating": "yes", "phone": "+1-510-7051140", "takeaway": "yes", "website": "https://www.cravesubsberkeley.com/"}}, {"type": "node", "id": 2350130005, "lat": 37.8697643, "lon": -122.2683363, "tags": {"addr:city": "Berkeley", "addr:housenumber": "2174", "addr:street": "Shattuck Avenue", "amenity": "fast_food", "cuisine": "pizza", "indoor_seating": "yes", "name": "Sliver", "opening_hours": "Mo-Su 10:00-22:30", "outdoor_seating": "yes", "website": "http://sliverpizzeria.com/", "wheelchair": "yes"}}, {"type": "node", "id": 2350134520, "lat": 37.870788, "lon": -122.268455, "tags": {"addr:city": "Berkeley", "addr:housenumber": "2114", "addr:postcode": "94704", "addr:state": "CA", "addr:street": "Shattuck Avenue", "amenity": "fast_food", "cuisine": "mediterranean", "drive_through": "no", "name": "The Flying Falafel", "opening_hours": "Mo-Sa 10:00-24:00; Su 10:00-21:00", "phone": "+1-510-5603393", "takeaway": "yes", "website": "https://www.flyingfalafel.com/"}}, {"type": "node", "id": 2350147008, "lat": 37.8722391, "lon": -122.268993, "tags": {"addr:city": "Berkeley", "addr:housenumber": "2071", "addr:postcode": "94704", "addr:state": "CA", "addr:street": "University Avenue", "amenity": "fast_food", "cuisine": "salad", "diet:vegan": "yes", "diet:vegetarian": "yes", "drive_through": "no", "name": "Tender Greens", "opening_hours": "Mo-Fr 10:00-21:00; Sa,Su 11:00-21:00", "outdoor_seating": "yes", "smoking": "no", "takeaway": "yes", "website": "https://www.tendergreens.com/locations/berkeley"}}, {"type": "node", "id": 2389102647, "lat": 37.8360582, "lon": -122.2516968}, {"type": "node", "id": 2389102649, "lat": 37.836104, "lon": -122.2517083}, {"type": "node", "id": 2389102690, "lat": 37.8358643, "lon": -122.2518185}, {"type": "node", "id": 2389102708, "lat": 37.8359068, "lon": -122.2519271}, {"type": "node", "id": 2389102712, "lat": 37.8361315, "lon": -122.2517784}, {"type": "node", "id": 2389102721, "lat": 37.8360709, "lon": -122.251729}, {"type": "node", "id": 2389102723, "lat": 37.8360984, "lon": -122.2517992}, {"type": "node", "id": 2389102729, "lat": 37.8361008, "lon": -122.2518053}, {"type": "node", "id": 2408078512, "lat": 37.8959022, "lon": -122.2515963, "tags": {"amenity": "fast_food"}}, {"type": "node", "id": 2419243687, "lat": 37.9204486, "lon": -122.3479341, "tags": {"amenity": "fast_food", "brand": "Quiznos", "brand:wikidata": "Q1936229", "brand:wikipedia": "en:Quiznos", "cuisine": "sandwich", "name": "Quiznos", "takeaway": "yes"}}, {"type": "node", "id": 2445179167, "lat": 37.792059, "lon": -122.1986918}, {"type": "node", "id": 2445179168, "lat": 37.7919648, "lon": -122.1988543}, {"type": "node", "id": 2445180652, "lat": 37.7919925, "lon": -122.1986301}, {"type": "node", "id": 2445180653, "lat": 37.7918983, "lon": -122.1987927}, {"type": "node", "id": 2445203378, "lat": 37.7924443, "lon": -122.199596}, {"type": "node", "id": 2445203379, "lat": 37.7923792, "lon": -122.1995366}, {"type": "node", "id": 2445203380, "lat": 37.7923012, "lon": -122.1996735}, {"type": "node", "id": 2445203381, "lat": 37.7923663, "lon": -122.1997329}, {"type": "node", "id": 2501269406, "lat": 37.869835, "lon": -122.268342, "tags": {"addr:city": "Berkeley", "addr:housenumber": "2172", "addr:street": "Shattuck Avenue", "amenity": "fast_food", "cuisine": "sandwich", "diet:vegan": "yes", "diet:vegetarian": "yes", "indoor_seating": "yes", "name": "Ike's Place", "opening_hours": "Mo-Su 10:00-21:00", "outdoor_seating": "no", "takeaway": "yes", "wheelchair": "yes"}}, {"type": "node", "id": 2557928589, "lat": 37.8482631, "lon": -122.252024, "tags": {"addr:city": "Oakland", "addr:housenumber": "6000", "addr:postcode": "94618", "addr:state": "CA", "addr:street": "College Avenue", "alt_name": "Oori Rice Triangles", "amenity": "fast_food", "check_date:opening_hours": "2022-04-08", "contact:instagram": "https://www.instagram.com/ooriricetriangles", "cuisine": "japanese;onigiri;taco", "diet:vegan": "yes", "diet:vegetarian": "yes", "indoor_seating": "yes", "name": "Oori", "opening_hours": "Mo-Su 11:00-20:00", "opening_hours:url": "https://www.ooririce.com/location/oori-foods-oakland/", "outdoor_seating": "sidewalk", "payment:cash": "yes", "payment:credit_cards": "yes", "phone": "+1 510 2509833", "takeaway": "yes", "website": "https://www.oorifoods.com/", "website:menu": "https://www.ooririce.com/menu/", "wheelchair": "yes"}}, {"type": "node", "id": 2580380975, "lat": 37.9005207, "lon": -122.2999637, "tags": {"addr:city": "El Cerrito", "addr:housenumber": "5030", "addr:postcode": "94530", "addr:state": "CA", "addr:street": "El Cerrito Plaza", "addr:unit": "E-1", "amenity": "fast_food", "brand": "Jamba Juice", "brand:wikidata": "Q3088784", "brand:wikipedia": "en:Jamba Juice", "cuisine": "juice", "delivery": "no", "drive_through": "no", "name": "Jamba Juice", "opening_hours": "Mo-Sa 08:00-20:00; Su 09:00-19:00", "takeaway": "yes", "website": "https://locations.jamba.com/ca/el-cerrito/5030-el-cerrito-plaza", "wheelchair": "yes"}}, {"type": "node", "id": 2580380983, "lat": 37.9006075, "lon": -122.2999717, "tags": {"addr:city": "El Cerrito", "addr:housenumber": "5020", "addr:postcode": "94530", "addr:state": "CA", "addr:street": "El Cerrito Plaza", "addr:unit": "E-2", "amenity": "fast_food", "brand": "Panda Express", "brand:wikidata": "Q1358690", "brand:wikipedia": "en:Panda Express", "cuisine": "chinese", "name": "Panda Express", "opening_hours": "Mo-Su 10:00-21:30", "phone": "+1 510 526 9989", "takeaway": "yes", "website": "https://www.pandaexpress.com/userlocation/1003/ca/el-cerrito/5020-el-cerrito-plaza-e-2", "wheelchair": "yes"}}, {"type": "node", "id": 2688825405, "lat": 37.8680755, "lon": -122.258006, "tags": {"addr:city": "Berkeley", "addr:housenumber": "2521", "addr:postcode": "94704", "addr:state": "CA", "addr:street": "Durant Avenue", "amenity": "fast_food", "cuisine": "donut", "drive_through": "no", "name": "King Pin Donuts", "opening_hours": "Mo-Su 07:00-03:00", "outdoor_seating": "yes"}}, {"type": "node", "id": 2734515559, "lat": 37.8082635, "lon": -122.2531581}, {"type": "node", "id": 2734515560, "lat": 37.808386, "lon": -122.2531399}, {"type": "node", "id": 2734515562, "lat": 37.8083658, "lon": -122.2529212}, {"type": "node", "id": 2734515563, "lat": 37.8082433, "lon": -122.2529393}, {"type": "node", "id": 2826985829, "lat": 37.9283175, "lon": -122.3208095}, {"type": "node", "id": 2826985844, "lat": 37.9282008, "lon": -122.3207224}, {"type": "node", "id": 2826985848, "lat": 37.9280791, "lon": -122.3209846}, {"type": "node", "id": 2826985866, "lat": 37.9281958, "lon": -122.3210717}, {"type": "node", "id": 3125416921, "lat": 37.7998493, "lon": -122.2518991, "tags": {"amenity": "fast_food", "brand": "Subway", "brand:wikidata": "Q244457", "brand:wikipedia": "en:Subway (restaurant)", "cuisine": "sandwich", "name": "Subway", "takeaway": "yes"}}, {"type": "node", "id": 3144224379, "lat": 37.8328176, "lon": -122.2639479}, {"type": "node", "id": 3144224380, "lat": 37.8327759, "lon": -122.2636981}, {"type": "node", "id": 3144224381, "lat": 37.8326558, "lon": -122.2637302}, {"type": "node", "id": 3144224382, "lat": 37.8326975, "lon": -122.26398}, {"type": "node", "id": 3144224392, "lat": 37.8400934, "lon": -122.2617568}, {"type": "node", "id": 3144224393, "lat": 37.8400813, "lon": -122.2616069}, {"type": "node", "id": 3144224394, "lat": 37.8399615, "lon": -122.2616225}, {"type": "node", "id": 3144224395, "lat": 37.8399688, "lon": -122.2617126}, {"type": "node", "id": 3144224396, "lat": 37.839928, "lon": -122.2617179}, {"type": "node", "id": 3144224397, "lat": 37.8399328, "lon": -122.2617777}, {"type": "node", "id": 3165906694, "lat": 37.8018329, "lon": -122.2651486}, {"type": "node", "id": 3165906695, "lat": 37.8017484, "lon": -122.265201}, {"type": "node", "id": 3165906696, "lat": 37.8016431, "lon": -122.2649291}, {"type": "node", "id": 3165906697, "lat": 37.8017123, "lon": -122.2648372}, {"type": "node", "id": 3215568126, "lat": 37.826725, "lon": -122.2648478}, {"type": "node", "id": 3215568127, "lat": 37.8266883, "lon": -122.2645458}, {"type": "node", "id": 3215568128, "lat": 37.826844, "lon": -122.2645155}, {"type": "node", "id": 3215568129, "lat": 37.8268807, "lon": -122.2648175}, {"type": "node", "id": 3375326842, "lat": 37.8678763, "lon": -122.257516, "tags": {"amenity": "fast_food", "cuisine": "mexican", "name": "La Burrita"}}, {"type": "node", "id": 3430431123, "lat": 37.86781, "lon": -122.258077, "tags": {"addr:city": "Berkeley", "addr:housenumber": "2518", "addr:postcode": "94704", "addr:street": "Durant Avenue", "addr:unit": "A", "amenity": "fast_food", "cuisine": "burger", "name": "Bunz", "opening_hours": "Mo-Su 17:30-2:30", "phone": "+1-510-529-4327", "website": "https://www.whatsinyourbunz.com/"}}, {"type": "node", "id": 3484747337, "lat": 37.8006312, "lon": -122.2176076}, {"type": "node", "id": 3484747338, "lat": 37.800529, "lon": -122.217762}, {"type": "node", "id": 3484747339, "lat": 37.8005039, "lon": -122.217656}, {"type": "node", "id": 3651321987, "lat": 37.8286666, "lon": -122.256224, "tags": {"addr:city": "Oakland", "addr:housenumber": "4101", "addr:postcode": "94607", "addr:state": "CA", "addr:street": "Broadway", "amenity": "fast_food", "cuisine": "burger", "delivery": "no", "drive_through": "no", "name": "TrueBurger", "opening_hours": "Tu-Sa 11:00-21:30; Su 12:00-19:00", "takeaway": "yes", "website": "http://trueburgeroakland.com/"}}, {"type": "node", "id": 3673285749, "lat": 37.8466722, "lon": -122.291269, "tags": {"amenity": "fast_food", "brand": "Subway", "brand:wikidata": "Q244457", "brand:wikipedia": "en:Subway (restaurant)", "cuisine": "sandwich", "name": "Subway", "takeaway": "yes"}}, {"type": "node", "id": 3711137984, "lat": 37.8106529, "lon": -122.244877, "tags": {"amenity": "fast_food", "cuisine": "ice_cream", "name": "yogofina"}}, {"type": "node", "id": 3711137994, "lat": 37.8102988, "lon": -122.2459113, "tags": {"amenity": "fast_food", "cuisine": "ice_cream", "name": "Yogurt Deluxe"}}, {"type": "node", "id": 3711137997, "lat": 37.8105466, "lon": -122.2470378, "tags": {"addr:housenumber": "500", "amenity": "fast_food", "name": "Vegan Mob", "old_name": "Park Way Drive-In"}}, {"type": "node", "id": 3771490179, "lat": 37.7969935, "lon": -122.275527, "tags": {"addr:city": "Oakland", "addr:housenumber": "314", "addr:postcode": "94607", "addr:street": "Broadway", "amenity": "fast_food", "brand": "Domino's", "brand:wikidata": "Q839466", "brand:wikipedia": "en:Domino's Pizza", "cuisine": "pizza", "name": "Domino's", "short_name": "Domino's", "takeaway": "only"}}, {"type": "node", "id": 3789654984, "lat": 37.8697182, "lon": -122.2662486, "tags": {"addr:city": "Berkeley", "addr:housenumber": "2173", "addr:postcode": "94704", "addr:street": "Allston Way", "amenity": "fast_food", "cuisine": "sushi", "drive_through": "no", "name": "Sumo Roll", "phone": "+1 510 8419000", "smoking": "no", "takeaway": "yes", "website": "http://www.eatsumoroll.com/"}}, {"type": "node", "id": 3793692373, "lat": 37.8688101, "lon": -122.266436, "tags": {"addr:city": "Berkeley", "addr:housenumber": "2177", "addr:postcode": "94703", "addr:street": "Kittredge Street", "amenity": "fast_food", "diet:vegetarian": "yes", "fixme": "Website isn't working: http://www.tiasberkeley.com/ - Is this place still working?", "name": "Organic Greens", "opening_hours": "Mo-Sa 7:00-18:00; Su 8:00-18:00", "phone": "+1 510 6479863", "smoking": "no", "wheelchair": "limited"}}, {"type": "node", "id": 3810642508, "lat": 37.8031883, "lon": -122.2821769, "tags": {"amenity": "fast_food", "brand": "McDonald's", "brand:wikidata": "Q38076", "brand:wikipedia": "en:McDonald's", "cuisine": "burger", "name": "McDonald's", "takeaway": "yes"}}, {"type": "node", "id": 3810642509, "lat": 37.8040764, "lon": -122.2821099, "tags": {"alt_name": "Kentucky Fried Chicken", "amenity": "fast_food", "brand": "KFC", "brand:wikidata": "Q524757", "brand:wikipedia": "en:KFC", "cuisine": "chicken", "name": "KFC", "takeaway": "yes"}}, {"type": "node", "id": 3880788039, "lat": 37.8368527, "lon": -122.2925863, "tags": {"amenity": "fast_food", "name": "Cornology"}}, {"type": "node", "id": 3933171125, "lat": 37.8030526, "lon": -122.2763179, "tags": {"addr:city": "Oakland", "addr:housenumber": "1000", "addr:state": "CA", "addr:street": "Jefferson Street", "amenity": "fast_food", "brand": "Subway", "brand:wikidata": "Q244457", "brand:wikipedia": "en:Subway (restaurant)", "cuisine": "sandwich", "name": "Subway", "takeaway": "yes"}}, {"type": "node", "id": 3960217074, "lat": 37.8493378, "lon": -122.265872, "tags": {"addr:housenumber": "6341", "addr:state": "CA", "addr:street": "Shattuck Avenue", "amenity": "fast_food", "brand": "Subway", "brand:wikidata": "Q244457", "brand:wikipedia": "en:Subway (restaurant)", "cuisine": "sandwich", "drive_through": "no", "name": "Subway", "opening_hours": "Mo-Fr 10:00-20:30; Sa-Su 10:00-19:00", "takeaway": "yes", "website": "https://order.subway.com/en-US/restaurant/62223"}}, {"type": "node", "id": 3960350057, "lat": 37.916603, "lon": -122.332522, "tags": {"amenity": "fast_food", "name": "Eunice Gourmet"}}, {"type": "node", "id": 3969664022, "lat": 37.8058549, "lon": -122.267444, "tags": {"amenity": "fast_food", "brand": "Rush Bowls", "brand:wikidata": "Q112765292", "cuisine": "a\u00e7a\u00ed", "name": "Rush Bowls", "old_name": "Mimi's Beauty Supply", "takeaway": "yes"}}, {"type": "node", "id": 3969668592, "lat": 37.8051026, "lon": -122.2694238, "tags": {"amenity": "fast_food", "name": "Quick Bite"}}, {"type": "node", "id": 3981315770, "lat": 37.8335615, "lon": -122.2627942}, {"type": "node", "id": 3981315778, "lat": 37.8334446, "lon": -122.2628264}, {"type": "node", "id": 3981315781, "lat": 37.833495, "lon": -122.2631203}, {"type": "node", "id": 3981315786, "lat": 37.833578, "lon": -122.2630025}, {"type": "node", "id": 3981315791, "lat": 37.8335936, "lon": -122.2630932}, {"type": "node", "id": 3981315805, "lat": 37.8335964, "lon": -122.2629975}, {"type": "node", "id": 3999453486, "lat": 37.8171716, "lon": -122.267457, "tags": {"alt_name": "Kentucky Fried Chicken", "amenity": "fast_food", "brand": "KFC", "brand:wikidata": "Q524757", "cuisine": "chicken", "name": "KFC", "takeaway": "yes"}}, {"type": "node", "id": 4015833267, "lat": 37.7948301, "lon": -122.2541878, "tags": {"amenity": "fast_food", "brand": "Lee's Sandwiches", "brand:wikidata": "Q6512823", "brand:wikipedia": "en:Lee's Sandwiches", "cuisine": "vietnamese;sandwich", "name": "Lee's Sandwiches", "takeaway": "yes"}}, {"type": "node", "id": 4035870209, "lat": 37.8057101, "lon": -122.275047, "tags": {"amenity": "fast_food", "cuisine": "juice", "name": "Powered by Pure", "old_name": "Paris Baguette"}}, {"type": "node", "id": 4066106931, "lat": 37.8003374, "lon": -122.2155847, "tags": {"addr:city": "Oakland", "addr:housenumber": "2218", "addr:postcode": "94602", "addr:state": "CA", "addr:street": "MacArthur Boulevard", "amenity": "fast_food", "brand": "Little Caesars", "brand:wikidata": "Q1393809", "brand:wikipedia": "en:Little Caesars", "cuisine": "pizza", "name": "Little Caesars", "takeaway": "yes"}}, {"type": "node", "id": 4066106932, "lat": 37.8003454, "lon": -122.2156257, "tags": {"addr:city": "Oakland", "addr:housenumber": "2216", "addr:postcode": "94602", "addr:state": "CA", "addr:street": "MacArthur Boulevard", "amenity": "fast_food", "cuisine": "mexican", "name": "Ol\u00e9 Ol\u00e9 Burrito Express", "smoking": "no", "takeaway": "yes"}}, {"type": "node", "id": 4174545091, "lat": 37.8190851, "lon": -122.2623562, "tags": {"amenity": "fast_food", "brand": "Chipotle", "brand:wikidata": "Q465751", "brand:wikipedia": "en:Chipotle Mexican Grill", "cuisine": "mexican", "name": "Chipotle", "official_name": "Chipotle Mexican Grill", "takeaway": "yes"}}, {"type": "node", "id": 4181862715, "lat": 37.8690737, "lon": -122.2598872, "tags": {"amenity": "fast_food", "name": "Root 150"}}, {"type": "node", "id": 4181862727, "lat": 37.8689935, "lon": -122.2598711, "tags": {"amenity": "fast_food", "name": "True Blue Burgers"}}, {"type": "node", "id": 4181862747, "lat": 37.8692601, "lon": -122.2599245, "tags": {"amenity": "fast_food", "name": "Asado"}}, {"type": "node", "id": 4181862754, "lat": 37.8691629, "lon": -122.2598925, "tags": {"amenity": "fast_food", "name": "House of Pi"}}, {"type": "node", "id": 4340589718, "lat": 37.89494, "lon": -122.3002456, "tags": {"addr:street": "San Pablo Avenue", "amenity": "fast_food", "cuisine": "mexican", "delivery": "no", "drive_through": "no", "name": "Tacos El Autlense Truck", "opening_hours": "Mo-Su 11:00-00:00", "takeaway": "only"}}, {"type": "node", "id": 4390546116, "lat": 37.8825037, "lon": -122.296847, "tags": {"addr:city": "Berkeley", "addr:housenumber": "1198", "addr:street": "San Pablo Avenue", "amenity": "fast_food", "brand": "McDonald's", "brand:wikidata": "Q38076", "brand:wikipedia": "en:McDonald's", "cuisine": "burger", "drive_through": "yes", "name": "McDonald's", "opening_hours": "24/7", "phone": "5105251411", "takeaway": "yes", "website": "https://www.mcdonalds.com/us/en-us/location/ca/berkeley/1198-san-pablo-ave/776.html", "wheelchair": "yes"}}, {"type": "node", "id": 4422423955, "lat": 37.9353359, "lon": -122.3565047, "tags": {"amenity": "fast_food", "brand": "Burger King", "brand:wikidata": "Q177054", "brand:wikipedia": "en:Burger King", "cuisine": "burger", "name": "Burger King", "takeaway": "yes"}}, {"type": "node", "id": 4432119613, "lat": 37.8136224, "lon": -122.2463768, "tags": {"amenity": "fast_food", "name": "Domino's"}}, {"type": "node", "id": 4435259900, "lat": 37.867373, "lon": -122.2594881, "tags": {"addr:city": "Berkeley", "addr:housenumber": "2442", "addr:street": "Durant Avenue", "amenity": "fast_food", "cuisine": "sandwich", "name": "Cheese 'n Stuff", "phone": "+1 510 8439233", "takeaway": "only", "website": "http://www.cheesenstuff.com/"}}, {"type": "node", "id": 4484525910, "lat": 37.899219, "lon": -122.30225, "tags": {"addr:city": "El Cerrito", "addr:housenumber": "9901", "addr:postcode": "94530", "addr:state": "CA", "addr:street": "San Pablo Avenue", "alt_name": "Chipotle Mexican Grill", "amenity": "fast_food", "brand": "Chipotle", "brand:wikidata": "Q465751", "brand:wikipedia": "en:Chipotle Mexican Grill", "contact:website": "https://chipotle.com/", "cuisine": "mexican", "delivery": "no", "drive_through": "no", "name": "Chipotle", "official_name": "Chipotle Mexican Grill", "opening_hours": "Mo-Sa 11:00-22:00; Su 11:00-18:00", "takeaway": "yes", "website": "https://chipotle.com/"}}, {"type": "node", "id": 4569356787, "lat": 37.8076597, "lon": -122.2712898, "tags": {"amenity": "fast_food", "name": "Snack Bar"}}, {"type": "node", "id": 4675887964, "lat": 37.8499624, "lon": -122.2705979, "tags": {"addr:housenumber": "3221", "addr:street": "Adeline Street", "amenity": "fast_food", "name": "The Fat Fish - Fish & Chips"}}, {"type": "node", "id": 4690730438, "lat": 37.8016554, "lon": -122.2648725}, {"type": "node", "id": 4690730478, "lat": 37.8016707, "lon": -122.264912}, {"type": "node", "id": 4694911784, "lat": 37.7937212, "lon": -122.2010461}, {"type": "node", "id": 4694922964, "lat": 37.7936653, "lon": -122.2011402}, {"type": "node", "id": 4694924435, "lat": 37.7937689, "lon": -122.2012386}, {"type": "node", "id": 4694925796, "lat": 37.7938247, "lon": -122.2011445}, {"type": "node", "id": 4694983822, "lat": 37.7923146, "lon": -122.1996499}, {"type": "node", "id": 4706517007, "lat": 37.8006562, "lon": -122.2177137}, {"type": "node", "id": 4758298005, "lat": 37.9280804, "lon": -122.3209818}, {"type": "node", "id": 4758298006, "lat": 37.9280903, "lon": -122.3209604}, {"type": "node", "id": 4758298007, "lat": 37.9281772, "lon": -122.3207733}, {"type": "node", "id": 4758298008, "lat": 37.928191, "lon": -122.3207435}, {"type": "node", "id": 4758298009, "lat": 37.9282844, "lon": -122.3208809}, {"type": "node", "id": 4758298010, "lat": 37.9282639, "lon": -122.3209249}, {"type": "node", "id": 4758298012, "lat": 37.9281883, "lon": -122.3207415}, {"type": "node", "id": 4758298015, "lat": 37.9281748, "lon": -122.3207716}, {"type": "node", "id": 4758298016, "lat": 37.9282645, "lon": -122.3209253}, {"type": "node", "id": 4758298018, "lat": 37.9280886, "lon": -122.3209591}, {"type": "node", "id": 4758298019, "lat": 37.9280789, "lon": -122.3209807}, {"type": "node", "id": 4760310628, "lat": 37.9249503, "lon": -122.3189953}, {"type": "node", "id": 4760310629, "lat": 37.9249504, "lon": -122.3190135}, {"type": "node", "id": 4760310630, "lat": 37.9249339, "lon": -122.3190137}, {"type": "node", "id": 4760310631, "lat": 37.9249651, "lon": -122.3189951}, {"type": "node", "id": 4760310632, "lat": 37.9249344, "lon": -122.3190821}, {"type": "node", "id": 4760310633, "lat": 37.9249948, "lon": -122.3190814}, {"type": "node", "id": 4760310634, "lat": 37.9251727, "lon": -122.3191049}, {"type": "node", "id": 4760310635, "lat": 37.925124, "lon": -122.3191054}, {"type": "node", "id": 4760310636, "lat": 37.9251239, "lon": -122.3190856}, {"type": "node", "id": 4760310637, "lat": 37.9251726, "lon": -122.319085}, {"type": "node", "id": 4760310638, "lat": 37.9250881, "lon": -122.318921}, {"type": "node", "id": 4760310639, "lat": 37.9251288, "lon": -122.3189205}, {"type": "node", "id": 4760310640, "lat": 37.9250884, "lon": -122.3189687}, {"type": "node", "id": 4760310641, "lat": 37.9251292, "lon": -122.3189682}, {"type": "node", "id": 4760310642, "lat": 37.9252225, "lon": -122.3189671}, {"type": "node", "id": 4760310643, "lat": 37.924965, "lon": -122.3189702}, {"type": "node", "id": 4760310644, "lat": 37.9249948, "lon": -122.3190871}, {"type": "node", "id": 5070942431, "lat": 37.8368228, "lon": -122.2934946}, {"type": "node", "id": 5070942435, "lat": 37.836903, "lon": -122.2932636}, {"type": "node", "id": 5070942441, "lat": 37.8369005, "lon": -122.2933093}, {"type": "node", "id": 5070942448, "lat": 37.8368369, "lon": -122.2933998}, {"type": "node", "id": 5070942458, "lat": 37.8369412, "lon": -122.2933128}, {"type": "node", "id": 5070942465, "lat": 37.836828, "lon": -122.293399}, {"type": "node", "id": 5070942472, "lat": 37.8368368, "lon": -122.2934958}, {"type": "node", "id": 5070942476, "lat": 37.8369437, "lon": -122.2932671}, {"type": "node", "id": 5305408860, "lat": 37.8688587, "lon": -122.267639, "tags": {"addr:city": "Berkeley", "addr:housenumber": "2225", "addr:postcode": "94704", "addr:state": "CA", "addr:street": "Shattuck Avenue", "amenity": "fast_food", "brand": "Chipotle", "brand:wikidata": "Q465751", "brand:wikipedia": "en:Chipotle Mexican Grill", "cuisine": "mexican", "drive_through": "no", "indoor_seating": "yes", "name": "Chipotle", "official_name": "Chipotle Mexican Grill", "opening_hours": "Mo-Su 10:45-22:00", "outdoor_seating": "no", "phone": "+1-510-6479166", "smoking": "no", "takeaway": "yes", "website": "https://locations.chipotle.com/ca/berkeley/2225-shattuck-ave", "wheelchair": "yes"}}, {"type": "node", "id": 5567354723, "lat": 37.8160216, "lon": -122.2747787, "tags": {"amenity": "fast_food", "name": "Giant Burrito"}}, {"type": "node", "id": 5567592257, "lat": 37.8014779, "lon": -122.26358, "tags": {"amenity": "fast_food", "cuisine": "mexican", "name": "Uarhi Taqueria"}}, {"type": "node", "id": 5567592258, "lat": 37.8015225, "lon": -122.2636879, "tags": {"amenity": "fast_food", "name": "Panda Kitchen"}}, {"type": "node", "id": 5603187722, "lat": 37.9195106, "lon": -122.3482532, "tags": {"amenity": "fast_food", "cuisine": "mexican", "name": "Taqueria Esperanza Food Truck", "opening_hours": "Su-Th 12:00-22:00; Fr-Sa 12:00-00:00", "operator": "Martinez", "phone": "5104189515"}}, {"type": "node", "id": 5631116752, "lat": 37.8813664, "lon": -122.290155, "tags": {"addr:street": "Gilman Street", "amenity": "fast_food", "cuisine": "brazilian", "name": "Brazil Cafe food truck", "website": "https://www.westbraebiergarten.com/"}}, {"type": "node", "id": 5670752051, "lat": 37.8060821, "lon": -122.2679852, "tags": {"amenity": "fast_food", "cuisine": "donut", "name": "Happy Donuts"}}, {"type": "node", "id": 5963310936, "lat": 37.8708601, "lon": -122.2714424, "tags": {"addr:city": "Berkeley", "addr:housenumber": "1935", "addr:postcode": "94704", "addr:state": "CA", "addr:street": "Addison Street", "amenity": "fast_food", "cuisine": "yogurt", "diet:vegan": "yes", "diet:vegetarian": "only", "name": "Rush Bowls", "opening_hours": "Mo-Su 07:00-20:00", "phone": "+1-510-5294419", "website": "https://rushbowls.com/berkeley"}}, {"type": "node", "id": 5977580683, "lat": 37.8671865, "lon": -122.259002, "tags": {"addr:city": "Berkeley", "addr:housenumber": "2384", "addr:postcode": "94704", "addr:state": "CA", "addr:street": "Telegraph Avenue", "amenity": "fast_food", "cuisine": "mexican", "name": "Tacos Sinaloa", "phone": "510-6657895", "website": "https://www.doordash.com/store/tacos-sinaloa-berkeley-44986"}}, {"type": "node", "id": 6191236521, "lat": 37.8123808, "lon": -122.2695391}, {"type": "node", "id": 6191236522, "lat": 37.8124177, "lon": -122.2695629}, {"type": "node", "id": 6191236523, "lat": 37.8124462, "lon": -122.2695532}, {"type": "node", "id": 6191236524, "lat": 37.8124205, "lon": -122.2696172}, {"type": "node", "id": 6191236525, "lat": 37.8124562, "lon": -122.2696099}, {"type": "node", "id": 6191236526, "lat": 37.8124125, "lon": -122.2695302}, {"type": "node", "id": 6202212159, "lat": 37.8500964, "lon": -122.252205, "tags": {"addr:city": "Oakland", "addr:housenumber": "6310", "addr:postcode": "94618", "addr:state": "CA", "addr:street": "College Avenue", "addr:unit": "140", "amenity": "fast_food", "brand": "Ike's Love and Sandwiches", "brand:contact:facebook": "ikesandwiches", "brand:contact:instagram": "ikessandwiches", "brand:contact:twitter": "ikessandwiches", "brand:wikidata": "Q112028897", "cuisine": "sandwich", "name": "Ike's Love and Sandwiches", "opening_hours": "Mo-Su 10:00-21:00", "opening_hours:url": "https://locations.ikessandwich.com/ca/oakland/119/", "phone": "+1 510 8232462", "short_name": "Ike's", "takeaway": "yes", "website": "https://locations.ikessandwich.com/ca/oakland/119/"}}, {"type": "node", "id": 6348892871, "lat": 37.8111421, "lon": -122.266652, "tags": {"amenity": "fast_food", "brand": "The Halal Guys", "brand:wikidata": "Q10846129", "cuisine": "chicken;falafel;gyros", "diet:halal": "yes", "name": "The Halal Guys", "old_name1": "LocoL", "old_name2": "Plum", "takeaway": "yes"}}, {"type": "node", "id": 6522368098, "lat": 37.850837, "lon": -122.2921247, "tags": {"addr:street": "Potter Street", "amenity": "fast_food", "name": "Tacos el Rey Food Truck", "phone": "5105931020", "website": "http://www.elreytacos.com"}}, {"type": "node", "id": 6541873990, "lat": 37.8264312, "lon": -122.209174, "tags": {"amenity": "fast_food", "branch": "Montclair", "brand": "Noah's Bagels", "brand:wikidata": "Q64517373", "cuisine": "bagel", "name": "Noah's Bagels", "official_name": "Noah's New York Bagels", "shop": "bakery", "takeaway": "yes"}}, {"type": "node", "id": 6634175894, "lat": 37.8653638, "lon": -122.2583491, "tags": {"addr:city": "Berkeley", "addr:housenumber": "2491", "addr:postcode": "94704", "addr:state": "CA", "addr:street": "Telegraph Avenue", "amenity": "fast_food", "cuisine": "vietnamese;sandwich", "drive_through": "no", "name": "Nom Nom Banh Mi", "opening_hours": "Mo-Sa 11:00-19:00", "phone": "(510) 984-0957", "website": "https://nomnombanhmi.store"}}, {"type": "node", "id": 6757517959, "lat": 37.8092976, "lon": -122.269362, "tags": {"addr:city": "Oakland", "addr:country": "US", "addr:housenumber": "1955", "addr:postcode": "94612", "addr:state": "CA", "addr:street": "Broadway", "amenity": "fast_food", "brand": "Shake Shack", "brand:wikidata": "Q1058722", "brand:wikipedia": "en:Shake Shack", "cuisine": "burger", "name": "Shake Shack", "start_date": "2020", "takeaway": "yes"}}, {"type": "node", "id": 6959372193, "lat": 37.8492783, "lon": -122.2860423, "tags": {"amenity": "fast_food", "brand": "McDonald's", "brand:website": "https://www.mcdonalds.com/", "brand:wikidata": "Q38076", "brand:wikipedia": "en:McDonald's", "cuisine": "burger", "drive_through": "yes", "name": "McDonald's", "takeaway": "yes"}}, {"type": "node", "id": 7065237633, "lat": 37.8733004, "lon": -122.268276, "tags": {"addr:city": "Berkeley", "addr:housenumber": "1919", "addr:postcode": "94704", "addr:state": "CA", "addr:street": "Shattuck Avenue", "addr:unit": "103", "amenity": "fast_food", "cuisine": "noodle", "drive_through": "no", "indoor_seating": "yes", "name": "Marugame Udon", "outdoor_seating": "yes", "phone": "+1-510-529-4622", "website": "https://marugameudon.com/", "wheelchair": "yes"}}, {"type": "node", "id": 7109324499, "lat": 37.884395, "lon": -122.297332, "tags": {"addr:city": "Albany", "addr:housenumber": "1080", "addr:postcode": "94706", "addr:state": "CA", "addr:street": "Monroe Street", "alt_name": "Habit Burger Grill", "amenity": "fast_food", "brand": "The Habit Burger Grill", "brand:wikidata": "Q18158741", "brand:wikipedia": "en:The Habit Burger Grill", "cuisine": "burger", "name": "The Habit Burger Grill", "opening_hours": "Mo-Su 10:30-22:00", "phone": "+15105265560", "short_name": "Habit Burger", "takeaway": "yes", "website": "https://www.habitburger.com/locations/albany/"}}, {"type": "node", "id": 7289711946, "lat": 37.8085591, "lon": -122.264636, "tags": {"amenity": "fast_food", "cuisine": "sandwich", "name": "North Beach Sandwicheez", "takeaway": "yes", "website": "https://www.sandwicheez.com/location/north-beach-deli-kaiser-center/"}}, {"type": "node", "id": 7471934966, "lat": 37.8651962, "lon": -122.2678295, "tags": {"addr:city": "Berkeley", "addr:housenumber": "2430", "addr:postcode": "94704", "addr:state": "CA", "addr:street": "Shattuck Avenue", "amenity": "fast_food", "cuisine": "chinese", "name": "Noodles Fresh", "phone": "+1-510-906-8800", "website": "https://noodlesfresh.com/"}}, {"type": "node", "id": 7472208124, "lat": 37.8700138, "lon": -122.3014402, "tags": {"addr:city": "Berkeley", "addr:housenumber": "1788", "addr:postcode": "94710", "addr:state": "CA", "addr:street": "Fourth Street", "amenity": "fast_food", "cuisine": "pizza", "name": "Pollara Pizzeria", "phone": "+1-510-529-4548", "website": "https://www.pollarapizzeria.com/"}}, {"type": "node", "id": 7472267370, "lat": 37.8678468, "lon": -122.2597154, "tags": {"addr:city": "Berkeley", "addr:housenumber": "2435", "addr:postcode": "94704", "addr:state": "CA", "addr:street": "Durant Avenue", "amenity": "fast_food", "check_date": "2022-03-04", "contact:facebook": "ricefulonigiri", "contact:instagram": "riceful_onigiri", "contact:yelp": "https://www.yelp.com/biz/riceful-berkeley-3", "cuisine": "japanese", "email": "bericeful@gmail.com", "indoor_seating": "no", "name": "Riceful", "note": "Only takeaway during Covid", "opening_hours": "Mo-Su 11:00-20:00", "opening_hours:url": "http://bericeful.com/", "payment:cash": "no", "payment:credit_cards": "yes", "takeaway": "only", "website": "http://bericeful.com/"}}, {"type": "node", "id": 7472319188, "lat": 37.8653037, "lon": -122.258283, "tags": {"addr:city": "Berkeley", "addr:housenumber": "2493", "addr:postcode": "94704", "addr:state": "CA", "addr:street": "Telegraph Avenue", "amenity": "fast_food", "cuisine": "salad;sandwich", "name": "Savory Kitchen", "phone": "+15109906131", "website": "https://www.grubhub.com/restaurant/savory-kitchen-2493-telegraph-ave-berkeley/2285621"}}, {"type": "node", "id": 7932880097, "lat": 37.8679535, "lon": -122.2568495, "tags": {"amenity": "fast_food", "cuisine": "pizza", "drive_through": "no", "name": "Artichoke Basille's Pizza", "outdoor_seating": "parklet"}}, {"type": "node", "id": 7940287676, "lat": 37.8567415, "lon": -122.260082, "tags": {"amenity": "fast_food", "brand": "Krispy Krunchy Chicken", "brand:wikidata": "Q65087447", "brand:wikipedia": "en:Krispy Krunchy Chicken", "cuisine": "chicken", "name": "Krispy Krunchy Chicken", "phone": "(510)543-1939", "takeaway": "yes", "website": "https://www.krispykrunchy.com/locations/store-10286"}}, {"type": "node", "id": 8026289395, "lat": 37.851333, "lon": -122.260031, "tags": {"addr:housenumber": "6510", "addr:street": "Telegraph Avenue", "amenity": "fast_food", "brand": "Jack in the Box", "brand:wikidata": "Q1538507", "brand:wikipedia": "en:Jack in the Box", "cuisine": "burger", "name": "Jack in the Box", "takeaway": "yes", "website": "https://www.jackinthebox.com"}}, {"type": "node", "id": 8037941642, "lat": 37.8521817, "lon": -122.2598251, "tags": {"amenity": "fast_food", "name": "Krispy krunchy chicken"}}, {"type": "node", "id": 8060674292, "lat": 37.830747, "lon": -122.280257, "tags": {"addr:city": "Emeryville", "addr:housenumber": "1151", "addr:postcode": "94608", "addr:street": "40th Street", "amenity": "fast_food", "brand": "Panda Express", "brand:wikidata": "Q1358690", "brand:wikipedia": "en:Panda Express", "cuisine": "chinese", "name": "Panda Express", "opening_hours": "Mo-Su 10:00-21:30", "takeaway": "yes", "website": "https://www.pandaexpress.com/userlocation/2385/ca/emeryville/1151-40th-st"}}, {"type": "node", "id": 8060681596, "lat": 37.832853, "lon": -122.280799, "tags": {"amenity": "fast_food", "brand": "Wingstop", "brand:wikidata": "Q8025339", "brand:wikipedia": "en:Wingstop", "cuisine": "wings", "name": "Wingstop", "takeaway": "yes", "website": "https://www.wingstop.com/location/wingstop-454-emeryville-ca-94608/menu"}}, {"type": "node", "id": 8260742967, "lat": 37.8698606, "lon": -122.27015, "tags": {"addr:city": "Berkeley", "addr:housenumber": "2002", "addr:street": "Center Street", "amenity": "fast_food", "name": "K's Coffee House", "phone": "+15108482147"}}, {"type": "node", "id": 8313408238, "lat": 37.8286224, "lon": -122.2841038, "tags": {"amenity": "fast_food", "name": "Kelly's deli"}}, {"type": "node", "id": 8316933705, "lat": 37.8752639, "lon": -122.2597825, "tags": {"addr:city": "Berkeley", "addr:housenumber": "2503", "addr:postcode": "94709", "addr:state": "CA", "addr:street": "Hearst Avenue", "amenity": "fast_food", "cuisine": "pizza", "name": "Tony's Style", "opening_hours": "Mo-Su 17:00-24:00", "phone": "+1-917-2444797"}}, {"type": "node", "id": 8613176462, "lat": 37.8054274, "lon": -122.2673152, "tags": {"amenity": "fast_food", "cuisine": "mexican", "name": "Senor Sisig"}}, {"type": "node", "id": 8715520434, "lat": 37.8903655, "lon": -122.2949113, "tags": {"addr:city": "Albany", "addr:street": "Solano Avenue", "amenity": "fast_food", "cuisine": "pizza", "indoor_seating": "yes", "name": "Islice", "opening_hours": "Mo-Su 11:30-20:00", "outdoor_seating": "yes", "website": "https://www.isliceonline.com", "wheelchair": "yes"}}, {"type": "node", "id": 8736839518, "lat": 37.894054, "lon": -122.29989, "tags": {"addr:city": "Albany", "addr:housenumber": "635", "addr:postcode": "94706", "addr:state": "CA", "addr:street": "San Pablo Avenue", "amenity": "fast_food", "brand": "Taco Bell", "brand:wikidata": "Q752941", "brand:wikipedia": "en:Taco Bell", "cuisine": "tex-mex", "delivery": "no", "drive_through": "yes", "name": "Taco Bell", "opening_hours": "Mo-Fr 06:00-01:00; Sa-Su 09:00-01:00", "phone": "(510) 527-5090", "smoking": "no", "takeaway": "yes", "website": "https://locations.tacobell.com/ca/albany/635-san-pablo-ave.html"}}, {"type": "node", "id": 8759011497, "lat": 37.9180139, "lon": -122.3136213, "tags": {"amenity": "fast_food", "name": "W"}}, {"type": "node", "id": 8759011498, "lat": 37.9078157, "lon": -122.305634, "tags": {"addr:housenumber": "10398", "addr:street": "San Pablo Avenue", "amenity": "fast_food", "brand": "Subway", "brand:wikidata": "Q244457", "cuisine": "sandwich", "name": "Subway", "opening_hours": "Mo-Sa 08:00-20:30; Su 09:00-20:00", "phone": "+1 510-527-4300", "takeaway": "yes", "website": "https://restaurants.subway.com/united-states/ca/el-cerrito/10398-san-pablo-ave"}}, {"type": "node", "id": 8759011846, "lat": 37.9222543, "lon": -122.315813, "tags": {"amenity": "fast_food", "brand": "Subway", "brand:wikidata": "Q244457", "cuisine": "sandwich", "name": "Subway", "takeaway": "yes"}}, {"type": "node", "id": 8759011943, "lat": 37.9144184, "lon": -122.310461, "tags": {"amenity": "fast_food", "cuisine": "sandwich", "name": "Mr Pickle's Sandwich Shop"}}, {"type": "node", "id": 8901494466, "lat": 37.8809139, "lon": -122.29576, "tags": {"amenity": "fast_food", "cuisine": "mexican", "name": "Tacos El Rulas"}}, {"type": "node", "id": 9015621618, "lat": 37.8348919, "lon": -122.249702, "tags": {"alt_name": "Habit Burger Grill", "amenity": "fast_food", "brand": "The Habit Burger Grill", "brand:wikidata": "Q18158741", "brand:wikipedia": "en:The Habit Burger Grill", "cuisine": "burger", "name": "The Habit Burger Grill", "short_name": "Habit Burger", "takeaway": "yes"}}, {"type": "node", "id": 9015621619, "lat": 37.8346799, "lon": -122.249899, "tags": {"amenity": "fast_food", "brand": "Panda Express", "brand:wikidata": "Q1358690", "brand:wikipedia": "en:Panda Express", "cuisine": "chinese", "name": "Panda Express", "takeaway": "yes"}}, {"type": "node", "id": 9015621621, "lat": 37.8347559, "lon": -122.2498177, "tags": {"amenity": "fast_food", "name": "Best Coast Burritos"}}, {"type": "node", "id": 9167934815, "lat": 37.8337294, "lon": -122.2494647, "tags": {"addr:city": "Oakland", "addr:housenumber": "5132", "addr:postcode": "94611", "addr:state": "CA", "addr:street": "Broadway", "addr:unit": "Suite C101", "amenity": "fast_food", "brand": "Boston Market", "brand:wikidata": "Q603617", "brand:wikipedia": "en:Boston Market", "cuisine": "american;chicken", "name": "Boston Market", "opening_hours": "Mo-Su 11:00-22:00", "phone": "+1 510 601 0300", "takeaway": "yes", "website": "https://www.bostonmarket.com/location/ca/oakland/5132-broadway"}}, {"type": "node", "id": 9347384610, "lat": 37.8716083, "lon": -122.2517891, "tags": {"amenity": "fast_food", "name": "Gridiron Grill"}}, {"type": "node", "id": 9347384611, "lat": 37.8710156, "lon": -122.2518374, "tags": {"access": "customers", "amenity": "fast_food", "name": "Oski's Place"}}, {"type": "node", "id": 9347384612, "lat": 37.8708371, "lon": -122.2515938, "tags": {"access": "customers", "amenity": "fast_food", "name": "Carved Stand"}}, {"type": "node", "id": 9347384613, "lat": 37.8707834, "lon": -122.2515301, "tags": {"access": "customers", "amenity": "fast_food", "name": "Pizza My Heart"}}, {"type": "node", "id": 9347384614, "lat": 37.8707228, "lon": -122.2514752, "tags": {"access": "customers", "amenity": "fast_food", "name": "Fifty Yard Franks"}}, {"type": "node", "id": 9347384615, "lat": 37.870669, "lon": -122.2514138, "tags": {"access": "customers", "amenity": "fast_food", "name": "Golden Bear Grill"}}, {"type": "node", "id": 9347384616, "lat": 37.8706136, "lon": -122.2513567, "tags": {"access": "customers", "amenity": "fast_food", "name": "Taste of the Bay"}}, {"type": "node", "id": 9347384617, "lat": 37.8701873, "lon": -122.2508298, "tags": {"access": "customers", "amenity": "fast_food", "name": "Oski's Place"}}, {"type": "node", "id": 9347384618, "lat": 37.8701561, "lon": -122.2500549, "tags": {"access": "customers", "amenity": "fast_food", "name": "End Zone Grill"}}, {"type": "node", "id": 9347384620, "lat": 37.8708215, "lon": -122.2496159, "tags": {"access": "customers", "amenity": "fast_food", "name": "Fryers Not Cryers"}}, {"type": "node", "id": 9347384621, "lat": 37.8712686, "lon": -122.2497871, "tags": {"access": "customers", "amenity": "fast_food", "name": "Meat Street"}}, {"type": "node", "id": 9347384623, "lat": 37.8719063, "lon": -122.2507552, "tags": {"access": "customers", "amenity": "fast_food", "name": "Burgers & Hotdogs"}}, {"type": "node", "id": 9347384624, "lat": 37.8719358, "lon": -122.2508518, "tags": {"access": "customers", "amenity": "fast_food", "name": "Fault Line"}}, {"type": "node", "id": 9501233308, "lat": 37.8776342, "lon": -122.309415, "tags": {"amenity": "fast_food", "name": "Taqueria food truck", "phone": "5104785999"}}, {"type": "node", "id": 9506858288, "lat": 37.8392553, "lon": -122.2888672, "tags": {"amenity": "fast_food", "name": "Ike's"}}, {"type": "node", "id": 9522503977, "lat": 37.8018978, "lon": -122.272093, "tags": {"amenity": "fast_food", "cuisine": "donut", "name": "Colonial Donuts"}}, {"type": "node", "id": 9553418873, "lat": 37.8678724, "lon": -122.2576541, "tags": {"addr:city": "Berkeley", "addr:housenumber": "2528", "addr:street": "Durant Avenue", "amenity": "fast_food", "brand": "Taco Bell", "brand:wikidata": "Q752941", "brand:wikipedia": "en:Taco Bell", "check_date": "2022-02-15", "cuisine": "tex-mex", "name": "Taco Bell Cantina", "takeaway": "yes", "website": "https://locations.tacobell.com/ca/berkeley/2528-durant-ave.html"}}, {"type": "node", "id": 9572013607, "lat": 37.8679573, "lon": -122.2598223, "tags": {"amenity": "fast_food", "check_date": "2022-03-04", "cuisine": "bubble_tea", "name": "Take.Eat.Easy", "takeaway": "only"}}, {"type": "node", "id": 9579559829, "lat": 37.8128313, "lon": -122.2644807}, {"type": "node", "id": 9579559830, "lat": 37.8127611, "lon": -122.2644992}, {"type": "node", "id": 9579559831, "lat": 37.8127525, "lon": -122.2644468}, {"type": "node", "id": 9579559832, "lat": 37.8128227, "lon": -122.2644283}, {"type": "node", "id": 9583500381, "lat": 37.8470928, "lon": -122.261181, "tags": {"alt_name": "Kentucky Fried Chicken", "amenity": "fast_food", "brand": "KFC", "brand:wikidata": "Q524757", "brand:wikipedia": "en:KFC", "cuisine": "chicken", "name": "KFC", "takeaway": "yes"}}, {"type": "node", "id": 9583500382, "lat": 37.8470346, "lon": -122.2611648, "tags": {"amenity": "fast_food", "brand": "Taco Bell", "brand:wikidata": "Q752941", "brand:wikipedia": "en:Taco Bell", "cuisine": "tex-mex", "name": "Taco Bell", "takeaway": "yes"}}, {"type": "node", "id": 9721421803, "lat": 37.8079707, "lon": -122.2654551, "tags": {"amenity": "fast_food", "name": "Poke Parlor", "website": "http://www.pokeparlor.com/"}}, {"type": "node", "id": 10018909585, "lat": 37.8684661, "lon": -122.296941, "tags": {"amenity": "fast_food", "brand": "Burger King", "brand:wikidata": "Q177054", "cuisine": "burger", "name": "Burger King", "takeaway": "yes"}}, {"type": "node", "id": 10181337806, "lat": 37.805881, "lon": -122.2680658, "tags": {"amenity": "fast_food", "cuisine": "juice", "name": "Juice Holick"}}, {"type": "way", "id": 36979433, "nodes": [430012066, 6191236524, 6191236525, 6191236523, 6191236522, 6191236526, 6191236521, 430012067, 430012068, 430012069, 430012066], "tags": {"addr:housenumber": "509;517", "addr:street": "23rd Street", "amenity": "fast_food", "brand": "Taco Bell", "brand:wikidata": "Q752941", "brand:wikipedia": "en:Taco Bell", "building": "yes", "cuisine": "tex-mex", "name": "Taco Bell", "takeaway": "yes", "wheelchair": "yes"}}, {"type": "way", "id": 37016794, "nodes": [430531301, 430531302, 430531709, 430531303, 430531301], "tags": {"addr:city": "Oakland", "addr:housenumber": "4155", "addr:street": "Telegraph Avenue", "amenity": "fast_food", "brand": "Church's Chicken", "brand:wikidata": "Q1089932", "brand:wikipedia": "en:Church's Chicken", "building": "yes", "cuisine": "chicken", "delivery": "no", "drive_through": "no", "name": "Church's Chicken", "outdoor_seating": "no", "smoking": "no", "takeaway": "yes"}}, {"type": "way", "id": 43313850, "nodes": [544331882, 544331883, 544331884, 544331885, 544331882], "tags": {"addr:housenumber": "1199", "addr:street": "University Avenue", "amenity": "fast_food", "building": "yes", "name": "Foster's Freeze"}}, {"type": "way", "id": 89905464, "nodes": [1042049342, 1042049346, 5070942458, 5070942476, 5070942435, 5070942441, 1042049330, 5070942448, 5070942465, 5070942431, 5070942472, 1042049281, 1042049342], "tags": {"addr:city": "Emeryville", "addr:housenumber": "5701", "addr:state": "CA", "addr:street": "Christie Avenue", "amenity": "fast_food", "brand": "Burger King", "brand:wikidata": "Q177054", "brand:wikipedia": "en:Burger King", "building": "yes", "cuisine": "burger", "name": "Burger King", "takeaway": "yes"}}, {"type": "way", "id": 173818568, "nodes": [1845784089, 1845784138, 1845784159, 1845784155, 1845784089], "tags": {"addr:city": "El Cerrito", "addr:housenumber": "11575", "addr:street": "San Pablo Avenue", "amenity": "fast_food", "brand": "Church's Chicken", "brand:wikidata": "Q1089932", "brand:wikipedia": "en:Church's Chicken", "building": "yes", "cuisine": "chicken", "name": "Church's Chicken", "takeaway": "yes", "wheelchair": "yes"}}, {"type": "way", "id": 230400239, "nodes": [2389102647, 2389102690, 2389102708, 2389102729, 2389102723, 2389102712, 2389102649, 2389102721, 2389102647], "tags": {"addr:housenumber": "5211", "addr:street": "Broadway", "amenity": "fast_food", "brand": "Wendy's", "brand:wikidata": "Q550258", "building": "retail", "cuisine": "burger", "name": "Wendy's", "takeaway": "yes"}}, {"type": "way", "id": 236495190, "nodes": [2445179168, 2445179167, 2445180652, 2445180653, 2445179168], "tags": {"addr:housenumber": "3734", "addr:street": "MacArthur Boulevard", "amenity": "fast_food", "building": "retail", "cuisine": "chicken", "name": "Kentucky Fried Chicken (KFC)"}}, {"type": "way", "id": 236497362, "nodes": [2445203378, 2445203379, 4694983822, 2445203380, 2445203381, 2445203378], "tags": {"addr:city": "Oakland", "addr:housenumber": "3639", "addr:street": "MacArthur Boulevard", "amenity": "fast_food", "brand": "Domino's", "brand:wikidata": "Q839466", "brand:wikipedia": "en:Domino's Pizza", "building": "yes", "cuisine": "pizza", "name": "Domino's", "short_name": "Domino's", "takeaway": "yes"}}, {"type": "way", "id": 268092091, "nodes": [2734515559, 2734515560, 2734515562, 2734515563, 2734515559], "tags": {"addr:city": "Oakland", "addr:housenumber": "439", "addr:postcode": "94610", "addr:street": "Grand Avenue", "amenity": "fast_food", "building": "commercial", "cuisine": "burger", "name": "Ahn's Quarter Pound Burger"}}, {"type": "way", "id": 278318168, "nodes": [2826985866, 4758298010, 4758298016, 4758298009, 2826985829, 2826985844, 4758298008, 4758298012, 4758298015, 4758298007, 4758298006, 4758298018, 4758298019, 4758298005, 2826985848, 2826985866], "tags": {"addr:city": "El Cerrito", "addr:housenumber": "11821", "addr:street": "San Pablo Avenue", "amenity": "fast_food", "brand": "McDonald's", "brand:wikidata": "Q38076", "brand:wikipedia": "en:McDonald's", "building": "yes", "cuisine": "burger", "name": "McDonald's", "takeaway": "yes"}}, {"type": "way", "id": 309107777, "nodes": [3144224379, 3144224380, 3144224381, 3144224382, 3144224379], "tags": {"addr:housenumber": "4425", "addr:street": "Telegraph Avenue", "amenity": "fast_food", "brand": "Jack in the Box", "brand:wikidata": "Q1538507", "brand:wikipedia": "en:Jack in the Box", "building": "yes", "cuisine": "burger", "name": "Jack in the Box", "takeaway": "yes"}}, {"type": "way", "id": 309107779, "nodes": [3144224392, 3144224393, 3144224394, 3144224395, 3144224396, 3144224397, 3144224392], "tags": {"addr:housenumber": "5440", "addr:street": "Telegraph Avenue", "amenity": "fast_food", "building": "yes", "name": "Caspers Hot Dogs"}}, {"type": "way", "id": 311051770, "nodes": [3165906694, 3165906695, 3165906696, 4690730478, 4690730438, 3165906697, 3165906694], "tags": {"addr:housenumber": "1330", "addr:street": "Jackson Street", "amenity": "fast_food", "brand": "McDonald's", "brand:wikidata": "Q38076", "brand:wikipedia": "en:McDonald's", "building": "yes", "cuisine": "burger", "name": "McDonald's", "takeaway": "yes"}}, {"type": "way", "id": 315440199, "nodes": [3215568126, 3215568127, 3215568128, 3215568129, 3215568126], "tags": {"addr:city": "Oakland", "addr:housenumber": "3770", "addr:street": "Telegraph Avenue", "amenity": "fast_food", "brand": "Carl's Jr.", "brand:wikidata": "Q1043486", "brand:wikipedia": "en:Carl's Jr.", "building": "yes", "cuisine": "burger", "delivery": "no", "drive_through": "no", "name": "Carl's Jr.", "outdoor_seating": "yes", "smoking": "no", "takeaway": "yes"}}, {"type": "way", "id": 341271240, "nodes": [4706517007, 3484747338, 3484747339, 3484747337, 4706517007], "tags": {"addr:city": "Oakland", "addr:housenumber": "2055", "addr:postcode": "94602", "addr:street": "MacArthur Boulevard", "amenity": "fast_food", "building": "commercial", "building:levels": "1", "cuisine": "burger", "name": "1/4 lb Giant Burgers"}}, {"type": "way", "id": 395220837, "nodes": [3981315791, 3981315781, 3981315778, 3981315770, 3981315805, 3981315786, 3981315791], "tags": {"amenity": "fast_food", "brand": "McDonald's", "brand:wikidata": "Q38076", "brand:wikipedia": "en:McDonald's", "building": "yes", "cuisine": "burger", "name": "McDonald's", "opening_hours": "Mo-Su 05:00-21:00", "phone": "(510) 654-7087", "takeaway": "yes", "website": "https://www.mcdonalds.com/us/en-us/location/ca/oakland/4514-telegraph-ave/1745.html"}}, {"type": "way", "id": 475787213, "nodes": [4694924435, 4694925796, 4694911784, 4694922964, 4694924435], "tags": {"addr:housenumber": "3535", "addr:street": "35th Avenue", "amenity": "fast_food", "brand": "Taco Bell", "brand:wikidata": "Q752941", "brand:wikipedia": "en:Taco Bell", "building": "yes", "cuisine": "tex-mex", "name": "Taco Bell", "takeaway": "yes"}}, {"type": "way", "id": 483273609, "nodes": [1766506789, 4760310642, 4760310641, 4760310639, 4760310638, 4760310640, 4760310643, 4760310631, 4760310628, 4760310629, 4760310630, 4760310632, 4760310633, 4760310644, 4760310636, 4760310635, 4760310634, 4760310637, 1766506789], "tags": {"amenity": "fast_food", "brand": "Jack in the Box", "brand:wikidata": "Q1538507", "brand:wikipedia": "en:Jack in the Box", "building": "yes", "cuisine": "burger", "name": "Jack in the Box", "takeaway": "yes", "wheelchair": "yes"}}, {"type": "way", "id": 1040395041, "nodes": [9579559829, 9579559830, 9579559831, 9579559832, 9579559829], "tags": {"amenity": "fast_food", "building": "yes", "name": "Lovely\u2019s"}}]}