{"version": 0.6, "generator": "Overpass API 0.7.59 e21c39fe", "osm3s": {"timestamp_osm_base": "2022-11-18T21:34:31Z", "copyright": "The data included in this document is from www.openstreetmap.org. The data is made available under ODbL."}, "elements": [{"type": "node", "id": 286632462, "lat": 37.8686097, "lon": -122.258768, "tags": {"addr:city": "Berkeley", "addr:postcode": "94704", "addr:street": "Bancroft Way", "alt_name": "Jamba", "amenity": "fast_food", "brand": "Jamba", "brand:wikidata": "Q3088784", "brand:wikipedia": "en:Jamba Juice", "cuisine": "juice", "name": "Jamba Juice", "takeaway": "yes", "website": "https://www.jamba.com/ca/berkeley/bancroft-150", "wheelchair": "limited", "wheelchair:description": "Cashier & order counter are high and the door could be difficult, but the inside is clear & there's no step."}}, {"type": "node", "id": 288991105, "lat": 37.8709518, "lon": -122.274845, "tags": {"addr:city": "Berkeley", "addr:housenumber": "1800", "addr:postcode": "94703", "addr:street": "University Avenue", "amenity": "fast_food", "cuisine": "burger", "drive_in": "no", "microbrewery": "no", "name": "Nation's Giant Hamburgers", "opening_hours": "Su-Th 06:00-00:30, Sa,Su 06:00-01:30", "phone": "+1 510 8437326", "smoking": "no", "website": "http://www.nationsrestaurants.com/", "wheelchair": "yes"}}, {"type": "node", "id": 314115417, "lat": 37.8798656, "lon": -122.268921, "tags": {"amenity": "fast_food", "cuisine": "mexican", "name": "Mexicana Taqueria", "opening_hours": "Mo-Su 11:00-19:00", "phone": "+1-510-6292040", "website": "https://www.mexicanataqueria.com/"}}, {"type": "node", "id": 314115730, "lat": 37.872303, "lon": -122.268629, "tags": {"addr:city": "Berkeley", "addr:country": "US", "addr:housenumber": "1998", "addr:postcode": "94704", "addr:state": "CA", "addr:street": "Shattuck Avenue", "amenity": "fast_food", "brand": "McDonald's", "brand:wikidata": "Q38076", "brand:wikipedia": "en:McDonald's", "cuisine": "burger", "diet:vegetarian": "yes", "drive_in": "no", "drive_through": "no", "internet_access": "wlan", "internet_access:fee": "no", "name": "McDonald's", "opening_hours": "Su-Tu 05:00-23:00; We-Sa 05:00-00:00", "phone": "+1 510 8431500", "takeaway": "yes", "website": "https://www.mcdonalds.com/us/en-us/location/ca/berkeley/1998-shattuck-ave/4372.html", "wheelchair": "yes"}}, {"type": "node", "id": 318886210, "lat": 37.8752789, "lon": -122.259678, "tags": {"addr:housenumber": "2490", "addr:street": "Hearst Avenue", "amenity": "fast_food", "brand": "Subway", "brand:wikidata": "Q244457", "brand:wikipedia": "en:Subway (restaurant)", "cuisine": "sandwich", "diet:vegetarian": "yes", "name": "Subway", "opening_hours": "Mo-Fr 10:00-17:00", "operator": "Subway IP Inc.", "phone": "(510)849-9009", "takeaway": "yes", "website": "https://order.subway.com/"}}, {"type": "node", "id": 318886226, "lat": 37.8758027, "lon": -122.260426, "tags": {"addr:city": "Berkeley", "addr:housenumber": "1814", "addr:postcode": "94709", "addr:state": "CA", "addr:street": "Euclid Avenue", "amenity": "fast_food", "cuisine": "vietnamese;sandwich", "name": "Banh Mi and Rolls Factory", "opening_hours": "Mo-Su 10:00-17:00", "website": "https://places.singleplatform.com/banh-mi--roll-factory/menu"}}, {"type": "node", "id": 343610923, "lat": 37.8916031, "lon": -122.2777571, "tags": {"amenity": "fast_food", "brand": "Noah's Bagels", "brand:wikidata": "Q64517373", "cuisine": "bagel", "diet:vegetarian": "yes", "name": "Noah's Bagels", "official_name": "Noah's New York Bagels", "takeaway": "yes", "website": "https://locations.noahs.com/us/ca/berkeley/1883-solano-ave"}}, {"type": "node", "id": 354035785, "lat": 37.8678906, "lon": -122.2573998, "tags": {"addr:street": "Durant Avenue", "amenity": "fast_food", "cuisine": "hot_dog", "name": "Top Dog", "phone": "+1 510 8435967", "website": "http://www.topdoghotdogs.com/"}}, {"type": "node", "id": 354703981, "lat": 37.870408, "lon": -122.266249, "tags": {"addr:city": "Berkeley", "addr:housenumber": "2160", "addr:street": "Center Street", "amenity": "fast_food", "cuisine": "american;hot_dog", "drive_in": "no", "microbrewery": "no", "name": "Top Dog", "opening_hours": "Mo-Fr 10:00-23:00; Su 11:00-22:00; Sa 11:00-23:00", "outdoor_seating": "yes", "smoking": "no", "takeaway": "yes", "wheelchair": "yes"}}, {"type": "node", "id": 365795396, "lat": 37.8676865, "lon": -122.2588201, "tags": {"addr:city": "Berkeley", "addr:housenumber": "2355", "addr:postcode": "94704", "addr:street": "Telegraph Avenue", "amenity": "fast_food", "cuisine": "burger", "drive_through": "no", "name": "Super Duper Burger", "opening_hours": "Mo-Su 07:00-22:00", "phone": "+1-510-9906483", "takeaway": "yes", "website": "https://superduperburgers.com/"}}, {"type": "node", "id": 365795484, "lat": 37.869831, "lon": -122.259703, "tags": {"amenity": "fast_food", "name": "Golden Bear Cafe", "opening_hours": "Mo-Th 07:30-19:30; Fr 07:30-17:30; Sa 09:00-16:30", "wheelchair": "yes"}}, {"type": "node", "id": 366086633, "lat": 37.8685789, "lon": -122.2592801, "tags": {"amenity": "fast_food", "brand": "Subway", "brand:wikidata": "Q244457", "brand:wikipedia": "en:Subway (restaurant)", "cuisine": "sandwich", "name": "Subway", "opening_hours": "Mo-Fr 09:00-19:00; Sa 09:00-17:00; Su 10:00-16:00", "takeaway": "yes", "wheelchair": "yes"}}, {"type": "node", "id": 366086636, "lat": 37.8683714, "lon": -122.2589537, "tags": {"addr:city": "Berkeley", "addr:housenumber": "2311", "addr:postcode": "94704", "addr:state": "CA", "addr:street": "Telegraph Avenue", "amenity": "fast_food", "brand": "Chipotle", "brand:wikidata": "Q465751", "brand:wikipedia": "en:Chipotle Mexican Grill", "cuisine": "mexican", "fax": "+1-5105480353", "name": "Chipotle", "official_name": "Chipotle Mexican Grill", "opening_hours": "Mo-Su 10:45-22:00", "phone": "+15105480340", "takeaway": "yes", "website": "https://locations.chipotle.com/ca/berkeley/2311-telegraph-ave"}}, {"type": "node", "id": 366086641, "lat": 37.8680186, "lon": -122.259166, "tags": {"addr:city": "Berkeley", "addr:housenumber": "2340", "addr:postcode": "94704", "addr:state": "CA", "addr:street": "Telegraph Avenue", "amenity": "fast_food", "cuisine": "pizza", "drive_through": "no", "name": "Blondie's Pizza", "old_name": "Abe's Pizza", "opening_hours": "Mo-Su 10:00- 00:00", "website": "http://www.abespizza.com/bk-store.html"}}, {"type": "node", "id": 368204308, "lat": 37.865293, "lon": -122.258151, "tags": {"addr:city": "Berkeley", "addr:country": "US", "addr:housenumber": "2505", "addr:postcode": "94704", "addr:state": "CA", "addr:street": "Dwight Way", "amenity": "fast_food", "cuisine": "burger", "drive_in": "no", "drive_through": "no", "name": "Bongo Burger", "phone": "+1 510 5484100", "website": "https://bongoburger.com/", "wheelchair": "yes"}}, {"type": "node", "id": 540609033, "lat": 37.871489, "lon": -122.26852, "tags": {"addr:city": "Berkeley", "addr:housenumber": "2024", "addr:postcode": "94704", "addr:state": "CA", "addr:street": "Shattuck Avenue", "amenity": "fast_food", "cuisine": "mexican", "drive_through": "no", "name": "Comal Next Door", "opening_hours": "Su-Th 11:30-21:00; Fr-Sa 11:30-22:00", "phone": "510-422-6625", "smoking": "no", "takeaway": "yes", "website": "https://comalnextdoor.com/", "wheelchair": "yes"}}, {"type": "node", "id": 540609040, "lat": 37.8717244, "lon": -122.2685364, "tags": {"addr:city": "Berkeley", "addr:housenumber": "2012", "addr:postcode": "94704", "addr:street": "Shattuck Avenue", "amenity": "fast_food", "cuisine": "indian;pizza", "diet:vegetarian": "yes", "name": "Barbarian Grub & Ale", "opening_hours": "Mo-Th 11:00-23:00; Fr,Sa 11:00-24:00", "wheelchair": "yes"}}, {"type": "node", "id": 544331882, "lat": 37.8696838, "lon": -122.2897665}, {"type": "node", "id": 544331883, "lat": 37.8696903, "lon": -122.2896756}, {"type": "node", "id": 544331884, "lat": 37.8695692, "lon": -122.2896617}, {"type": "node", "id": 544331885, "lat": 37.8695627, "lon": -122.2897527}, {"type": "node", "id": 626216926, "lat": 37.8718677, "lon": -122.2928112, "tags": {"amenity": "fast_food", "brand": "Popeyes", "brand:wikidata": "Q1330910", "brand:wikipedia": "en:Popeyes", "cuisine": "chicken", "name": "Popeyes", "official_name": "Popeyes Louisiana Kitchen", "takeaway": "yes"}}, {"type": "node", "id": 835034059, "lat": 37.87055, "lon": -122.270508, "tags": {"addr:city": "Berkeley", "addr:housenumber": "2109", "addr:postcode": "94704", "addr:street": "Milvia Street", "amenity": "fast_food", "drive_in": "no", "microbrewery": "no", "name": "Yummy house", "outdoor_seating": "no", "takeaway": "only", "wheelchair": "yes"}}, {"type": "node", "id": 1140526023, "lat": 37.8720196, "lon": -122.2679645, "tags": {"addr:city": "Berkeley", "addr:housenumber": "2000", "addr:postcode": "94704", "addr:state": "CA", "addr:street": "Kala Bagai Way", "amenity": "fast_food", "cuisine": "burger", "diet:vegan": "yes", "diet:vegetarian": "only", "name": "Stand-Up Burgers", "old_name": "veggiegrill", "opening_hours": "Mo-Su 11:00-21:00", "website": "https://www.standupburgers.com/berkeley"}}, {"type": "node", "id": 1374984803, "lat": 37.8558832, "lon": -122.2797964, "tags": {"addr:city": "Berkeley", "addr:country": "US", "addr:housenumber": "2830", "addr:state": "CA", "addr:street": "Sacramento Street", "amenity": "fast_food", "cuisine": "mexican", "drive_through": "no", "name": "Tacos sinaloa"}}, {"type": "node", "id": 1519114319, "lat": 37.866736, "lon": -122.291042, "tags": {"addr:city": "Berkeley", "addr:housenumber": "2197", "addr:street": "San Pablo Avenue", "amenity": "fast_food", "brand": "Jack in the Box", "brand:wikidata": "Q1538507", "brand:wikipedia": "en:Jack in the Box", "cuisine": "burger", "drive_in": "no", "drive_through": "yes", "name": "Jack in the Box", "opening_hours": "Mo-Su 06:00-23:58", "phone": "(510) 841-3574", "source": "Bing", "takeaway": "yes", "website": "https://locations.jackinthebox.com/us/ca/berkeley/2197-san-pablo-ave", "wheelchair": "yes"}}, {"type": "node", "id": 1669802067, "lat": 37.8693438, "lon": -122.2918273, "tags": {"addr:housenumber": "1105", "addr:street": "University Avenue", "amenity": "fast_food", "brand": "Subway", "brand:wikidata": "Q244457", "brand:wikipedia": "en:Subway (restaurant)", "cuisine": "sandwich", "diet:vegetarian": "yes", "name": "Subway", "opening_hours": "Mo-Fr 08:00-21:00; Sa, Su 09:00-21:00", "phone": "+15105408900", "takeaway": "yes", "website": "https://order.subway.com/en-US/restaurant/14973", "wheelchair": "yes"}}, {"type": "node", "id": 1669803325, "lat": 37.8696952, "lon": -122.2920391, "tags": {"amenity": "fast_food", "cuisine": "bbq;burger", "name": "Everett and Jones", "opening_hours": "We-Su 12:00-19:00", "phone": "(510) 663-2350", "website": "https://eandjbbq.com/"}}, {"type": "node", "id": 1669803326, "lat": 37.8693914, "lon": -122.2917132, "tags": {"addr:housenumber": "1109", "addr:street": "University Avenue", "amenity": "fast_food", "brand": "Little Caesars", "brand:wikidata": "Q1393809", "brand:wikipedia": "en:Little Caesars", "cuisine": "pizza", "name": "Little Caesars", "takeaway": "yes", "website": "https://littlecaesars.com/en-us/store/9101"}}, {"type": "node", "id": 2095579173, "lat": 37.868903, "lon": -122.268231, "tags": {"addr:city": "Berkeley", "addr:housenumber": "2222", "addr:state": "CA", "addr:street": "Shattuck Avenue", "amenity": "fast_food", "brand": "Papa John's", "brand:wikidata": "Q2759586", "brand:wikipedia": "en:Papa John's Pizza", "cuisine": "pizza", "diet:vegetarian": "yes", "drive_in": "no", "drive_through": "no", "name": "Papa John's", "opening_hours": "Mo-Th 09:30-23:25; Fr 09:30-00:40; Sa 10:00-00:40; Su 10:00-23:40", "phone": "+1 510-845-7272", "takeaway": "yes", "website": "https://locations.papajohns.com/united-states/ca/94704/berkeley/2222-shattuck-ave", "wheelchair": "yes"}}, {"type": "node", "id": 2186238363, "lat": 37.8713221, "lon": -122.267892, "tags": {"addr:city": "Berkeley", "addr:housenumber": "92", "addr:street": "Shattuck Square", "amenity": "fast_food", "brand": "Subway", "brand:wikidata": "Q244457", "brand:wikipedia": "en:Subway (restaurant)", "cuisine": "sandwich", "diet:vegan": "yes", "diet:vegetarian": "yes", "drive_in": "no", "drive_through": "no", "name": "Subway", "opening_hours": "Mo-Fr 07:00-21:00; Sa 08:30-21:00; Su 09:30-20:30", "opening_hours:covid19": "Mo-Su 10:00-18:00", "phone": "(510) 649-0224", "takeaway": "yes", "website": "https://www.subway.com", "wheelchair": "yes"}}, {"type": "node", "id": 2329583711, "lat": 37.8794183, "lon": -122.296137, "tags": {"addr:city": "Albany", "addr:housenumber": "1050", "addr:street": "Gilman Street", "amenity": "fast_food", "brand": "Chipotle", "brand:wikidata": "Q465751", "brand:wikipedia": "en:Chipotle Mexican Grill", "cuisine": "mexican", "name": "Chipotle", "official_name": "Chipotle Mexican Grill", "opening_hours": "Mo-Su 10:46-22:00", "phone": "(510)900-2658", "takeaway": "yes", "website": "https://chipotle.com"}}, {"type": "node", "id": 2342888634, "lat": 37.8705505, "lon": -122.268421, "tags": {"addr:city": "Berkeley", "addr:housenumber": "2122", "addr:postcode": "94704", "addr:state": "CA", "addr:street": "Shattuck Avenue", "amenity": "fast_food", "cuisine": "sandwich", "diet:halal": "yes", "name": "Crave Subs", "opening_hours": "Mo-Fr 10:00-20:00; Sa 11:00-20:00; Su 11:00-19:00", "outdoor_seating": "yes", "phone": "+1-510-7051140", "takeaway": "yes", "website": "https://www.cravesubsberkeley.com/"}}, {"type": "node", "id": 2350130005, "lat": 37.8697643, "lon": -122.2683363, "tags": {"addr:city": "Berkeley", "addr:housenumber": "2174", "addr:street": "Shattuck Avenue", "amenity": "fast_food", "cuisine": "pizza", "indoor_seating": "yes", "name": "Sliver", "opening_hours": "Mo-Su 10:00-22:30", "outdoor_seating": "yes", "website": "http://sliverpizzeria.com/", "wheelchair": "yes"}}, {"type": "node", "id": 2350134520, "lat": 37.870788, "lon": -122.268455, "tags": {"addr:city": "Berkeley", "addr:housenumber": "2114", "addr:postcode": "94704", "addr:state": "CA", "addr:street": "Shattuck Avenue", "amenity": "fast_food", "cuisine": "mediterranean", "drive_through": "no", "name": "The Flying Falafel", "opening_hours": "Mo-Sa 10:00-24:00; Su 10:00-21:00", "phone": "+1-510-5603393", "takeaway": "yes", "website": "https://www.flyingfalafel.com/"}}, {"type": "node", "id": 2350147008, "lat": 37.8722391, "lon": -122.268993, "tags": {"addr:city": "Berkeley", "addr:housenumber": "2071", "addr:postcode": "94704", "addr:state": "CA", "addr:street": "University Avenue", "amenity": "fast_food", "cuisine": "salad", "diet:vegan": "yes", "diet:vegetarian": "yes", "drive_through": "no", "name": "Tender Greens", "opening_hours": "Mo-Fr 10:00-21:00; Sa,Su 11:00-21:00", "outdoor_seating": "yes", "smoking": "no", "takeaway": "yes", "website": "https://www.tendergreens.com/locations/berkeley"}}, {"type": "node", "id": 2501269406, "lat": 37.869835, "lon": -122.268342, "tags": {"addr:city": "Berkeley", "addr:housenumber": "2172", "addr:street": "Shattuck Avenue", "amenity": "fast_food", "cuisine": "sandwich", "diet:vegan": "yes", "diet:vegetarian": "yes", "indoor_seating": "yes", "name": "Ike's Place", "opening_hours": "Mo-Su 10:00-21:00", "outdoor_seating": "no", "takeaway": "yes", "wheelchair": "yes"}}, {"type": "node", "id": 2688825405, "lat": 37.8680755, "lon": -122.258006, "tags": {"addr:city": "Berkeley", "addr:housenumber": "2521", "addr:postcode": "94704", "addr:state": "CA", "addr:street": "Durant Avenue", "amenity": "fast_food", "cuisine": "donut", "drive_through": "no", "name": "King Pin Donuts", "opening_hours": "Mo-Su 07:00-03:00", "outdoor_seating": "yes"}}, {"type": "node", "id": 3375326842, "lat": 37.8678763, "lon": -122.257516, "tags": {"amenity": "fast_food", "cuisine": "mexican", "name": "La Burrita"}}, {"type": "node", "id": 3430431123, "lat": 37.86781, "lon": -122.258077, "tags": {"addr:city": "Berkeley", "addr:housenumber": "2518", "addr:postcode": "94704", "addr:street": "Durant Avenue", "addr:unit": "A", "amenity": "fast_food", "cuisine": "burger", "name": "Bunz", "opening_hours": "Mo-Su 17:30-2:30", "phone": "+1-510-529-4327", "website": "https://www.whatsinyourbunz.com/"}}, {"type": "node", "id": 3789654984, "lat": 37.8697182, "lon": -122.2662486, "tags": {"addr:city": "Berkeley", "addr:housenumber": "2173", "addr:postcode": "94704", "addr:street": "Allston Way", "amenity": "fast_food", "cuisine": "sushi", "drive_through": "no", "name": "Sumo Roll", "phone": "+1 510 8419000", "smoking": "no", "takeaway": "yes", "website": "http://www.eatsumoroll.com/"}}, {"type": "node", "id": 3793692373, "lat": 37.8688101, "lon": -122.266436, "tags": {"addr:city": "Berkeley", "addr:housenumber": "2177", "addr:postcode": "94703", "addr:street": "Kittredge Street", "amenity": "fast_food", "diet:vegetarian": "yes", "fixme": "Website isn't working: http://www.tiasberkeley.com/ - Is this place still working?", "name": "Organic Greens", "opening_hours": "Mo-Sa 7:00-18:00; Su 8:00-18:00", "phone": "+1 510 6479863", "smoking": "no", "wheelchair": "limited"}}, {"type": "node", "id": 4181862715, "lat": 37.8690737, "lon": -122.2598872, "tags": {"amenity": "fast_food", "name": "Root 150"}}, {"type": "node", "id": 4181862727, "lat": 37.8689935, "lon": -122.2598711, "tags": {"amenity": "fast_food", "name": "True Blue Burgers"}}, {"type": "node", "id": 4181862747, "lat": 37.8692601, "lon": -122.2599245, "tags": {"amenity": "fast_food", "name": "Asado"}}, {"type": "node", "id": 4181862754, "lat": 37.8691629, "lon": -122.2598925, "tags": {"amenity": "fast_food", "name": "House of Pi"}}, {"type": "node", "id": 4390546116, "lat": 37.8825037, "lon": -122.296847, "tags": {"addr:city": "Berkeley", "addr:housenumber": "1198", "addr:street": "San Pablo Avenue", "amenity": "fast_food", "brand": "McDonald's", "brand:wikidata": "Q38076", "brand:wikipedia": "en:McDonald's", "cuisine": "burger", "drive_through": "yes", "name": "McDonald's", "opening_hours": "24/7", "phone": "5105251411", "takeaway": "yes", "website": "https://www.mcdonalds.com/us/en-us/location/ca/berkeley/1198-san-pablo-ave/776.html", "wheelchair": "yes"}}, {"type": "node", "id": 4435259900, "lat": 37.867373, "lon": -122.2594881, "tags": {"addr:city": "Berkeley", "addr:housenumber": "2442", "addr:street": "Durant Avenue", "amenity": "fast_food", "cuisine": "sandwich", "name": "Cheese 'n Stuff", "phone": "+1 510 8439233", "takeaway": "only", "website": "http://www.cheesenstuff.com/"}}, {"type": "node", "id": 4675887964, "lat": 37.8499624, "lon": -122.2705979, "tags": {"addr:housenumber": "3221", "addr:street": "Adeline Street", "amenity": "fast_food", "name": "The Fat Fish - Fish & Chips"}}, {"type": "node", "id": 5305408860, "lat": 37.8688587, "lon": -122.267639, "tags": {"addr:city": "Berkeley", "addr:housenumber": "2225", "addr:postcode": "94704", "addr:state": "CA", "addr:street": "Shattuck Avenue", "amenity": "fast_food", "brand": "Chipotle", "brand:wikidata": "Q465751", "brand:wikipedia": "en:Chipotle Mexican Grill", "cuisine": "mexican", "drive_through": "no", "indoor_seating": "yes", "name": "Chipotle", "official_name": "Chipotle Mexican Grill", "opening_hours": "Mo-Su 10:45-22:00", "outdoor_seating": "no", "phone": "+1-510-6479166", "smoking": "no", "takeaway": "yes", "website": "https://locations.chipotle.com/ca/berkeley/2225-shattuck-ave", "wheelchair": "yes"}}, {"type": "node", "id": 5631116752, "lat": 37.8813664, "lon": -122.290155, "tags": {"addr:street": "Gilman Street", "amenity": "fast_food", "cuisine": "brazilian", "name": "Brazil Cafe food truck", "website": "https://www.westbraebiergarten.com/"}}, {"type": "node", "id": 5963310936, "lat": 37.8708601, "lon": -122.2714424, "tags": {"addr:city": "Berkeley", "addr:housenumber": "1935", "addr:postcode": "94704", "addr:state": "CA", "addr:street": "Addison Street", "amenity": "fast_food", "cuisine": "yogurt", "diet:vegan": "yes", "diet:vegetarian": "only", "name": "Rush Bowls", "opening_hours": "Mo-Su 07:00-20:00", "phone": "+1-510-5294419", "website": "https://rushbowls.com/berkeley"}}, {"type": "node", "id": 5977580683, "lat": 37.8671865, "lon": -122.259002, "tags": {"addr:city": "Berkeley", "addr:housenumber": "2384", "addr:postcode": "94704", "addr:state": "CA", "addr:street": "Telegraph Avenue", "amenity": "fast_food", "cuisine": "mexican", "name": "Tacos Sinaloa", "phone": "510-6657895", "website": "https://www.doordash.com/store/tacos-sinaloa-berkeley-44986"}}, {"type": "node", "id": 6522368098, "lat": 37.850837, "lon": -122.2921247, "tags": {"addr:street": "Potter Street", "amenity": "fast_food", "name": "Tacos el Rey Food Truck", "phone": "5105931020", "website": "http://www.elreytacos.com"}}, {"type": "node", "id": 6634175894, "lat": 37.8653638, "lon": -122.2583491, "tags": {"addr:city": "Berkeley", "addr:housenumber": "2491", "addr:postcode": "94704", "addr:state": "CA", "addr:street": "Telegraph Avenue", "amenity": "fast_food", "cuisine": "vietnamese;sandwich", "drive_through": "no", "name": "Nom Nom Banh Mi", "opening_hours": "Mo-Sa 11:00-19:00", "phone": "(510) 984-0957", "website": "https://nomnombanhmi.store"}}, {"type": "node", "id": 7065237633, "lat": 37.8733004, "lon": -122.268276, "tags": {"addr:city": "Berkeley", "addr:housenumber": "1919", "addr:postcode": "94704", "addr:state": "CA", "addr:street": "Shattuck Avenue", "addr:unit": "103", "amenity": "fast_food", "cuisine": "noodle", "drive_through": "no", "indoor_seating": "yes", "name": "Marugame Udon", "outdoor_seating": "yes", "phone": "+1-510-529-4622", "website": "https://marugameudon.com/", "wheelchair": "yes"}}, {"type": "node", "id": 7471934966, "lat": 37.8651962, "lon": -122.2678295, "tags": {"addr:city": "Berkeley", "addr:housenumber": "2430", "addr:postcode": "94704", "addr:state": "CA", "addr:street": "Shattuck Avenue", "amenity": "fast_food", "cuisine": "chinese", "name": "Noodles Fresh", "phone": "+1-510-906-8800", "website": "https://noodlesfresh.com/"}}, {"type": "node", "id": 7472208124, "lat": 37.8700138, "lon": -122.3014402, "tags": {"addr:city": "Berkeley", "addr:housenumber": "1788", "addr:postcode": "94710", "addr:state": "CA", "addr:street": "Fourth Street", "amenity": "fast_food", "cuisine": "pizza", "name": "Pollara Pizzeria", "phone": "+1-510-529-4548", "website": "https://www.pollarapizzeria.com/"}}, {"type": "node", "id": 7472267370, "lat": 37.8678468, "lon": -122.2597154, "tags": {"addr:city": "Berkeley", "addr:housenumber": "2435", "addr:postcode": "94704", "addr:state": "CA", "addr:street": "Durant Avenue", "amenity": "fast_food", "check_date": "2022-03-04", "contact:facebook": "ricefulonigiri", "contact:instagram": "riceful_onigiri", "contact:yelp": "https://www.yelp.com/biz/riceful-berkeley-3", "cuisine": "japanese", "email": "bericeful@gmail.com", "indoor_seating": "no", "name": "Riceful", "note": "Only takeaway during Covid", "opening_hours": "Mo-Su 11:00-20:00", "opening_hours:url": "http://bericeful.com/", "payment:cash": "no", "payment:credit_cards": "yes", "takeaway": "only", "website": "http://bericeful.com/"}}, {"type": "node", "id": 7472319188, "lat": 37.8653037, "lon": -122.258283, "tags": {"addr:city": "Berkeley", "addr:housenumber": "2493", "addr:postcode": "94704", "addr:state": "CA", "addr:street": "Telegraph Avenue", "amenity": "fast_food", "cuisine": "salad;sandwich", "name": "Savory Kitchen", "phone": "+15109906131", "website": "https://www.grubhub.com/restaurant/savory-kitchen-2493-telegraph-ave-berkeley/2285621"}}, {"type": "node", "id": 7932880097, "lat": 37.8679535, "lon": -122.2568495, "tags": {"amenity": "fast_food", "cuisine": "pizza", "drive_through": "no", "name": "Artichoke Basille's Pizza", "outdoor_seating": "parklet"}}, {"type": "node", "id": 7940287676, "lat": 37.8567415, "lon": -122.260082, "tags": {"amenity": "fast_food", "brand": "Krispy Krunchy Chicken", "brand:wikidata": "Q65087447", "brand:wikipedia": "en:Krispy Krunchy Chicken", "cuisine": "chicken", "name": "Krispy Krunchy Chicken", "phone": "(510)543-1939", "takeaway": "yes", "website": "https://www.krispykrunchy.com/locations/store-10286"}}, {"type": "node", "id": 8260742967, "lat": 37.8698606, "lon": -122.27015, "tags": {"addr:city": "Berkeley", "addr:housenumber": "2002", "addr:street": "Center Street", "amenity": "fast_food", "name": "K's Coffee House", "phone": "+15108482147"}}, {"type": "node", "id": 8316933705, "lat": 37.8752639, "lon": -122.2597825, "tags": {"addr:city": "Berkeley", "addr:housenumber": "2503", "addr:postcode": "94709", "addr:state": "CA", "addr:street": "Hearst Avenue", "amenity": "fast_food", "cuisine": "pizza", "name": "Tony's Style", "opening_hours": "Mo-Su 17:00-24:00", "phone": "+1-917-2444797"}}, {"type": "node", "id": 8901494466, "lat": 37.8809139, "lon": -122.29576, "tags": {"amenity": "fast_food", "cuisine": "mexican", "name": "Tacos El Rulas"}}, {"type": "node", "id": 9347384610, "lat": 37.8716083, "lon": -122.2517891, "tags": {"amenity": "fast_food", "name": "Gridiron Grill"}}, {"type": "node", "id": 9347384611, "lat": 37.8710156, "lon": -122.2518374, "tags": {"access": "customers", "amenity": "fast_food", "name": "Oski's Place"}}, {"type": "node", "id": 9347384612, "lat": 37.8708371, "lon": -122.2515938, "tags": {"access": "customers", "amenity": "fast_food", "name": "Carved Stand"}}, {"type": "node", "id": 9347384613, "lat": 37.8707834, "lon": -122.2515301, "tags": {"access": "customers", "amenity": "fast_food", "name": "Pizza My Heart"}}, {"type": "node", "id": 9347384614, "lat": 37.8707228, "lon": -122.2514752, "tags": {"access": "customers", "amenity": "fast_food", "name": "Fifty Yard Franks"}}, {"type": "node", "id": 9347384615, "lat": 37.870669, "lon": -122.2514138, "tags": {"access": "customers", "amenity": "fast_food", "name": "Golden Bear Grill"}}, {"type": "node", "id": 9347384616, "lat": 37.8706136, "lon": -122.2513567, "tags": {"access": "customers", "amenity": "fast_food", "name": "Taste of the Bay"}}, {"type": "node", "id": 9347384617, "lat": 37.8701873, "lon": -122.2508298, "tags": {"access": "customers", "amenity": "fast_food", "name": "Oski's Place"}}, {"type": "node", "id": 9347384618, "lat": 37.8701561, "lon": -122.2500549, "tags": {"access": "customers", "amenity": "fast_food", "name": "End Zone Grill"}}, {"type": "node", "id": 9347384620, "lat": 37.8708215, "lon": -122.2496159, "tags": {"access": "customers", "amenity": "fast_food", "name": "Fryers Not Cryers"}}, {"type": "node", "id": 9347384621, "lat": 37.8712686, "lon": -122.2497871, "tags": {"access": "customers", "amenity": "fast_food", "name": "Meat Street"}}, {"type": "node", "id": 9347384623, "lat": 37.8719063, "lon": -122.2507552, "tags": {"access": "customers", "amenity": "fast_food", "name": "Burgers & Hotdogs"}}, {"type": "node", "id": 9347384624, "lat": 37.8719358, "lon": -122.2508518, "tags": {"access": "customers", "amenity": "fast_food", "name": "Fault Line"}}, {"type": "node", "id": 9501233308, "lat": 37.8776342, "lon": -122.309415, "tags": {"amenity": "fast_food", "name": "Taqueria food truck", "phone": "5104785999"}}, {"type": "node", "id": 9553418873, "lat": 37.8678724, "lon": -122.2576541, "tags": {"addr:city": "Berkeley", "addr:housenumber": "2528", "addr:street": "Durant Avenue", "amenity": "fast_food", "brand": "Taco Bell", "brand:wikidata": "Q752941", "brand:wikipedia": "en:Taco Bell", "check_date": "2022-02-15", "cuisine": "tex-mex", "name": "Taco Bell Cantina", "takeaway": "yes", "website": "https://locations.tacobell.com/ca/berkeley/2528-durant-ave.html"}}, {"type": "node", "id": 9572013607, "lat": 37.8679573, "lon": -122.2598223, "tags": {"amenity": "fast_food", "check_date": "2022-03-04", "cuisine": "bubble_tea", "name": "Take.Eat.Easy", "takeaway": "only"}}, {"type": "node", "id": 10018909585, "lat": 37.8684661, "lon": -122.296941, "tags": {"amenity": "fast_food", "brand": "Burger King", "brand:wikidata": "Q177054", "cuisine": "burger", "name": "Burger King", "takeaway": "yes"}}, {"type": "way", "id": 43313850, "nodes": [544331882, 544331883, 544331884, 544331885, 544331882], "tags": {"addr:housenumber": "1199", "addr:street": "University Avenue", "amenity": "fast_food", "building": "yes", "name": "Foster's Freeze"}}]}