{"version": 0.6, "generator": "Overpass API 0.7.59 e21c39fe", "osm3s": {"timestamp_osm_base": "2022-11-18T21:48:54Z", "copyright": "The data included in this document is from www.openstreetmap.org. The data is made available under ODbL."}, "elements": [{"type": "node", "id": 317124809, "lat": 37.780165, "lon": -122.3946256, "tags": {"addr:housenumber": "590", "addr:postcode": "94107", "addr:street": "3rd Street", "alt_name": "City Gourmet Cafe", "amenity": "fast_food", "cuisine": "sandwich", "name": "City Gourmet Deli", "website": "https://www.citygourmetcafe.com/"}}, {"type": "node", "id": 343317738, "lat": 37.9023271, "lon": -122.3040885, "tags": {"amenity": "fast_food", "brand": "Burger King", "brand:wikidata": "Q177054", "brand:wikipedia": "en:Burger King", "cuisine": "burger", "delivery": "no", "drive_through": "no", "name": "Burger King", "opening_hours": "Mo-Sa 06:00-24:00; Sa 07:00-24:00", "phone": "+1 510 525 6377", "takeaway": "yes", "wheelchair": "yes"}}, {"type": "node", "id": 343610923, "lat": 37.8916031, "lon": -122.2777571, "tags": {"amenity": "fast_food", "brand": "Noah's Bagels", "brand:wikidata": "Q64517373", "cuisine": "bagel", "diet:vegetarian": "yes", "name": "Noah's Bagels", "official_name": "Noah's New York Bagels", "takeaway": "yes", "website": "https://locations.noahs.com/us/ca/berkeley/1883-solano-ave"}}, {"type": "node", "id": 343610977, "lat": 37.8909468, "lon": -122.2894918, "tags": {"addr:city": "Albany", "addr:housenumber": "1423", "addr:street": "Solano Avenue", "amenity": "fast_food", "cuisine": "mexican", "drive_through": "no", "indoor_seating": "no", "name": "Gordo Taqueria", "opening_hours": "Mo-Su 10:00-21:00", "outdoor_seating": "no", "phone": "(510) 528-8226", "takeaway": "only", "website": "https://www.gordotaqueria.shop/s/order?location=11e9d8b4dd2463b5b1e20cc47a2ae3c4", "wheelchair": "yes"}}, {"type": "node", "id": 343610978, "lat": 37.8909437, "lon": -122.2895478, "tags": {"addr:city": "Berkeley", "addr:housenumber": "1421", "addr:postcode": "94706", "addr:street": "Solano Avenue", "amenity": "fast_food", "brand": "Domino's", "brand:wikidata": "Q839466", "brand:wikipedia": "en:Domino's Pizza", "cuisine": "pizza", "delivery": "yes", "drive_through": "no", "name": "Domino's", "old_name": "Domino's Pizza", "opening_hours": "Su-Th 10:30-00:00; Fr-Sa 10:30-01:00", "phone": "(510) 526-9346", "takeaway": "only", "website": "https://www.dominos.com/", "wheelchair": "limited"}}, {"type": "node", "id": 343610994, "lat": 37.8906942, "lon": -122.2938478, "tags": {"addr:city": "Albany", "addr:housenumber": "1247", "addr:postcode": "94706", "addr:state": "CA", "addr:street": "Solano Avenue", "amenity": "fast_food", "cuisine": "japanese;korean", "indoor_seating": "yes", "name": "Oori Rice Triangles", "opening_hours": "Mo-Su 11:00-21:00", "outdoor_seating": "yes", "takeaway": "yes", "website": "https://www.ooririce.com/location/oori-foods-albany/", "wheelchair": "limited"}}, {"type": "node", "id": 343611008, "lat": 37.8900058, "lon": -122.298601, "tags": {"addr:city": "Albany", "addr:street": "San Pablo Avenue", "amenity": "fast_food", "cuisine": "mexican", "drive_through": "no", "name": "The Hot Shop", "opening_hours": "Mo-Sa 11:00-20:00", "phone": "5105289011"}}, {"type": "node", "id": 383509298, "lat": 37.7872502, "lon": -122.410056, "tags": {"addr:housenumber": "400", "addr:street": "Geary Street", "amenity": "fast_food", "brand": "Jack in the Box", "brand:wikidata": "Q1538507", "brand:wikipedia": "en:Jack in the Box", "cuisine": "burger", "internet_access": "wlan", "name": "Jack in the Box", "opening_hours": "24/7", "operator": "Jack in the Box", "phone": "4156730868", "takeaway": "yes", "website": "https://www.jackinthebox.com/"}}, {"type": "node", "id": 432817342, "lat": 37.7831831, "lon": -122.421096, "tags": {"addr:city": "San Francisco", "addr:housenumber": "819", "addr:street": "Van Ness Avenue", "amenity": "fast_food", "brand": "Burger King", "brand:wikidata": "Q177054", "brand:wikipedia": "en:Burger King", "cuisine": "burger", "name": "Burger King", "source": "survey", "takeaway": "yes", "wheelchair": "yes"}}, {"type": "node", "id": 434874627, "lat": 37.8077668, "lon": -122.4184666, "tags": {"addr:city": "San Francisco", "addr:housenumber": "333", "addr:postcode": "94133", "addr:street": "Jefferson Street", "amenity": "fast_food", "brand": "In-N-Out Burger", "brand:wikidata": "Q1205312", "brand:wikipedia": "en:In-N-Out Burger", "cuisine": "burger", "delivery": "no", "drive_through": "no", "internet_access": "no", "name": "In-N-Out Burger", "opening_hours": "10:30-01:00; Fr,Sa 10:30-01:30", "outdoor_seating": "no", "ref": "154", "smoking": "no", "start_date": "2001-09-20", "store_number": "154", "takeaway": "yes", "website": "https://locations.in-n-out.com/154", "wheelchair": "yes"}}, {"type": "node", "id": 529656139, "lat": 37.7828529, "lon": -122.4448572, "tags": {"amenity": "fast_food", "name": "Tony's Cable Car"}}, {"type": "node", "id": 544331882, "lat": 37.8696838, "lon": -122.2897665}, {"type": "node", "id": 544331883, "lat": 37.8696903, "lon": -122.2896756}, {"type": "node", "id": 544331884, "lat": 37.8695692, "lon": -122.2896617}, {"type": "node", "id": 544331885, "lat": 37.8695627, "lon": -122.2897527}, {"type": "node", "id": 626216926, "lat": 37.8718677, "lon": -122.2928112, "tags": {"amenity": "fast_food", "brand": "Popeyes", "brand:wikidata": "Q1330910", "brand:wikipedia": "en:Popeyes", "cuisine": "chicken", "name": "Popeyes", "official_name": "Popeyes Louisiana Kitchen", "takeaway": "yes"}}, {"type": "node", "id": 647656796, "lat": 37.7720644, "lon": -122.431664, "tags": {"addr:housenumber": "576", "addr:street": "Haight Street", "amenity": "fast_food", "cuisine": "barbecue", "name": "Memphis Minnie's", "opening_hours": "Mo-Sa 11:00-22:00; Su 11:00-21:00", "phone": "+1 415-864-7675", "takeaway": "yes", "website": "https://www.memphisminnies.com/"}}, {"type": "node", "id": 647656836, "lat": 37.7718907, "lon": -122.430533, "tags": {"addr:housenumber": "247", "addr:street": "Fillmore Street", "amenity": "fast_food", "check_date": "2022-02-10", "contact:facebook": "https://www.facebook.com/Metro-Caffe-109794525762106", "contact:instagram": "metrocaffe", "cuisine": "burger", "email": "eat@metrocaffe.com", "name": "Metro Caffe", "opening_hours": "Mo-Su 11:00-21:00", "opening_hours:url": "https://metrocaffe.com/", "phone": "+1 415 6219536", "website": "https://metrocaffe.com/", "website:menu": "https://metrocaffe.com/menu"}}, {"type": "node", "id": 647656857, "lat": 37.7718999, "lon": -122.4313245, "tags": {"addr:housenumber": "553", "addr:street": "Haight Street", "amenity": "fast_food", "cuisine": "sandwich", "name": "Love 'n' Haight"}}, {"type": "node", "id": 647656860, "lat": 37.7719058, "lon": -122.4312812, "tags": {"addr:housenumber": "551", "addr:street": "Haight Street", "amenity": "fast_food", "cuisine": "pizza", "name": "Mythic Pizza"}}, {"type": "node", "id": 647656864, "lat": 37.7719157, "lon": -122.4311673, "tags": {"addr:housenumber": "545", "addr:street": "Haight Street", "amenity": "fast_food", "cuisine": "sausage;hot_dog", "email": "berlinerberlinersf@gmail.com", "name": "Berliner Berliner", "opening_hours": "Mo off; Tu 11:30-19:15; We-Sa 12:00-15:00,16:00-19:15; Su 12:00-19:15", "opening_hours:url": "https://berlinerberliner.com/contact", "phone": "+1 415 7951457", "website": "https://berlinerberliner.com/"}}, {"type": "node", "id": 725066755, "lat": 37.7868214, "lon": -122.4134749, "tags": {"addr:city": "San Francisco", "addr:housenumber": "606", "addr:state": "CA", "addr:street": "Geary Street", "amenity": "fast_food", "check_date": "2021-08-11", "cuisine": "pizza", "delivery": "yes", "name": "Milan Pizza", "phone": "+1 415 6741011", "website": "http://milanpizzasf.com/"}}, {"type": "node", "id": 725082462, "lat": 37.7866661, "lon": -122.4129649, "tags": {"addr:city": "San Francisco", "addr:housenumber": "595", "addr:postcode": "94102", "addr:state": "CA", "addr:street": "Geary Street", "amenity": "fast_food", "cuisine": "mexican;burrito", "diet:vegan": "no", "diet:vegetarian": "yes", "disused:website": "http://www.taqueriadosamigos.com/", "indoor_seating": "yes", "name": "Taqueria El Sol", "opening_hours": "Mo-Su 09:00-22:00", "opening_hours:signed": "yes", "outdoor_seating": "no", "payment:cash": "yes", "payment:credit_cards": "yes", "phone": "+1 415 4410405", "takeaway": "yes", "website": "https://www.taqueriaelsol.com/", "website:menu": "https://www.taqueriaelsol.com/#menu-section", "wheelchair": "limited", "wheelchair:description": "There's a high step to get inside, they have a button for assistance"}}, {"type": "node", "id": 731989577, "lat": 37.7862682, "lon": -122.4176924, "tags": {"addr:city": "San Francisco", "addr:country": "US", "addr:housenumber": "876", "addr:postcode": "94109", "addr:state": "CA", "addr:street": "Geary Street", "amenity": "fast_food", "brand": "Domino's", "brand:wikidata": "Q839466", "brand:wikipedia": "en:Domino's Pizza", "cuisine": "pizza", "indoor_seating": "no", "name": "Domino's", "operator": "Domino's Pizza", "outdoor_seating": "no", "phone": "415-776-0400", "short_name": "Domino's", "takeaway": "yes"}}, {"type": "node", "id": 732005598, "lat": 37.7861368, "lon": -122.4187653, "tags": {"amenity": "fast_food", "cuisine": "pizza", "name": "Irving Pizza", "phone": "415-771-0110"}}, {"type": "node", "id": 761937484, "lat": 37.7774802, "lon": -122.4071839, "tags": {"addr:city": "San Francisco", "addr:housenumber": "1062", "addr:postcode": "94103", "addr:state": "CA", "addr:street": "Folsom Street", "amenity": "fast_food", "brand": "Extreme Pizza", "brand:wikidata": "Q5422364", "brand:wikipedia": "en:Extreme Pizza", "cuisine": "pizza", "name": "Extreme Pizza", "opening_hours": "Mo-Su 11:30-24:00; PH closed", "takeaway": "yes", "website": "http://soma.extremepizza.com/", "wheelchair": "yes"}}, {"type": "node", "id": 808884825, "lat": 37.7850921, "lon": -122.4079256, "tags": {"amenity": "fast_food", "brand": "Burger King", "brand:wikidata": "Q177054", "brand:wikipedia": "en:Burger King", "cuisine": "burger", "indoor_seating": "yes", "name": "Burger King", "opening_hours": "Mo-Th 05:30-23:00; Fr 05:30-24:00; Sa 06:00-24:00; Su 07:00-23:00", "outdoor_seating": "no", "takeaway": "yes", "wheelchair": "yes"}}, {"type": "node", "id": 818060774, "lat": 37.7857275, "lon": -122.4127692, "tags": {"addr:city": "San Francisco", "addr:country": "US", "addr:housenumber": "491", "addr:state": "CA", "addr:street": "O'Farrell Street", "amenity": "fast_food", "cuisine": "mexican", "name": "El Rincon Yucateco"}}, {"type": "node", "id": 903709629, "lat": 37.7648278, "lon": -122.4222609, "tags": {"amenity": "fast_food", "name": "Truly Mediteranean"}}, {"type": "node", "id": 950977345, "lat": 37.7944451, "lon": -122.3967654, "tags": {"addr:city": "San Francisco", "addr:housenumber": "99", "addr:postcode": "94111", "addr:state": "CA", "addr:street": "Drumm Street", "amenity": "fast_food", "brand": "Subway", "brand:wikidata": "Q244457", "brand:wikipedia": "en:Subway (restaurant)", "cuisine": "sandwich", "name": "Subway", "takeaway": "yes"}}, {"type": "node", "id": 983388331, "lat": 37.7781961, "lon": -122.4157435, "tags": {"amenity": "fast_food", "brand": "Subway", "brand:wikidata": "Q244457", "brand:wikipedia": "en:Subway (restaurant)", "cuisine": "sandwich", "name": "Subway", "smoking": "no", "takeaway": "yes", "wheelchair": "yes"}}, {"type": "node", "id": 1042049281, "lat": 37.8368303, "lon": -122.2936143}, {"type": "node", "id": 1042049330, "lat": 37.8368421, "lon": -122.2933042}, {"type": "node", "id": 1042049342, "lat": 37.8369389, "lon": -122.2936238}, {"type": "node", "id": 1042049346, "lat": 37.8369558, "lon": -122.2933141}, {"type": "node", "id": 1106966270, "lat": 37.7687849, "lon": -122.4292661, "tags": {"addr:housenumber": "136", "addr:street": "Church Street", "amenity": "fast_food", "cuisine": "burrito", "emergency:note": "NERT food & water pre-arranged", "name": "El Castillito"}}, {"type": "node", "id": 1229745480, "lat": 37.7867758, "lon": -122.4009386, "tags": {"addr:housenumber": "667", "addr:street": "Mission Street", "amenity": "fast_food", "cuisine": "soups", "name": "Soup Freaks"}}, {"type": "node", "id": 1229745516, "lat": 37.7803301, "lon": -122.4076377, "tags": {"amenity": "fast_food", "cuisine": "pizza"}}, {"type": "node", "id": 1305397498, "lat": 37.8407703, "lon": -122.2912564, "tags": {"amenity": "fast_food", "brand": "Subway", "brand:wikidata": "Q244457", "brand:wikipedia": "en:Subway (restaurant)", "cuisine": "sandwich", "name": "Subway", "takeaway": "yes"}}, {"type": "node", "id": 1305397505, "lat": 37.8429195, "lon": -122.2835129, "tags": {"amenity": "fast_food", "name": "Red Door Pizza"}}, {"type": "node", "id": 1320562860, "lat": 37.7876872, "lon": -122.400946, "tags": {"alt_name": "Jamba", "amenity": "fast_food", "brand": "Jamba", "brand:wikidata": "Q3088784", "brand:wikipedia": "en:Jamba Juice", "cuisine": "juice", "name": "Jamba Juice", "takeaway": "yes"}}, {"type": "node", "id": 1374984803, "lat": 37.8558832, "lon": -122.2797964, "tags": {"addr:city": "Berkeley", "addr:country": "US", "addr:housenumber": "2830", "addr:state": "CA", "addr:street": "Sacramento Street", "amenity": "fast_food", "cuisine": "mexican", "drive_through": "no", "name": "Tacos sinaloa"}}, {"type": "node", "id": 1393930507, "lat": 37.788086, "lon": -122.401116, "tags": {"addr:city": "San Francisco", "addr:housenumber": "59", "addr:postcode": "94105", "addr:state": "CA", "addr:street": "New Montgomery Street", "amenity": "fast_food", "brand": "Deep Purpl", "cuisine": "juice", "name": "Deep Purpl", "note": "a\u00e7ai bowls", "takeaway": "only"}}, {"type": "node", "id": 1467717299, "lat": 37.8288915, "lon": -122.2823444, "tags": {"amenity": "fast_food", "brand": "Taco Bell", "brand:wikidata": "Q752941", "brand:wikipedia": "en:Taco Bell", "cuisine": "tex-mex", "name": "Taco Bell", "opening_hours": "Mo-Su 10:00-22:00", "phone": "(510) 844-0531", "takeaway": "yes", "website": "https://locations.tacobell.com/ca/emeryville/3839-emery-street.html"}}, {"type": "node", "id": 1467717306, "lat": 37.8305962, "lon": -122.279995, "tags": {"addr:city": "Emeryville", "addr:housenumber": "3999", "addr:postcode": "94608", "addr:street": "San Pablo Avenue", "amenity": "fast_food", "brand": "Subway", "brand:wikidata": "Q244457", "brand:wikipedia": "en:Subway (restaurant)", "cuisine": "sandwich", "name": "Subway", "takeaway": "yes", "website": "https://catering.subway.com/Cart/Menu2.aspx?r=1585456230"}}, {"type": "node", "id": 1486009911, "lat": 37.7898183, "lon": -122.4107324, "tags": {"addr:city": "San Francisco", "addr:housenumber": "809", "addr:postcode": "94108", "addr:street": "Bush Street", "amenity": "fast_food", "check_date": "2022-07-22", "contact:facebook": "tacoreasf", "contact:instagram": "tacoreasf", "contact:yelp": "https://www.yelp.com/biz/tacorea-san-francisco", "cuisine": "burrito;tacos;korean;mexican", "diet:vegetarian": "yes", "drink:beer": "yes", "drink:wine": "no", "indoor_seating": "yes", "name": "Tacorea", "note:outdoor_seating": "The outdoor seating is a Covid19 parklet, which may be removed later", "outdoor_seating": "yes", "reservation": "no", "website": "https://tacorea.com/", "website:menu": "https://tacorea.com/#menu-section", "wheelchair": "yes"}}, {"type": "node", "id": 1489746246, "lat": 37.8379545, "lon": -122.2818295, "tags": {"amenity": "fast_food", "name": "Lee's Donuts and Chinese"}}, {"type": "node", "id": 1490108963, "lat": 37.8343883, "lon": -122.281185, "tags": {"alt_name": "Kentucky Fried Chicken", "amenity": "fast_food", "brand": "KFC", "brand:wikidata": "Q524757", "brand:wikipedia": "en:KFC", "cuisine": "chicken", "name": "KFC", "takeaway": "yes", "website": "https://locations.kfc.com/ca/emeryville/4501-san-pablo-avenue"}}, {"type": "node", "id": 1491645169, "lat": 37.8364829, "lon": -122.294988, "tags": {"amenity": "fast_food", "brand": "Jamba Juice", "brand:wikidata": "Q3088784", "brand:wikipedia": "en:Jamba Juice", "cuisine": "juice", "name": "Jamba Juice", "takeaway": "yes"}}, {"type": "node", "id": 1491645204, "lat": 37.8360974, "lon": -122.294827, "tags": {"amenity": "fast_food", "brand": "Togo's", "brand:wikidata": "Q3530375", "brand:wikipedia": "en:Togo's", "cuisine": "sandwich", "name": "Togo's", "takeaway": "yes"}}, {"type": "node", "id": 1493456475, "lat": 37.7820031, "lon": -122.4102485, "tags": {"addr:city": "San Francisco", "addr:housenumber": "1001", "addr:state": "CA", "addr:street": "Market Street", "alt_name": "Gai Chicken Rice", "amenity": "fast_food", "contact:facebook": "gaiandrice", "contact:instagram": "gaiandrice", "cuisine": "asian", "email": "gaiandrice@gmail.com", "indoor_seating": "yes", "name": "Gai", "opening_hours": "Mo-Su 11:00-21:00", "opening_hours:url": "https://www.gaiandrice.com/contact-us", "outdoor_seating": "no", "phone": "+1 415 2314700", "website": "https://www.gaiandrice.com/", "wheelchair": "yes"}}, {"type": "node", "id": 1507828034, "lat": 37.8306789, "lon": -122.280716, "tags": {"addr:city": "Emeryville", "addr:housenumber": "1199", "addr:postcode": "94608", "addr:street": "40th Street", "amenity": "fast_food", "brand": "Little Caesars", "brand:wikidata": "Q1393809", "brand:wikipedia": "en:Little Caesars", "cuisine": "pizza", "name": "Little Caesars", "phone": "(510) 547 - 7499", "takeaway": "yes", "website": "https://littlecaesars.com/en-us/store/9084"}}, {"type": "node", "id": 1515953792, "lat": 37.8434497, "lon": -122.2958161, "tags": {"amenity": "fast_food", "name": "Subway Sandwich"}}, {"type": "node", "id": 1519114319, "lat": 37.866736, "lon": -122.291042, "tags": {"addr:city": "Berkeley", "addr:housenumber": "2197", "addr:street": "San Pablo Avenue", "amenity": "fast_food", "brand": "Jack in the Box", "brand:wikidata": "Q1538507", "brand:wikipedia": "en:Jack in the Box", "cuisine": "burger", "drive_in": "no", "drive_through": "yes", "name": "Jack in the Box", "opening_hours": "Mo-Su 06:00-23:58", "phone": "(510) 841-3574", "source": "Bing", "takeaway": "yes", "website": "https://locations.jackinthebox.com/us/ca/berkeley/2197-san-pablo-ave", "wheelchair": "yes"}}, {"type": "node", "id": 1529100863, "lat": 37.8996079, "lon": -122.2983248, "tags": {"addr:city": "El Cerrito", "addr:housenumber": "340", "addr:postcode": "94530", "addr:state": "CA", "addr:street": "El Cerrito Plaza", "amenity": "fast_food", "brand": "Wingstop", "brand:wikidata": "Q8025339", "brand:wikipedia": "en:Wingstop", "cuisine": "wings", "drive_through": "no", "name": "Wingstop", "opening_hours": "Mo-Fr 11:00-24:00", "phone": "+1 510 528 9464", "takeaway": "yes", "website": "https://www.wingstop.com/location/wingstop-477-el-cerrito-ca-94530/menu", "wheelchair": "yes"}}, {"type": "node", "id": 1534940815, "lat": 37.7639521, "lon": -122.4338053, "tags": {"addr:housenumber": "2304", "addr:street": "Market Street", "amenity": "fast_food", "name": "Super Duper Burgers", "website": "http://www.superdupersf.com"}}, {"type": "node", "id": 1613878587, "lat": 37.7887023, "lon": -122.401036}, {"type": "node", "id": 1613878589, "lat": 37.788758, "lon": -122.4011061}, {"type": "node", "id": 1613878590, "lat": 37.7887589, "lon": -122.4009639}, {"type": "node", "id": 1613878592, "lat": 37.7888146, "lon": -122.401034}, {"type": "node", "id": 1617283373, "lat": 37.7905535, "lon": -122.3994205, "tags": {"addr:city": "San Francisco", "addr:housenumber": "525", "addr:postcode": "94105", "addr:state": "CA", "addr:street": "Market Street", "amenity": "fast_food", "drive_through": "no", "name": "Proper Food", "opening_hours": "Mo-Fr 08:00-14:30", "phone": "+1 415-862-8740", "website": "https://properfood.com/"}}, {"type": "node", "id": 1617283388, "lat": 37.7903659, "lon": -122.3994026, "tags": {"amenity": "fast_food", "brand": "Chipotle", "brand:wikidata": "Q465751", "brand:wikipedia": "en:Chipotle Mexican Grill", "cuisine": "mexican", "name": "Chipotle", "official_name": "Chipotle Mexican Grill", "takeaway": "yes", "wheelchair": "yes"}}, {"type": "node", "id": 1617283907, "lat": 37.7914529, "lon": -122.3997805, "tags": {"amenity": "fast_food", "brand": "Noah's Bagels", "brand:wikidata": "Q64517373", "cuisine": "bagel", "name": "Noah's Bagels", "official_name": "Noah's New York Bagels", "takeaway": "yes"}}, {"type": "node", "id": 1669802067, "lat": 37.8693438, "lon": -122.2918273, "tags": {"addr:housenumber": "1105", "addr:street": "University Avenue", "amenity": "fast_food", "brand": "Subway", "brand:wikidata": "Q244457", "brand:wikipedia": "en:Subway (restaurant)", "cuisine": "sandwich", "diet:vegetarian": "yes", "name": "Subway", "opening_hours": "Mo-Fr 08:00-21:00; Sa, Su 09:00-21:00", "phone": "+15105408900", "takeaway": "yes", "website": "https://order.subway.com/en-US/restaurant/14973", "wheelchair": "yes"}}, {"type": "node", "id": 1669803325, "lat": 37.8696952, "lon": -122.2920391, "tags": {"amenity": "fast_food", "cuisine": "bbq;burger", "name": "Everett and Jones", "opening_hours": "We-Su 12:00-19:00", "phone": "(510) 663-2350", "website": "https://eandjbbq.com/"}}, {"type": "node", "id": 1669803326, "lat": 37.8693914, "lon": -122.2917132, "tags": {"addr:housenumber": "1109", "addr:street": "University Avenue", "amenity": "fast_food", "brand": "Little Caesars", "brand:wikidata": "Q1393809", "brand:wikipedia": "en:Little Caesars", "cuisine": "pizza", "name": "Little Caesars", "takeaway": "yes", "website": "https://littlecaesars.com/en-us/store/9101"}}, {"type": "node", "id": 2101121572, "lat": 37.7768183, "lon": -122.394886, "tags": {"addr:city": "San Francisco", "addr:housenumber": "700", "addr:postcode": "94107", "addr:state": "CA", "addr:street": "4th Street", "amenity": "fast_food", "branch": "#30196", "brand": "Subway", "brand:wikidata": "Q244457", "brand:wikipedia": "en:Subway (restaurant)", "cuisine": "sandwich", "name": "Subway", "opening_hours": "Mo-Fr 10:00-20:00; Sa 11:00-17:00; Su 11:00-16:00", "phone": "+1-415-495-6341", "takeaway": "yes"}}, {"type": "node", "id": 2166654428, "lat": 37.7979399, "lon": -122.4074504, "tags": {"addr:city": "San Francisco", "addr:housenumber": "620", "addr:state": "CA", "addr:street": "Broadway", "amenity": "fast_food", "check_date": "2022-10-06", "contact:facebook": "tacoreasf", "contact:instagram": "tacoreasf", "cuisine": "burrito;tacos;korean;mexican", "name": "Tacorea", "website": "https://tacorea.com/", "website:menu": "https://tacorea.com/#menu-section"}}, {"type": "node", "id": 2169807691, "lat": 37.8052616, "lon": -122.29397, "tags": {"amenity": "fast_food", "brand": "Subway", "brand:wikidata": "Q244457", "cuisine": "sandwich", "name": "Subway", "takeaway": "yes", "website": "https://www.subway.com"}}, {"type": "node", "id": 2240839575, "lat": 37.7785737, "lon": -122.3921766, "tags": {"amenity": "fast_food", "cuisine": "sandwich", "name": "SBC Pizza"}}, {"type": "node", "id": 2240839584, "lat": 37.7795923, "lon": -122.3915835, "tags": {"amenity": "fast_food", "cuisine": "bagel", "name": "The Bagel Bakery"}}, {"type": "node", "id": 2240839587, "lat": 37.7786615, "lon": -122.3927737, "tags": {"amenity": "fast_food", "brand": "Taco Bell", "brand:wikidata": "Q752941", "brand:wikipedia": "en:Taco Bell", "cuisine": "tex-mex", "drive_through": "no", "name": "Taco Bell", "outdoor_seating": "yes", "takeaway": "yes"}}, {"type": "node", "id": 2240839590, "lat": 37.7787077, "lon": -122.3932034, "tags": {"amenity": "fast_food", "cuisine": "mexican", "name": "Victor's"}}, {"type": "node", "id": 2297033091, "lat": 37.7695289, "lon": -122.4515267}, {"type": "node", "id": 2297033092, "lat": 37.7695357, "lon": -122.4514737}, {"type": "node", "id": 2297033138, "lat": 37.7696315, "lon": -122.4515477}, {"type": "node", "id": 2297033147, "lat": 37.7696383, "lon": -122.4514947}, {"type": "node", "id": 2310116209, "lat": 37.7933322, "lon": -122.397355, "tags": {"addr:housenumber": "1", "addr:street": "California Street", "amenity": "fast_food", "name": "Ladle & Leaf", "opening_hours": "Mo-Fr 10:00-14:00", "website": "https://ladleandleaf.com/", "wheelchair": "yes"}}, {"type": "node", "id": 2329583711, "lat": 37.8794183, "lon": -122.296137, "tags": {"addr:city": "Albany", "addr:housenumber": "1050", "addr:street": "Gilman Street", "amenity": "fast_food", "brand": "Chipotle", "brand:wikidata": "Q465751", "brand:wikipedia": "en:Chipotle Mexican Grill", "cuisine": "mexican", "name": "Chipotle", "official_name": "Chipotle Mexican Grill", "opening_hours": "Mo-Su 10:46-22:00", "phone": "(510)900-2658", "takeaway": "yes", "website": "https://chipotle.com"}}, {"type": "node", "id": 2338760557, "lat": 37.7690726, "lon": -122.3903171, "tags": {"amenity": "fast_food", "brand": "Subway", "brand:wikidata": "Q244457", "brand:wikipedia": "en:Subway (restaurant)", "cuisine": "sandwich", "drive_in": "no", "drive_through": "no", "name": "Subway", "takeaway": "yes", "wheelchair": "yes"}}, {"type": "node", "id": 2338836801, "lat": 37.7748604, "lon": -122.4379581, "tags": {"addr:floor": "1", "addr:housenumber": "599", "addr:street": "Divisadero Street", "amenity": "fast_food", "brand": "Popeyes", "brand:wikidata": "Q1330910", "brand:wikipedia": "en:Popeyes", "check_date": "2022-09-15", "cuisine": "chicken;cajun", "diet:halal": "no", "diet:kosher": "no", "diet:vegetarian": "no", "drive_through": "no", "level": "0", "name": "Popeyes", "official_name": "Popeyes Louisiana Kitchen", "opening_hours": "Mo-Fr 10:00-22:00; Sa,Su 11:00-22:00", "phone": "+1 415-346-3088", "takeaway": "yes", "website": "https://locations.popeyes.com/ca/san-francisco/599-divisadero-st/", "wheelchair": "yes"}}, {"type": "node", "id": 2340006882, "lat": 37.8005595, "lon": -122.4373837, "tags": {"addr:city": "San Francisco", "addr:street": "Chestnut Street", "amenity": "fast_food", "brand": "Noah's Bagels", "brand:wikidata": "Q64517373", "cuisine": "bagel", "name": "Noah's Bagels", "official_name": "Noah's New York Bagels", "phone": "(415) 775-2910", "takeaway": "yes", "website": "https://www.noahs.com/"}}, {"type": "node", "id": 2340996333, "lat": 37.807808, "lon": -122.417843, "tags": {"alt_name": "Chipotle Mexican Grill", "amenity": "fast_food", "brand": "Chipotle", "brand:wikidata": "Q465751", "brand:wikipedia": "en:Chipotle Mexican Grill", "contact:website": "https://chipotle.com/", "cuisine": "mexican", "drive_through": "no", "name": "Chipotle", "official_name": "Chipotle Mexican Grill", "takeaway": "yes"}}, {"type": "node", "id": 2357396668, "lat": 37.7766899, "lon": -122.4143587}, {"type": "node", "id": 2357396674, "lat": 37.7767523, "lon": -122.4144397}, {"type": "node", "id": 2357396677, "lat": 37.7767629, "lon": -122.4142687}, {"type": "node", "id": 2357396682, "lat": 37.7768253, "lon": -122.4143487}, {"type": "node", "id": 2365742146, "lat": 37.7889505, "lon": -122.4014996, "tags": {"addr:housenumber": "609", "addr:postcode": "94105", "addr:street": "Market Street", "amenity": "fast_food", "brand": "McDonald's", "brand:website": "https://www.mcdonalds.com/", "brand:wikidata": "Q38076", "brand:wikipedia": "en:McDonald's", "check_date": "2022-04-07", "cuisine": "burger", "drive_through": "no", "name": "McDonald's", "opening_hours": "closed \"Closed for remodeling\"", "operator": "McDonald's", "phone": "4155432595", "takeaway": "yes", "wheelchair": "yes"}}, {"type": "node", "id": 2502767191, "lat": 37.7852293, "lon": -122.4166524, "tags": {"addr:city": "San Francisco", "addr:housenumber": "709", "addr:street": "O'Farrell Street", "amenity": "fast_food", "cuisine": "pizza", "name": "Yummy Pizza"}}, {"type": "node", "id": 2507800813, "lat": 37.7740042, "lon": -122.4086321}, {"type": "node", "id": 2507800843, "lat": 37.7741276, "lon": -122.4084784}, {"type": "node", "id": 2548042622, "lat": 37.7739672, "lon": -122.4085854}, {"type": "node", "id": 2548042624, "lat": 37.7740903, "lon": -122.4084304}, {"type": "node", "id": 2580380975, "lat": 37.9005207, "lon": -122.2999637, "tags": {"addr:city": "El Cerrito", "addr:housenumber": "5030", "addr:postcode": "94530", "addr:state": "CA", "addr:street": "El Cerrito Plaza", "addr:unit": "E-1", "amenity": "fast_food", "brand": "Jamba Juice", "brand:wikidata": "Q3088784", "brand:wikipedia": "en:Jamba Juice", "cuisine": "juice", "delivery": "no", "drive_through": "no", "name": "Jamba Juice", "opening_hours": "Mo-Sa 08:00-20:00; Su 09:00-19:00", "takeaway": "yes", "website": "https://locations.jamba.com/ca/el-cerrito/5030-el-cerrito-plaza", "wheelchair": "yes"}}, {"type": "node", "id": 2580380983, "lat": 37.9006075, "lon": -122.2999717, "tags": {"addr:city": "El Cerrito", "addr:housenumber": "5020", "addr:postcode": "94530", "addr:state": "CA", "addr:street": "El Cerrito Plaza", "addr:unit": "E-2", "amenity": "fast_food", "brand": "Panda Express", "brand:wikidata": "Q1358690", "brand:wikipedia": "en:Panda Express", "cuisine": "chinese", "name": "Panda Express", "opening_hours": "Mo-Su 10:00-21:30", "phone": "+1 510 526 9989", "takeaway": "yes", "website": "https://www.pandaexpress.com/userlocation/1003/ca/el-cerrito/5020-el-cerrito-plaza-e-2", "wheelchair": "yes"}}, {"type": "node", "id": 2583130484, "lat": 37.7699848, "lon": -122.4247569}, {"type": "node", "id": 2583130485, "lat": 37.7698434, "lon": -122.4247433}, {"type": "node", "id": 2583130487, "lat": 37.7698382, "lon": -122.4248305}, {"type": "node", "id": 2583130488, "lat": 37.7699796, "lon": -122.4248441}, {"type": "node", "id": 2613888359, "lat": 37.7897034, "lon": -122.4040073, "tags": {"addr:city": "San Francisco", "addr:housenumber": "211", "addr:postcode": "94108", "addr:state": "CA", "addr:street": "Sutter Street", "amenity": "fast_food", "brand": "Chipotle", "brand:wikidata": "Q465751", "brand:wikipedia": "en:Chipotle Mexican Grill", "cuisine": "mexican", "name": "Chipotle", "official_name": "Chipotle Mexican Grill", "opening_hours": "Mo-Fr 10:45-22:00; Sa,Su 10:45-20:00", "phone": "+1-415-590-4199", "smoking": "no", "takeaway": "yes"}}, {"type": "node", "id": 2617441124, "lat": 37.7829279, "lon": -122.4190374}, {"type": "node", "id": 2617441129, "lat": 37.7830332, "lon": -122.4190589}, {"type": "node", "id": 2621272506, "lat": 37.7653488, "lon": -122.4080424}, {"type": "node", "id": 2621272507, "lat": 37.7653615, "lon": -122.4078402}, {"type": "node", "id": 2621272510, "lat": 37.7654549, "lon": -122.408052}, {"type": "node", "id": 2621272511, "lat": 37.7654806, "lon": -122.4078266}, {"type": "node", "id": 2623839514, "lat": 37.7797368, "lon": -122.431739}, {"type": "node", "id": 2623839518, "lat": 37.7797429, "lon": -122.431696}, {"type": "node", "id": 2623839521, "lat": 37.7797605, "lon": -122.4317998}, {"type": "node", "id": 2623839531, "lat": 37.7797902, "lon": -122.4315909}, {"type": "node", "id": 2623839599, "lat": 37.779872, "lon": -122.4318649}, {"type": "node", "id": 2623839623, "lat": 37.7799079, "lon": -122.4318731}, {"type": "node", "id": 2623839641, "lat": 37.7799401, "lon": -122.4318407}, {"type": "node", "id": 2623839660, "lat": 37.7799698, "lon": -122.4316318}, {"type": "node", "id": 2623846268, "lat": 37.7797681, "lon": -122.4317461}, {"type": "node", "id": 2623846272, "lat": 37.7797742, "lon": -122.4317031}, {"type": "node", "id": 2623846335, "lat": 37.7798775, "lon": -122.4318265}, {"type": "node", "id": 2623846347, "lat": 37.7799134, "lon": -122.4318347}, {"type": "node", "id": 2623903547, "lat": 37.7831103, "lon": -122.4173562, "tags": {"addr:city": "San Francisco", "addr:housenumber": "560", "addr:street": "Larkin Street", "amenity": "fast_food", "cuisine": "vietnamese;sandwich", "diet:vegetarian": "yes", "indoor_seating": "no", "name": "Saigon Sandwich", "opening_hours": "Mo-Su 07:00-17:00", "outdoor_seating": "no", "payment:cash": "only", "payment:credit_cards": "no", "phone": "+1 415 4745698", "takeaway": "only", "wheelchair": "yes"}}, {"type": "node", "id": 2656266384, "lat": 37.7829613, "lon": -122.4187724}, {"type": "node", "id": 2656266385, "lat": 37.7830009, "lon": -122.4188478}, {"type": "node", "id": 2656266386, "lat": 37.7830079, "lon": -122.4188882}, {"type": "node", "id": 2656266387, "lat": 37.7830091, "lon": -122.4187819}, {"type": "node", "id": 2656266388, "lat": 37.7830127, "lon": -122.4188501}, {"type": "node", "id": 2656266389, "lat": 37.7830535, "lon": -122.4188974}, {"type": "node", "id": 2660051364, "lat": 37.7704176, "lon": -122.4180092}, {"type": "node", "id": 2660051365, "lat": 37.7704223, "lon": -122.4180145}, {"type": "node", "id": 2660051366, "lat": 37.7704284, "lon": -122.4180305}, {"type": "node", "id": 2660051368, "lat": 37.7704314, "lon": -122.4179894}, {"type": "node", "id": 2660051369, "lat": 37.770432, "lon": -122.4180254}, {"type": "node", "id": 2660051370, "lat": 37.7704361, "lon": -122.4179947}, {"type": "node", "id": 2660051371, "lat": 37.7704498, "lon": -122.4180545}, {"type": "node", "id": 2660051373, "lat": 37.7704504, "lon": -122.4179745}, {"type": "node", "id": 2660051374, "lat": 37.7704534, "lon": -122.4180494}, {"type": "node", "id": 2660051375, "lat": 37.7704794, "lon": -122.4180788}, {"type": "node", "id": 2660051377, "lat": 37.7704801, "lon": -122.4180778}, {"type": "node", "id": 2660051378, "lat": 37.7704913, "lon": -122.4180206}, {"type": "node", "id": 2660051379, "lat": 37.7704921, "lon": -122.4180607}, {"type": "node", "id": 2660051380, "lat": 37.770497, "lon": -122.4180125}, {"type": "node", "id": 2660051382, "lat": 37.7704997, "lon": -122.4180692}, {"type": "node", "id": 2660051383, "lat": 37.7705208, "lon": -122.4180392}, {"type": "node", "id": 2667034278, "lat": 37.7653509, "lon": -122.4080062}, {"type": "node", "id": 2667034279, "lat": 37.7653583, "lon": -122.4078985}, {"type": "node", "id": 2667034281, "lat": 37.7653618, "lon": -122.4080072}, {"type": "node", "id": 2667034283, "lat": 37.7653679, "lon": -122.4078994}, {"type": "node", "id": 2667034285, "lat": 37.765463, "lon": -122.4079079}, {"type": "node", "id": 2667034287, "lat": 37.765476, "lon": -122.407909}, {"type": "node", "id": 2718062342, "lat": 37.7718826, "lon": -122.4303038, "tags": {"addr:housenumber": "250", "addr:street": "Fillmore Street", "amenity": "fast_food", "cuisine": "sandwich", "diet:vegan": "yes", "diet:vegetarian": "yes", "name": "Estela's", "opening_hours": "Mo-Fr 08:00-16:00"}}, {"type": "node", "id": 2718062344, "lat": 37.7719259, "lon": -122.430317, "tags": {"addr:housenumber": "254", "addr:street": "Fillmore Street", "amenity": "fast_food", "cuisine": "seafood", "diet:vegan": "yes", "diet:vegetarian": "yes", "name": "Walking Fish", "opening_hours": "Mo-Su 11:00-19:30", "start_date": "2018"}}, {"type": "node", "id": 2741195016, "lat": 37.7692918, "lon": -122.4277262, "tags": {"addr:city": "San Francisco", "addr:housenumber": "2014", "addr:postcode": "94114", "addr:street": "Market Street", "amenity": "fast_food", "brand": "Jamba Juice", "brand:wikidata": "Q3088784", "brand:wikipedia": "en:Jamba Juice", "cuisine": "juice", "name": "Jamba Juice", "opening_hours": "Mo-Su 07:00-19:00", "phone": "1-415-703-6011", "takeaway": "yes"}}, {"type": "node", "id": 2881830801, "lat": 37.7662819, "lon": -122.401976, "tags": {"addr:housenumber": "290", "addr:street": "De Haro Street", "amenity": "fast_food", "cuisine": "brazilian", "name": "Pastel Brazzuca", "opening_hours": "Mo-Fr 08:00-17:00; Sa 08:00-14:30", "phone": "+1-415-800-7057", "website": "https://www.pastelbrazzuca.site/"}}, {"type": "node", "id": 2895323817, "lat": 37.7759755, "lon": -122.4196734, "tags": {"amenity": "fast_food", "brand": "Subway", "brand:wikidata": "Q244457", "brand:wikipedia": "en:Subway (restaurant)", "cuisine": "sandwich", "name": "Subway", "takeaway": "yes"}}, {"type": "node", "id": 3069400840, "lat": 37.7697951, "lon": -122.4495174, "tags": {"addr:housenumber": "1654", "addr:street": "Haight Street", "amenity": "fast_food", "cuisine": "mexican", "name": "El Rancho Grande"}}, {"type": "node", "id": 3123283505, "lat": 37.7939006, "lon": -122.3990657, "tags": {"addr:city": "San Francisco", "addr:country": "US", "addr:housenumber": "235", "addr:postcode": "94111", "addr:state": "CA", "addr:street": "Front Street", "amenity": "fast_food", "brand": "McDonald's", "brand:website": "https://www.mcdonalds.com/", "brand:wikidata": "Q38076", "brand:wikipedia": "en:McDonald's", "cuisine": "burger", "drive_through": "no", "name": "McDonald's", "takeaway": "yes", "wheelchair": "yes"}}, {"type": "node", "id": 3190942919, "lat": 37.7877453, "lon": -122.4136374, "tags": {"addr:city": "San Francisco", "addr:housenumber": "708", "addr:postcode": "94109", "addr:state": "CA", "addr:street": "Post Street", "amenity": "fast_food", "contact:yelp": "https://www.yelp.com/biz/pearls-deluxe-burgers-san-francisco-3", "cuisine": "burger", "diet:vegan": "no", "diet:vegetarian": "yes", "name": "Pearl's Deluxe Burgers", "opening_hours": "Su 12:00-21:00; Mo-Sa 11:00-22:00", "phone": "+1 415 409 6120", "website": "https://pearlsdeluxe.com", "website:menu": "https://pearlsdeluxe.com/menu.html", "wheelchair": "yes"}}, {"type": "node", "id": 3303358461, "lat": 37.8083269, "lon": -122.4140067, "tags": {"amenity": "fast_food", "brand": "Subway", "brand:wikidata": "Q244457", "brand:wikipedia": "en:Subway (restaurant)", "cuisine": "sandwich", "name": "Subway", "takeaway": "yes"}}, {"type": "node", "id": 3375035635, "lat": 37.7909421, "lon": -122.4192204, "tags": {"addr:city": "San Francisco", "addr:housenumber": "1500", "addr:postcode": "94109", "addr:state": "CA", "addr:street": "California Street", "amenity": "fast_food", "cuisine": "Breakfast_&_Burgers", "name": "Mymy"}}, {"type": "node", "id": 3375056283, "lat": 37.7876482, "lon": -122.4339429, "tags": {"addr:city": "San Francisco", "addr:housenumber": "1923", "addr:postcode": "94115", "addr:state": "CA", "addr:street": "Fillmore Street", "amenity": "fast_food", "cuisine": "regional_burger", "name": "Roam Artisan Burgers"}}, {"type": "node", "id": 3379321535, "lat": 37.8003743, "lon": -122.4376967, "tags": {"addr:city": "San Francisco", "addr:housenumber": "3348", "addr:state": "CA", "addr:street": "Steiner Street", "amenity": "fast_food", "cuisine": "vietnamese", "name": "Saiwalks, Vietnamese Street Food", "opening_hours": "11:30-21:30", "phone": "(415) 549\u20137932", "website": "http://www.saiwalks.com/"}}, {"type": "node", "id": 3379996817, "lat": 37.800285, "lon": -122.4397006, "tags": {"addr:city": "San Francisco", "addr:housenumber": "2203", "addr:state": "CA", "addr:street": "Chestnut Street", "amenity": "fast_food", "cuisine": "burger", "delivery": "no", "drive_through": "no", "name": "Super Duper Burger", "outdoor_seating": "yes", "phone": "415.558.8123", "takeaway": "yes", "website": "http://www.superdupersf.com/"}}, {"type": "node", "id": 3391850893, "lat": 37.808244, "lon": -122.414537, "tags": {"amenity": "fast_food", "brand": "McDonald's", "brand:wikidata": "Q38076", "brand:wikipedia": "en:McDonald's", "cuisine": "burger", "name": "McDonald's", "outdoor_seating": "no", "smoking": "no", "takeaway": "yes"}}, {"type": "node", "id": 3396513641, "lat": 37.7842915, "lon": -122.4087225, "tags": {"amenity": "fast_food", "brand": "Carl's Jr.", "brand:wikidata": "Q1043486", "brand:wikipedia": "en:Carl's Jr.", "cuisine": "burger", "name": "Carl's Jr.", "smoking": "no", "takeaway": "yes"}}, {"type": "node", "id": 3397783569, "lat": 37.7829504, "lon": -122.4059551, "tags": {"addr:city": "San Francisco", "addr:housenumber": "883", "addr:state": "CA", "addr:street": "Mission Street", "amenity": "fast_food", "check_date": "2022-09-02", "cuisine": "pizza", "name": "SF Pizza", "old_name": "z pizza", "takeaway": "yes"}}, {"type": "node", "id": 3397836578, "lat": 37.7842358, "lon": -122.4036734, "tags": {"addr:city": "San Francisco", "addr:housenumber": "121", "addr:postcode": "94103", "addr:state": "CA", "addr:street": "4th Street", "alt_name": "Chipotle Mexican Grill", "amenity": "fast_food", "brand": "Chipotle", "brand:wikidata": "Q465751", "brand:wikipedia": "en:Chipotle Mexican Grill", "check_date": "2022-01-27", "contact:website": "https://chipotle.com/", "cuisine": "mexican", "diet:vegetarian": "yes", "level": "0", "name": "Chipotle", "official_name": "Chipotle Mexican Grill", "phone": "+1-415-500-9635", "smoking": "no", "takeaway": "yes"}}, {"type": "node", "id": 3397875325, "lat": 37.7848683, "lon": -122.4035456, "tags": {"addr:city": "San Francisco", "addr:housenumber": "783", "addr:postcode": "94103", "addr:state": "CA", "addr:street": "Mission Street", "amenity": "fast_food", "cuisine": "burger", "diet:vegetarian": "yes", "name": "Super Duper Burgers", "opening_hours:url": "https://www.superduperburgers.com/locations/", "phone": "+1-415-882-1750", "smoking": "no", "takeaway": "yes", "website": "http://www.superdupersf.com/"}}, {"type": "node", "id": 3397910051, "lat": 37.7869373, "lon": -122.4040148, "tags": {"addr:city": "San Francisco", "addr:housenumber": "721", "addr:postcode": "94103", "addr:state": "CA", "addr:street": "Market Street", "amenity": "fast_food", "cuisine": "burger", "indoor_seating": "yes", "name": "Super Duper Burgers", "outdoor_seating": "yes", "phone": "+1-415-538-3437", "takeaway": "yes", "website": "http://www.superdupersf.com/", "wheelchair": "yes"}}, {"type": "node", "id": 3397923104, "lat": 37.7870859, "lon": -122.4038287, "tags": {"addr:city": "San Francisco", "addr:housenumber": "711", "addr:postcode": "94103", "addr:state": "CA", "addr:street": "Market Street", "amenity": "fast_food", "cuisine": "greek", "indoor_seating": "yes", "name": "Oasis Grill", "outdoor_seating": "no", "phone": "+1-415-810-4651", "wheelchair": "yes"}}, {"type": "node", "id": 3565166180, "lat": 37.7945889, "lon": -122.421373, "tags": {"addr:city": "San Francisco", "addr:housenumber": "1958", "addr:postcode": "94109", "addr:state": "CA", "addr:street": "Polk Street", "amenity": "fast_food", "contact:facebook": "bowldacai", "contact:instagram": "bowldacai", "contact:twitter": "bowldacai", "contact:yelp": "http://www.yelp.com/biz/bowld-acai-san-francisco-2", "cuisine": "smoothie;poke", "name": "Bowl'd Acai", "website": "https://www.bowldacai.com/"}}, {"type": "node", "id": 3605423539, "lat": 37.7880065, "lon": -122.4200461, "tags": {"addr:city": "San Francisco", "addr:housenumber": "1210", "addr:postcode": "94109", "addr:state": "CA", "addr:street": "Polk Street", "amenity": "fast_food", "check_date": "2021-08-11", "cuisine": "pizza", "name": "Pizzalicious", "phone": "+1 415 8729406", "website": "https://www.orderpizzalicious.com/", "wheelchair": "yes"}}, {"type": "node", "id": 3642090339, "lat": 37.7872668, "lon": -122.3986501, "tags": {"addr:city": "San Francisco", "addr:housenumber": "171", "addr:postcode": "94105", "addr:state": "CA", "addr:street": "2nd Street", "amenity": "fast_food", "cuisine": "salad", "internet_access:ssid": "Sweet greens", "name": "Sweet greens"}}, {"type": "node", "id": 3648576377, "lat": 37.7840686, "lon": -122.417846, "tags": {"addr:city": "San Francisco", "addr:housenumber": "655", "addr:postcode": "94109", "addr:state": "CA", "addr:street": "Larkin Street", "amenity": "fast_food", "check_date": "2022-07-18", "cuisine": "mexican", "name": "Las Yucatecas", "was:name": "Pagolac"}}, {"type": "node", "id": 3660717204, "lat": 37.7838399, "lon": -122.2774182}, {"type": "node", "id": 3660717205, "lat": 37.7839057, "lon": -122.2771182}, {"type": "node", "id": 3660717207, "lat": 37.7837215, "lon": -122.2773574}, {"type": "node", "id": 3673285749, "lat": 37.8466722, "lon": -122.291269, "tags": {"amenity": "fast_food", "brand": "Subway", "brand:wikidata": "Q244457", "brand:wikipedia": "en:Subway (restaurant)", "cuisine": "sandwich", "name": "Subway", "takeaway": "yes"}}, {"type": "node", "id": 3801395644, "lat": 37.7672262, "lon": -122.4529946, "tags": {"addr:city": "San Francisco", "addr:housenumber": "800", "addr:postcode": "94117", "addr:street": "Stanyan Street", "amenity": "fast_food", "cuisine": "pizza", "name": "North Beach Pizza"}}, {"type": "node", "id": 3801412030, "lat": 37.7695204, "lon": -122.4517666, "tags": {"addr:housenumber": "1794-A", "addr:street": "Haight Street", "amenity": "fast_food", "cuisine": "donut", "name": "Happy Donuts"}}, {"type": "node", "id": 3810642508, "lat": 37.8031883, "lon": -122.2821769, "tags": {"amenity": "fast_food", "brand": "McDonald's", "brand:wikidata": "Q38076", "brand:wikipedia": "en:McDonald's", "cuisine": "burger", "name": "McDonald's", "takeaway": "yes"}}, {"type": "node", "id": 3810642509, "lat": 37.8040764, "lon": -122.2821099, "tags": {"alt_name": "Kentucky Fried Chicken", "amenity": "fast_food", "brand": "KFC", "brand:wikidata": "Q524757", "brand:wikipedia": "en:KFC", "cuisine": "chicken", "name": "KFC", "takeaway": "yes"}}, {"type": "node", "id": 3875122061, "lat": 37.8006099, "lon": -122.4088891, "tags": {"addr:housenumber": "576", "addr:street": "Union Street", "amenity": "fast_food", "cuisine": "ice_cream", "name": "Gelato Classico Italian"}}, {"type": "node", "id": 3880788039, "lat": 37.8368527, "lon": -122.2925863, "tags": {"amenity": "fast_food", "name": "Cornology"}}, {"type": "node", "id": 3881440386, "lat": 37.8073406, "lon": -122.4171906, "tags": {"addr:city": "San Francisco", "addr:housenumber": "2850", "addr:street": "Jones Street", "amenity": "fast_food", "cuisine": "argentinian", "delivery": "no", "drive_through": "no", "name": "Tanguito", "note": "Do not accept Credit Cards", "phone": "415-577-4223", "takeaway": "yes", "wheelchair": "yes"}}, {"type": "node", "id": 3931507112, "lat": 37.8068444, "lon": -122.4182366, "tags": {"amenity": "fast_food", "cuisine": "pizza", "name": "Pizza Zone"}}, {"type": "node", "id": 3931507136, "lat": 37.8070416, "lon": -122.4187653, "tags": {"amenity": "fast_food", "cuisine": "pizza"}}, {"type": "node", "id": 3969664043, "lat": 37.7961086, "lon": -122.404381, "tags": {"addr:city": "San Francisco", "addr:housenumber": "57", "addr:postcode": "94111", "addr:state": "CA", "addr:street": "Columbus Avenue", "amenity": "fast_food", "check_date": "2022-08-25", "cuisine": "burger", "ice_cream": "yes", "name": "Columbus Burger", "opening_hours": "Mo-Th 11:00-23:00; Fr 11:00-26:00; Sa 12:00-26:00; Su 12:00-23:00", "opening_hours:url": "https://www.columbusburger.com/", "phone": "+1 415 6056181", "website": "https://www.columbusburger.com/", "website:menu": "https://www.columbusburger.com/menu.php"}}, {"type": "node", "id": 3986912498, "lat": 37.7977076, "lon": -122.4067101, "tags": {"addr:city": "San Francisco", "addr:housenumber": "279", "addr:postcode": "94133", "addr:state": "CA", "addr:street": "Columbus Avenue", "amenity": "fast_food", "cuisine": "pizza", "name": "Nizario's"}}, {"type": "node", "id": 4022689972, "lat": 37.7870636, "lon": -122.4198172, "tags": {"amenity": "fast_food", "cuisine": "pizza", "name": "Mustafio's Pizza", "phone": "415 932 6779"}}, {"type": "node", "id": 4022712099, "lat": 37.7651934, "lon": -122.4151131, "tags": {"addr:city": "San Francisco", "addr:housenumber": "2799", "addr:postcode": "94103", "addr:street": "16th Street", "amenity": "fast_food", "cuisine": "donut;chinese", "name": "J. Georgie's Donuts Teriyaki & Hamburger", "note": "reopened November 2019"}}, {"type": "node", "id": 4108035334, "lat": 37.7819769, "lon": -122.4102836, "tags": {"addr:city": "San Francisco", "addr:housenumber": "1003", "addr:state": "CA", "addr:street": "Market Street", "alt_name": "Taqueria Cancun", "amenity": "fast_food", "cuisine": "mexican", "indoor_seating": "yes", "name": "Taqueria Can-C\u00fan", "outdoor_seating": "no"}}, {"type": "node", "id": 4118236789, "lat": 37.7939497, "lon": -122.3966629, "tags": {"addr:housenumber": "21", "addr:street": "Drumm Street", "amenity": "fast_food", "name": "Ziggy's Burger"}}, {"type": "node", "id": 4194116711, "lat": 37.7842253, "lon": -122.4032414, "tags": {"amenity": "fast_food", "check_date": "2022-01-27", "cuisine": "asian;korean", "diet:vegetarian": "yes", "fixme": "position_estimated", "indoor": "yes", "level": "0", "name": "Sorabol Korean BBQ & Asian"}}, {"type": "node", "id": 4194116712, "lat": 37.7839905, "lon": -122.4028082, "tags": {"amenity": "fast_food", "indoor": "yes", "level": "0", "name": "Fresca Garden"}}, {"type": "node", "id": 4248919854, "lat": 37.7908283, "lon": -122.397463, "tags": {"addr:city": "San Francisco", "addr:housenumber": "30", "addr:postcode": "94105", "addr:state": "CA", "addr:street": "Fremont Street", "amenity": "fast_food", "brand": "Tender Greens", "brand:wikidata": "Q113585516", "cuisine": "salad", "name": "Tender Greens", "opening_hours": "Mo-Fr 11:00-20:00", "phone": "+1 415 543 5200", "takeaway": "yes", "website": "https://www.tendergreens.com/"}}, {"type": "node", "id": 4259744391, "lat": 37.8077335, "lon": -122.4138928, "tags": {"addr:housenumber": "2640", "addr:postcode": "94133", "addr:street": "Mason Street", "amenity": "fast_food", "name": "Hot Spud", "opening_hours": "Mo-Th 11:00-20:00; Fr-Su 11:00-21:00", "website": "http://hotspudsf.com"}}, {"type": "node", "id": 4259754590, "lat": 37.772361, "lon": -122.4292563, "tags": {"addr:housenumber": "422", "addr:street": "Haight Street", "amenity": "fast_food", "cuisine": "chicken", "name": "Wing wings"}}, {"type": "node", "id": 4318478184, "lat": 37.7868411, "lon": -122.2801884, "tags": {"alt_name": "Habit Burger Grill", "amenity": "fast_food", "brand": "The Habit Burger Grill", "brand:wikidata": "Q18158741", "brand:wikipedia": "en:The Habit Burger Grill", "cuisine": "burger", "name": "The Habit Burger Grill", "short_name": "Habit Burger", "takeaway": "yes"}}, {"type": "node", "id": 4318478498, "lat": 37.7872158, "lon": -122.2807267, "tags": {"amenity": "fast_food", "brand": "Firehouse Subs", "brand:wikidata": "Q5451873", "brand:wikipedia": "en:Firehouse Subs", "cuisine": "sandwich", "name": "Firehouse Subs", "takeaway": "yes"}}, {"type": "node", "id": 4318501493, "lat": 37.7861044, "lon": -122.2812313, "tags": {"alt_name": "Chipotle Mexican Grill", "amenity": "fast_food", "brand": "Chipotle", "brand:wikidata": "Q465751", "brand:wikipedia": "en:Chipotle Mexican Grill", "contact:website": "https://chipotle.com/", "cuisine": "mexican", "name": "Chipotle", "official_name": "Chipotle Mexican Grill", "takeaway": "yes"}}, {"type": "node", "id": 4322166629, "lat": 37.7651442, "lon": -122.4204315, "tags": {"amenity": "fast_food", "cuisine": "mexican", "name": "Taqueria Los Cayotes"}}, {"type": "node", "id": 4340589718, "lat": 37.89494, "lon": -122.3002456, "tags": {"addr:street": "San Pablo Avenue", "amenity": "fast_food", "cuisine": "mexican", "delivery": "no", "drive_through": "no", "name": "Tacos El Autlense Truck", "opening_hours": "Mo-Su 11:00-00:00", "takeaway": "only"}}, {"type": "node", "id": 4390546116, "lat": 37.8825037, "lon": -122.296847, "tags": {"addr:city": "Berkeley", "addr:housenumber": "1198", "addr:street": "San Pablo Avenue", "amenity": "fast_food", "brand": "McDonald's", "brand:wikidata": "Q38076", "brand:wikipedia": "en:McDonald's", "cuisine": "burger", "drive_through": "yes", "name": "McDonald's", "opening_hours": "24/7", "phone": "5105251411", "takeaway": "yes", "website": "https://www.mcdonalds.com/us/en-us/location/ca/berkeley/1198-san-pablo-ave/776.html", "wheelchair": "yes"}}, {"type": "node", "id": 4396942820, "lat": 37.7947834, "lon": -122.3962573, "tags": {"amenity": "fast_food", "level": "1", "name": "The Organic Coup"}}, {"type": "node", "id": 4468299590, "lat": 37.7888918, "lon": -122.401583, "tags": {"addr:city": "San Francisco", "addr:housenumber": "615", "addr:postcode": "94105", "addr:state": "CA", "addr:street": "Market Street", "amenity": "fast_food", "contact:facebook": "LeesDeli", "contact:instagram": "leesdelisf", "contact:twitter": "leesdeli", "cuisine": "chinese;sandwich", "email": "info@leesdeli.com", "name": "Lee's Deli", "opening_hours": "Mo-Fr 08:00-15:00", "opening_hours:signed": "no", "opening_hours:url": "https://www.leesdeli.com/location", "phone": "+1 415 6159889", "website": "https://www.leesdeli.com/", "wheelchair": "yes"}}, {"type": "node", "id": 4482171289, "lat": 37.7835636, "lon": -122.4070397, "tags": {"addr:city": "San Francisco", "addr:housenumber": "865", "addr:postcode": "94103", "addr:state": "CA", "addr:street": "Market Street", "addr:unit": "Basement Level", "amenity": "fast_food", "brand": "Panda Express", "brand:wikidata": "Q1358690", "brand:wikipedia": "en:Panda Express", "cuisine": "chinese", "name": "Panda Express", "name:de": "Panda Express", "name:en": "Panda Express", "opening_hours": "Mo-Sa 10:00-20:30, Su 11:00-19:00", "takeaway": "yes"}}, {"type": "node", "id": 4484525910, "lat": 37.899219, "lon": -122.30225, "tags": {"addr:city": "El Cerrito", "addr:housenumber": "9901", "addr:postcode": "94530", "addr:state": "CA", "addr:street": "San Pablo Avenue", "alt_name": "Chipotle Mexican Grill", "amenity": "fast_food", "brand": "Chipotle", "brand:wikidata": "Q465751", "brand:wikipedia": "en:Chipotle Mexican Grill", "contact:website": "https://chipotle.com/", "cuisine": "mexican", "delivery": "no", "drive_through": "no", "name": "Chipotle", "official_name": "Chipotle Mexican Grill", "opening_hours": "Mo-Sa 11:00-22:00; Su 11:00-18:00", "takeaway": "yes", "website": "https://chipotle.com/"}}, {"type": "node", "id": 4485990000, "lat": 37.7764792, "lon": -122.4167552, "tags": {"amenity": "fast_food", "cuisine": "pizza", "level": "0", "name": "Slice House by Tony Gemignani", "website": "http://www.visitthemarket.com/food/pizzeria/"}}, {"type": "node", "id": 4485990003, "lat": 37.7765894, "lon": -122.4165862, "tags": {"amenity": "fast_food", "cuisine": "juice", "level": "0", "name": "Project Juice", "website": "http://www.visitthemarket.com/shops/project-juice/"}}, {"type": "node", "id": 4485990004, "lat": 37.7764389, "lon": -122.4170288, "tags": {"amenity": "fast_food", "cuisine": "sushi", "level": "0", "name": "Sushi & Oyster Bar"}}, {"type": "node", "id": 4485990005, "lat": 37.7764241, "lon": -122.4169, "tags": {"amenity": "fast_food", "cuisine": "tex-mex", "level": "0", "name": "Taco Bar", "website": "http://www.visitthemarket.com/food/taco-bar/"}}, {"type": "node", "id": 4556399233, "lat": 37.7871677, "lon": -122.407561, "tags": {"addr:floor": "LL", "alt_name": "Jamba Juice", "amenity": "fast_food", "brand": "Jamba", "brand:wikidata": "Q3088784", "brand:wikipedia": "en:Jamba Juice", "check_date": "2022-02-17", "cuisine": "juice", "indoor": "yes", "level": "-1", "name": "Jamba", "opening_hours:url": "https://locations.jamba.com/ca/san-francisco/170-ofarrell-st", "phone": "+1 415 2964706", "takeaway": "yes", "website": "https://locations.jamba.com/ca/san-francisco/170-ofarrell-st"}}, {"type": "node", "id": 4556399235, "lat": 37.7872281, "lon": -122.4075717, "tags": {"addr:floor": "LL", "amenity": "fast_food", "brand": "Subway", "brand:wikidata": "Q244457", "brand:wikipedia": "en:Subway (restaurant)", "cuisine": "sandwich", "fixme": "Might be closed", "indoor": "yes", "level": "-1", "name": "Subway", "phone": "+1 415 2964460", "takeaway": "yes", "website": "https://restaurants.subway.com/united-states/ca/san-francisco/170-o'farrell-st"}}, {"type": "node", "id": 4586287693, "lat": 37.8079165, "lon": -122.4159843, "tags": {"amenity": "fast_food", "brand": "Jack in the Box", "brand:wikidata": "Q1538507", "brand:wikipedia": "en:Jack in the Box", "cuisine": "burger", "name": "Jack in the Box", "name:en": "Jack in the Box", "takeaway": "yes"}}, {"type": "node", "id": 4613804471, "lat": 37.7799558, "lon": -122.4071796, "tags": {"amenity": "fast_food", "brand": "Subway", "brand:wikidata": "Q244457", "brand:wikipedia": "en:Subway (restaurant)", "cuisine": "sandwich", "name": "Subway", "takeaway": "yes"}}, {"type": "node", "id": 4613888432, "lat": 37.8014018, "lon": -122.425058, "tags": {"amenity": "fast_food", "cuisine": "sandwich", "name": "Vikings Giant Subs"}}, {"type": "node", "id": 4613888435, "lat": 37.8013713, "lon": -122.4252835, "tags": {"amenity": "fast_food", "cuisine": "burger", "name": "Bobo's the Burger"}}, {"type": "node", "id": 4613901101, "lat": 37.8055851, "lon": -122.4131167, "tags": {"amenity": "fast_food", "name": "Pizzeria & Grill"}}, {"type": "node", "id": 4614040695, "lat": 37.7979313, "lon": -122.4073539, "tags": {"amenity": "fast_food", "cuisine": "burger", "name": "Sam's"}}, {"type": "node", "id": 4618173070, "lat": 37.794495, "lon": -122.4039275, "tags": {"amenity": "fast_food", "cuisine": "sandwich", "name": "Munchboxx", "takeaway": "yes"}}, {"type": "node", "id": 4625105136, "lat": 37.7825575, "lon": -122.4169342, "tags": {"amenity": "fast_food"}}, {"type": "node", "id": 4625128135, "lat": 37.791039, "lon": -122.4039792, "tags": {"addr:city": "San Francisco", "addr:housenumber": "312", "addr:postcode": "94108", "addr:state": "CA", "addr:street": "Kearny Street", "amenity": "fast_food", "brand": "L&L Hawaiian Barbecue", "brand:wikidata": "Q6455441", "brand:wikipedia": "en:L&L Hawaiian Barbecue", "cuisine": "hawaiian;barbecue;burger", "diet:vegan": "no", "diet:vegetarian": "yes", "fax": "+1 415 9562889", "indoor_seating": "yes", "name": "L&L Hawaiian Barbecue", "note:website": "Website contains a frame to http://landl.stanley-lee.com/", "opening_hours": "Mo-Fr 10:00-19:00; Sa 11:00-18:00; Su off", "outdoor_seating": "no", "phone": "+1 415 9562888", "takeaway": "yes", "url": "https://www.hawaiianbarbecue.com/", "website": "http://www.sanfranciscolandl.com/", "website:menu": "http://landl.stanley-lee.com/menu.htm", "wheelchair": "yes"}}, {"type": "node", "id": 4625131490, "lat": 37.7912862, "lon": -122.404036, "tags": {"addr:city": "San Francisco", "addr:housenumber": "336", "addr:postcode": "94108", "addr:state": "CA", "addr:street": "Kearny Street", "amenity": "fast_food", "cuisine": "japanese", "name": "Tenmatsu Grab and Go"}}, {"type": "node", "id": 4625139243, "lat": 37.7817861, "lon": -122.4154174, "tags": {"addr:city": "San Francisco", "addr:housenumber": "290", "addr:state": "CA", "addr:street": "Golden Gate Avenue", "amenity": "fast_food", "cuisine": "donut;burger;sandwich", "name": "Allstars Donuts & Burgers"}}, {"type": "node", "id": 4625142121, "lat": 37.8084398, "lon": -122.4099566, "tags": {"amenity": "fast_food", "name": "The Dog House"}}, {"type": "node", "id": 4625221571, "lat": 37.7836664, "lon": -122.4177655, "tags": {"addr:city": "San Francisco", "addr:housenumber": "625", "addr:state": "CA", "addr:street": "Larkin Street", "amenity": "fast_food", "brand": "Lee's Sandwiches", "brand:wikidata": "Q6512823", "brand:wikipedia": "en:Lee's Sandwiches", "cuisine": "vietnamese;sandwich", "name": "Lee's Sandwiches", "takeaway": "yes"}}, {"type": "node", "id": 4625221572, "lat": 37.7818863, "lon": -122.4147299, "tags": {"addr:city": "San Francisco", "addr:housenumber": "250", "addr:state": "CA", "addr:street": "Golden Gate Avenue", "amenity": "fast_food", "check_date": "2021-08-11", "cuisine": "mexican;taco;burrito", "name": "El Castillito Taqueria", "phone": "+1 415 8850855"}}, {"type": "node", "id": 4625221574, "lat": 37.7817931, "lon": -122.4153387, "tags": {"addr:city": "San Francisco", "addr:housenumber": "288", "addr:state": "CA", "addr:street": "Golden Gate Avenue", "amenity": "fast_food", "cuisine": "pizza;indian", "diet:vegan": "yes", "diet:vegetarian": "yes", "email": "himalayanpizzasf@gmail.com", "name": "Himalayan Pizza & Momo", "opening_hours": "Mo-Su 16:00-20:00", "opening_hours:url": "http://www.himalayanpizzanmomoca.com/", "phone": "+1 415 6587696", "website": "http://www.himalayanpizzanmomoca.com/"}}, {"type": "node", "id": 4625221576, "lat": 37.7813765, "lon": -122.4168504, "tags": {"amenity": "fast_food", "brand": "Subway", "brand:wikidata": "Q244457", "brand:wikipedia": "en:Subway (restaurant)", "cuisine": "sandwich", "name": "Subway", "takeaway": "yes"}}, {"type": "node", "id": 4625289655, "lat": 37.7659117, "lon": -122.407976, "tags": {"amenity": "fast_food", "brand": "Boston Market", "brand:wikidata": "Q603617", "brand:wikipedia": "en:Boston Market", "cuisine": "american;chicken", "name": "Boston Market", "takeaway": "yes"}}, {"type": "node", "id": 4626983989, "lat": 37.7892272, "lon": -122.4077251, "tags": {"addr:housenumber": "441", "addr:postcode": "94108", "addr:street": "Sutter Street", "amenity": "fast_food", "brand": "McDonald's", "brand:wikidata": "Q38076", "brand:wikipedia": "en:McDonald's", "cuisine": "burger", "diet:vegetarian": "no", "indoor_seating": "yes", "name": "McDonald's", "name:en": "McDonald's", "outdoor_seating": "no", "phone": "+1 415 3621082", "ref": "36677", "takeaway": "yes", "wheelchair": "yes"}}, {"type": "node", "id": 4628353543, "lat": 37.7905928, "lon": -122.4045089, "tags": {"amenity": "fast_food", "brand": "Subway", "brand:wikidata": "Q244457", "brand:wikipedia": "en:Subway (restaurant)", "cuisine": "sandwich", "name": "Subway", "takeaway": "yes"}}, {"type": "node", "id": 4628460555, "lat": 37.7861453, "lon": -122.4170193, "tags": {"addr:city": "San Francisco", "addr:housenumber": "829", "addr:state": "CA", "addr:street": "Geary Street", "amenity": "fast_food", "contact:facebook": "whatthecluckus", "contact:instagram": "whatthecluckus", "cuisine": "thai", "description": "\"Chicken & Rice\"", "name": "What the Cluck", "opening_hours": "Mo-Fr 10:00-23:00; Sa,Su 12:00-23:00", "opening_hours:url": "https://www.whatthecluckus.com/contact", "phone": "+1 415 7804728", "was:name": "Royalty", "website": "https://www.whatthecluckus.com/", "website:menu": "https://www.whatthecluckus.com/menu"}}, {"type": "node", "id": 4631708919, "lat": 37.7847383, "lon": -122.4129996, "tags": {"addr:city": "San Francisco", "addr:housenumber": "407", "addr:state": "CA", "addr:street": "Ellis Street", "amenity": "fast_food", "cuisine": "indian", "diet:vegetarian": "yes", "name": "Bombay Buzzing", "opening_hours": "Mo-Su 11:00-24:00", "opening_hours:url": "https://bombaybuzzing.com/", "outdoor_seating": "no", "website": "https://bombaybuzzing.com/", "website:menu": "https://bombaybuzzing.com/menu/"}}, {"type": "node", "id": 4632000732, "lat": 37.7895996, "lon": -122.403693, "tags": {"alt_name": "Jamba", "amenity": "fast_food", "brand": "Jamba Juice", "brand:wikidata": "Q3088784", "brand:wikipedia": "en:Jamba Juice", "check_date": "2022-02-28", "coffee": "no", "cuisine": "juice", "description": "juice bar", "drink:juice": "served", "indoor_seating": "no", "name": "Jamba Juice", "outdoor_seating": "no", "takeaway": "only", "website": "https://locations.jamba.com/ca/san-francisco/152-kearny-street", "wheelchair": "yes"}}, {"type": "node", "id": 4632000733, "lat": 37.7925096, "lon": -122.3989062, "tags": {"amenity": "fast_food", "brand": "Jimmy John's", "brand:wikidata": "Q1689380", "brand:wikipedia": "en:Jimmy John's", "cuisine": "sandwich", "name": "Jimmy John's", "official_name": "Jimmy John's Gourmet Sandwiches", "takeaway": "yes", "wheelchair": "yes"}}, {"type": "node", "id": 4632000739, "lat": 37.7902169, "lon": -122.4037967, "tags": {"addr:city": "San Francisco", "addr:housenumber": "226", "addr:state": "CA", "addr:street": "Kearny Street", "amenity": "fast_food", "contact:facebook": "Sushirrito-168065739903897", "contact:instagram": "sushirrito", "cuisine": "sushi;burrito", "name": "Sushirrito", "opening_hours": "Mo-Fr 10:00-20:00; Sa-Su 11:00-20:00", "opening_hours:url": "https://www.sushirrito.com/", "phone": "+1 415 5449868", "website": "https://www.sushirrito.com/"}}, {"type": "node", "id": 4632000742, "lat": 37.7892684, "lon": -122.4039174, "tags": {"addr:housenumber": "125", "addr:street": "Kearny Street", "amenity": "fast_food", "cuisine": "thai", "email": "info@roosterandrice.com", "name": "Rooster and Rice", "phone": "+1 415 7051500", "website": "https://www.roosterandrice.com/", "website:menu": "https://www.roosterandrice.com/menu"}}, {"type": "node", "id": 4632000807, "lat": 37.790538, "lon": -122.4041513, "tags": {"addr:housenumber": "Kearny Street", "addr:street": "255", "amenity": "fast_food", "name": "SF Wraps"}}, {"type": "node", "id": 4632000811, "lat": 37.7923452, "lon": -122.3999895, "tags": {"amenity": "fast_food", "brand": "Subway", "brand:wikidata": "Q244457", "brand:wikipedia": "en:Subway (restaurant)", "cuisine": "sandwich", "name": "Subway", "takeaway": "yes", "wheelchair": "yes"}}, {"type": "node", "id": 4632030144, "lat": 37.7901812, "lon": -122.3973252, "tags": {"amenity": "fast_food", "name": "Truck Stop"}}, {"type": "node", "id": 4632112446, "lat": 37.7915853, "lon": -122.3998048, "tags": {"amenity": "fast_food", "name": "Happy Donuts"}}, {"type": "node", "id": 4636119989, "lat": 37.7931578, "lon": -122.4026987, "tags": {"addr:street": "Montgomery Street", "amenity": "fast_food", "brand": "Subway", "brand:wikidata": "Q244457", "brand:wikipedia": "en:Subway (restaurant)", "cuisine": "sandwich", "name": "Subway", "name:en": "Subway", "takeaway": "yes", "wheelchair": "limited"}}, {"type": "node", "id": 4637210182, "lat": 37.7945086, "lon": -122.417982, "tags": {"addr:city": "San Francisco", "addr:housenumber": "1468", "addr:state": "CA", "addr:street": "Hyde Street", "amenity": "fast_food", "contact:facebook": "HSandP", "contact:instagram": "hotsauceandpanko_togo", "contact:twitter": "head_chili", "cuisine": "wings;chicken;sandwich;fish_and_chips", "name": "Hot Sauce and Panko", "opening_hours": "We-Sa 11:30-19:00; Su 11:30-17:00; Mo,Tu off", "takeaway": "yes", "website": "https://hotsauceandpanko.com/", "website:menu": "https://hotsauceandpanko.com/wp-content/uploads/2020/08/MENU_LONG_WORDPRESS_8_22_2020.jpg"}}, {"type": "node", "id": 4637367276, "lat": 37.7849912, "lon": -122.4084582, "tags": {"amenity": "fast_food", "brand": "Burger King", "brand:wikidata": "Q177054", "brand:wikipedia": "en:Burger King", "cuisine": "burger", "name": "Burger King", "takeaway": "yes"}}, {"type": "node", "id": 4637572306, "lat": 37.7863082, "lon": -122.413235, "tags": {"amenity": "fast_food", "cuisine": "wings;chicken", "diet:halal": "only", "name": "Wings Plus", "takeaway": "yes", "wheelchair": "yes"}}, {"type": "node", "id": 4637773274, "lat": 37.7849883, "lon": -122.4109965, "tags": {"addr:housenumber": "299", "addr:street": "Ellis Street", "amenity": "fast_food", "cuisine": "donut", "name": "Happy Donut"}}, {"type": "node", "id": 4852619953, "lat": 37.7855574, "lon": -122.43977, "tags": {"addr:housenumber": "1716", "addr:street": "Divisadero Street", "amenity": "fast_food", "level": "0", "name": "Cheese Steak Shop"}}, {"type": "node", "id": 5070942431, "lat": 37.8368228, "lon": -122.2934946}, {"type": "node", "id": 5070942435, "lat": 37.836903, "lon": -122.2932636}, {"type": "node", "id": 5070942441, "lat": 37.8369005, "lon": -122.2933093}, {"type": "node", "id": 5070942448, "lat": 37.8368369, "lon": -122.2933998}, {"type": "node", "id": 5070942458, "lat": 37.8369412, "lon": -122.2933128}, {"type": "node", "id": 5070942465, "lat": 37.836828, "lon": -122.293399}, {"type": "node", "id": 5070942472, "lat": 37.8368368, "lon": -122.2934958}, {"type": "node", "id": 5070942476, "lat": 37.8369437, "lon": -122.2932671}, {"type": "node", "id": 5093230381, "lat": 37.7943113, "lon": -122.3975668, "tags": {"addr:city": "San Francisco", "addr:housenumber": "50", "addr:postcode": "94111", "addr:state": "CA", "addr:street": "California Street", "amenity": "fast_food", "brand": "Chipotle", "brand:wikidata": "Q465751", "brand:wikipedia": "en:Chipotle Mexican Grill", "cuisine": "mexican", "delivery": "no", "drive_through": "no", "ele": "0", "name": "Chipotle", "official_name": "Chipotle Mexican Grill", "opening_hours": "Mo-Fr 10:45-20:00, Sa 10:45-19:00, Su Closed", "outdoor_seating": "yes", "phone": "1-415-500-9511", "smoking": "no", "takeaway": "yes", "website": "https://www.chipotle.com/", "wheelchair": "yes"}}, {"type": "node", "id": 5098140329, "lat": 37.7747353, "lon": -122.437923, "tags": {"addr:city": "San Francisco", "addr:housenumber": "553", "addr:postcode": "94117", "addr:state": "CA", "addr:street": "Divisadero Street", "amenity": "fast_food", "cuisine": "pizza", "name": "Sunset Squares Slice Shop", "website": "https://www.instagram.com/sunsetsquaresslices/"}}, {"type": "node", "id": 5115916022, "lat": 37.7864542, "lon": -122.414537, "tags": {"addr:housenumber": "683", "addr:street": "Geary Street", "amenity": "fast_food", "contact:instagram": "sfbandit", "contact:yelp": "https://www.yelp.com/biz/bandit-san-francisco", "cuisine": "burger", "name": "Bandit", "opening_hours": "Mo-Su 08:00-13:00, 17:00-21:30", "opening_hours:url": "https://www.banditsf.com/about", "phone": "+1 415 6587780", "website": "https://www.banditsf.com/", "website:menu": "https://www.banditsf.com/", "wheelchair": "yes"}}, {"type": "node", "id": 5120918721, "lat": 37.7978587, "lon": -122.4285532, "tags": {"amenity": "fast_food", "cuisine": "burger", "name": "Roam Artisan Burgers", "opening_hours": "Mo-Su 11:30-22:00"}}, {"type": "node", "id": 5182462005, "lat": 37.7723075, "lon": -122.4297398, "tags": {"addr:city": "San Francisco", "addr:housenumber": "456", "addr:postcode": "94117", "addr:state": "CA", "addr:street": "Haight Street", "amenity": "fast_food", "brand:contact:facebook": "seniorespizza", "brand:contact:instagram": "seniorespizza", "cuisine": "pizza", "delivery": "yes", "email": "info@seniorespizza.com", "name": "Seniore's Pizza", "phone": "+1 415 400 5222", "website": "https://seniorespizza.com/", "website:menu": "https://seniorespizza.com/san-francisco%2C-haight-st"}}, {"type": "node", "id": 5207488821, "lat": 37.8075902, "lon": -122.419676, "tags": {"amenity": "fast_food", "brand": "Jack's", "brand:wikidata": "Q6110826", "cuisine": "burger", "name": "Jack's", "takeaway": "yes"}}, {"type": "node", "id": 5315466468, "lat": 37.7852669, "lon": -122.433274, "tags": {"addr:city": "San Francisco", "addr:housenumber": "1701", "addr:postcode": "94115", "addr:street": "Fillmore Street", "amenity": "fast_food", "brand": "Burger King", "brand:wikidata": "Q177054", "check_date": "2022-07-19", "cuisine": "burger", "name": "Burger King", "takeaway": "yes", "wheelchair": "yes"}}, {"type": "node", "id": 5315466471, "lat": 37.7856979, "lon": -122.4330068, "tags": {"addr:housenumber": "1730", "addr:street": "Fillmore Street", "amenity": "fast_food", "brand": "Extreme Pizza", "brand:wikidata": "Q5422364", "brand:wikipedia": "en:Extreme Pizza", "cuisine": "pizza", "name": "Extreme Pizza", "outdoor_seating": "yes", "takeaway": "yes", "website": "https://www.extremepizzasanfrancisco.com/"}}, {"type": "node", "id": 5317135193, "lat": 37.797663, "lon": -122.4318193, "tags": {"addr:city": "San Francisco", "addr:housenumber": "1980", "addr:postcode": "94123", "addr:state": "CA", "addr:street": "Union Street", "amenity": "fast_food", "brand": "Extreme Pizza", "brand:wikidata": "Q5422364", "brand:wikipedia": "en:Extreme Pizza", "cuisine": "pizza", "name": "Extreme Pizza", "phone": "+1 (415) 929-8234", "takeaway": "yes", "website": "http://marina.extremepizza.com"}}, {"type": "node", "id": 5467205325, "lat": 37.7953187, "lon": -122.3920657, "tags": {"amenity": "fast_food", "name": "Roli Roti", "wheelchair": "yes"}}, {"type": "node", "id": 5503747522, "lat": 37.7833542, "lon": -122.408509, "tags": {"addr:housenumber": "925", "addr:street": "Market Street", "amenity": "fast_food", "indoor_seating": "yes", "name": "The Melt - Burger", "opening_hours": "Mo-Sa 10:00-02:00; Su 11:00-02:00", "outdoor_seating": "yes", "phone": "(415) 689-5879", "website": "https://www.themelt.com/"}}, {"type": "node", "id": 5595155727, "lat": 37.7890185, "lon": -122.3946318, "tags": {"amenity": "fast_food", "brand": "Subway", "brand:wikidata": "Q244457", "brand:wikipedia": "en:Subway (restaurant)", "cuisine": "sandwich", "name": "Subway", "takeaway": "yes"}}, {"type": "node", "id": 5617965927, "lat": 37.7831922, "lon": -122.4325599, "tags": {"addr:city": "San Francisco", "addr:housenumber": "1480", "addr:postcode": "94115", "addr:state": "CA", "addr:street": "Fillmore Street", "amenity": "fast_food", "brand": "Panda Express", "brand:wikidata": "Q1358690", "brand:wikipedia": "en:Panda Express", "cuisine": "chinese", "fax": "+1-415-292-5880", "name": "Panda Express", "opening_hours": "Mo-Th 10:00-22:00, Fr 10:00-22:30, Sa 10:30-22:30, Su 10:30-22:00", "phone": "+1-415-292-9993", "takeaway": "yes"}}, {"type": "node", "id": 5617978242, "lat": 37.7635408, "lon": -122.4583748, "tags": {"addr:city": "San Francisco", "addr:housenumber": "500", "addr:postcode": "94143", "addr:state": "CA", "addr:street": "Parnassus Avenue", "amenity": "fast_food", "brand": "Panda Express", "brand:wikidata": "Q1358690", "brand:wikipedia": "en:Panda Express", "cuisine": "chinese", "fax": "+1-415-665-7955", "name": "Panda Express", "opening_hours": "Mo-Fr 09:30-20:00, Sa-Su 10:30-17:00", "phone": "+1-415-665-7954", "takeaway": "yes"}}, {"type": "node", "id": 5631116752, "lat": 37.8813664, "lon": -122.290155, "tags": {"addr:street": "Gilman Street", "amenity": "fast_food", "cuisine": "brazilian", "name": "Brazil Cafe food truck", "website": "https://www.westbraebiergarten.com/"}}, {"type": "node", "id": 5686605778, "lat": 37.7877429, "lon": -122.4136773, "tags": {"addr:city": "San Francisco", "addr:housenumber": "710", "addr:postcode": "94109", "addr:state": "CA", "addr:street": "Post Street", "amenity": "fast_food", "check_date": "2022-07-01", "contact:facebook": "Chuys-Fiestas-Taqueria-II-107184495299430", "cuisine": "mexican;burrito;taco", "diet:vegetarian": "yes", "indoor_seating": "yes", "name": "Chuy's Fiestas Taqueria II", "note": "Phone numbers on their brochure, receipt, and website conflict. This phone number is from their brochure.", "outdoor_seating": "no", "phone": "+1 415 529 1323"}}, {"type": "node", "id": 5836829985, "lat": 37.7885477, "lon": -122.4148353, "tags": {"addr:city": "San Francisco", "addr:housenumber": "882", "addr:postcode": "94109", "addr:state": "CA", "addr:street": "Sutter Street", "amenity": "fast_food", "contact:facebook": "chismesf", "contact:instagram": "chismesf", "cuisine": "mexican", "email": "info@chismesf.com", "name": "Chisme Cantina", "opening_hours": "Mo-Sa 11:30-21:00; Su off", "opening_hours:url": "https://chismesf.com/contact", "phone": "+1 415 3707070", "website": "https://chismesf.com/"}}, {"type": "node", "id": 5840881685, "lat": 37.7693229, "lon": -122.4514111, "tags": {"addr:housenumber": "1737", "addr:postcode": "94117", "addr:street": "Haight Street", "amenity": "fast_food", "cuisine": "pizza", "name": "Escape from New York Pizza", "start_date": "1986"}}, {"type": "node", "id": 6212265323, "lat": 37.778374, "lon": -122.391868, "tags": {"amenity": "fast_food", "brand": "Louisiana Famous Fried Chicken", "brand:wikidata": "Q6689122", "brand:wikipedia": "en:Louisiana Famous Fried Chicken", "cuisine": "chicken", "name": "Louisiana Famous Fried Chicken", "takeaway": "yes"}}, {"type": "node", "id": 6314144274, "lat": 37.7836875, "lon": -122.4325061, "tags": {"addr:city": "San Francisco", "addr:housenumber": "1522", "addr:postcode": "94115", "addr:state": "CA", "addr:street": "Fillmore Street", "amenity": "fast_food", "cuisine": "korean;fried_chicken", "description": "\"A fried chicken joint hiding behind a bubble tea shop\"\n\nEnter through Boba Guys and order in the back.", "drive_through": "no", "level": "0", "name": "Sunday Bird", "opening_hours": "Mo-Th 11:00-20:00, Fr-Sa 12:00-21:00, Su 12:00-18:00", "operator": "Boba Guys", "outdoor_seating": "no", "takeaway": "yes", "website": "https://www.instagram.com/sundaybirdsf/", "wheelchair": "yes"}}, {"type": "node", "id": 6314144275, "lat": 37.7836399, "lon": -122.4326272, "tags": {"addr:city": "San Francisco", "addr:housenumber": "1520", "addr:postcode": "94115", "addr:state": "CA", "addr:street": "Fillmore Street", "amenity": "fast_food", "capacity": "10", "cuisine": "bagel;coffee;bakery", "drive_through": "no", "name": "Wise Sons Bagel & Bakery", "opening_hours": "Mo-Fr 07:00-15:00, Sa-Su 08:00-15:00", "operator": "Wise Sons Jewish Delicatessen", "outdoor_seating": "no", "phone": "+1-415-787-3354;ext=3", "takeaway": "yes", "website": "https://wisesonsdeli.com/location/fillmore/"}}, {"type": "node", "id": 6314144276, "lat": 37.7835237, "lon": -122.4326084, "tags": {"addr:city": "San Francisco", "addr:housenumber": "1500", "addr:postcode": "94115", "addr:state": "CA", "addr:street": "Fillmore Street", "amenity": "fast_food", "brand": "Subway", "brand:wikidata": "Q244457", "brand:wikipedia": "en:Subway (restaurant)", "capacity": "8", "cuisine": "sandwich", "drive_through": "no", "name": "Subway", "opening_hours": "24/7", "phone": "+1-415-771-5583", "takeaway": "yes", "website": "https://www.subway.com/"}}, {"type": "node", "id": 6447016759, "lat": 37.781824, "lon": -122.4456575, "tags": {"addr:unit": "E105", "amenity": "fast_food", "brand": "Chipotle", "brand:wikidata": "Q465751", "brand:wikipedia": "en:Chipotle Mexican Grill", "capacity": "47", "cuisine": "mexican", "level": "2", "name": "Chipotle", "official_name": "Chipotle Mexican Grill", "opening_hours": "10:45-22:00", "takeaway": "yes"}}, {"type": "node", "id": 6511795337, "lat": 37.7665115, "lon": -122.4087, "tags": {"alt_name": "Jamba Juice", "amenity": "fast_food", "brand": "Jamba", "brand:wikidata": "Q3088784", "brand:wikipedia": "en:Jamba Juice", "cuisine": "juice", "name": "Jamba Juice", "takeaway": "yes"}}, {"type": "node", "id": 6522368098, "lat": 37.850837, "lon": -122.2921247, "tags": {"addr:street": "Potter Street", "amenity": "fast_food", "name": "Tacos el Rey Food Truck", "phone": "5105931020", "website": "http://www.elreytacos.com"}}, {"type": "node", "id": 6530472559, "lat": 37.7935501, "lon": -122.3941502, "tags": {"amenity": "fast_food", "cuisine": "salad", "fixme": "position_estimated", "level": "1", "name": "Ladle & Leaf", "wheelchair": "yes"}}, {"type": "node", "id": 6530472561, "lat": 37.7936789, "lon": -122.3941594, "tags": {"amenity": "fast_food", "cuisine": "middle_eastern", "fixme": "position_estimated", "level": "1", "name": "Cafe Elena", "wheelchair": "yes"}}, {"type": "node", "id": 6530472562, "lat": 37.7936516, "lon": -122.3939859, "tags": {"amenity": "fast_food", "cuisine": "korean", "fixme": "position_estimated", "level": "1", "name": "Matko: Flavors of Korea", "payment:american_express": "yes", "payment:cash": "no", "payment:credit_card": "yes", "payment:discover_card": "yes", "payment:mastercard": "yes", "payment:visa": "yes", "wheelchair": "yes"}}, {"type": "node", "id": 6530472564, "lat": 37.7935991, "lon": -122.3940659, "tags": {"amenity": "fast_food", "cuisine": "seafood", "fixme": "position_estimated", "level": "1", "name": "Coast Poke Counter", "wheelchair": "yes"}}, {"type": "node", "id": 6530472566, "lat": 37.7937156, "lon": -122.3940894, "tags": {"amenity": "fast_food", "cuisine": "mexican", "fixme": "position_estimated", "level": "1", "name": "\u00a1Unamas! Mexican Grill", "wheelchair": "yes"}}, {"type": "node", "id": 6530472569, "lat": 37.7936327, "lon": -122.3942341, "tags": {"amenity": "fast_food", "cuisine": "thai", "fixme": "position_estimated", "level": "1", "name": "Osha Express", "wheelchair": "yes"}}, {"type": "node", "id": 6530526413, "lat": 37.7945655, "lon": -122.3960494, "tags": {"amenity": "fast_food", "cuisine": "japanese", "level": "1", "name": "Onigilly"}}, {"type": "node", "id": 6530526414, "lat": 37.7947082, "lon": -122.3959848, "tags": {"amenity": "fast_food", "cuisine": "chinese", "level": "1", "name": "Harborview Go", "opening_hours": "Mo-Fr 11:30-14:30; Sa-Su off", "phone": "+1 628 867 7350", "wheelchair": "yes"}}, {"type": "node", "id": 6530526415, "lat": 37.7946339, "lon": -122.3956683, "tags": {"amenity": "fast_food", "cuisine": "japanese", "fax": "+1 415 397 5366", "name": "Sushi Kinta", "phone": "+1 415 434 3116", "wheelchair": "yes"}}, {"type": "node", "id": 6582227558, "lat": 37.7920665, "lon": -122.397206, "tags": {"addr:housenumber": "333", "addr:street": "Market Street", "amenity": "fast_food", "cuisine": "asian", "name": "Noodleme", "opening_hours": "Mo-Fr 10:30-15:00; Sa-Su off", "website": "https://www.noodlemesf.com/"}}, {"type": "node", "id": 6604012614, "lat": 37.7757843, "lon": -122.4181249, "tags": {"amenity": "fast_food", "cuisine": "mexican", "level": "1", "name": "Mateo\u2019s", "opening_hours": "Mo-Fr 09:00-20:00; Sa-Su off"}}, {"type": "node", "id": 6611213082, "lat": 37.7927687, "lon": -122.402453, "tags": {"addr:city": "San Francisco", "addr:housenumber": "465", "addr:postcode": "94104", "addr:state": "CA", "addr:street": "California Street", "amenity": "fast_food", "brand": "Mendocino Farms", "brand:wikidata": "Q110671982", "cuisine": "sandwich", "internet_access": "wlan", "internet_access:fee": "no", "name": "Mendocino Farms", "opening_hours": "Mo-Fr 07:30-10:00,11:00-19:00", "outdoor_seating": "no", "phone": "+1 415 321 2170", "takeaway": "yes", "website": "https://www.mendocinofarms.com/san-francisco/"}}, {"type": "node", "id": 6655857385, "lat": 37.7964224, "lon": -122.405347, "tags": {"addr:housenumber": "915", "addr:street": "Kearny Street", "amenity": "fast_food", "name": "Chong Qing Xiao Mian"}}, {"type": "node", "id": 6685670585, "lat": 37.769652, "lon": -122.4489884, "tags": {"addr:housenumber": "1607", "addr:street": "Haight Street", "amenity": "fast_food", "cuisine": "mexican", "diet:vegetarian": "yes", "name": "StreetTaco", "opening_hours": "Mo-Su 11:00-22:00", "website": "https://streettacosf.com/"}}, {"type": "node", "id": 6699744287, "lat": 37.78649, "lon": -122.4180446, "tags": {"addr:city": "San Francisco", "addr:housenumber": "932", "addr:postcode": "94109", "addr:state": "CA", "addr:street": "Larkin Street", "amenity": "fast_food", "contact:facebook": "ariakoreanstreetfood", "contact:instagram": "ariakoreanstreetfood", "contact:yelp": "https://www.yelp.com/biz/aria-korean-snack-bar-san-francisco-2", "cuisine": "chicken;wings;korean", "email": "contact@ariasf.com", "name": "Aria Korean Tapas", "opening_hours": "Mo-Sa 11:30-22:00", "opening_hours:url": "https://ariasf.com/locations-2", "phone": "+1 415 2926914", "short_name": "Aria", "website": "https://ariasf.com/"}}, {"type": "node", "id": 6757511694, "lat": 37.7979181, "lon": -122.4355026, "tags": {"addr:city": "San Francisco", "addr:country": "US", "addr:housenumber": "3060", "addr:postcode": "94123", "addr:state": "CA", "addr:street": "Fillmore Street", "amenity": "fast_food", "cuisine": "burger", "name": "Shake Shack", "phone": "+1 (415) 405-4618", "start_date": "02-03-2020", "website": "https://www.shakeshack.com/location/cow-hollow-san-francisco-ca/"}}, {"type": "node", "id": 6773294856, "lat": 37.781721, "lon": -122.4455029, "tags": {"addr:unit": "E103", "amenity": "fast_food", "brand": "Subway", "brand:wikidata": "Q244457", "brand:wikipedia": "en:Subway (restaurant)", "cuisine": "sandwich", "level": "2", "name": "Subway", "opening_hours": "Mo-Fr 07:30-21:30; Sa-Su 09:00-19:00", "takeaway": "yes"}}, {"type": "node", "id": 6815206677, "lat": 37.7698306, "lon": -122.4475455, "tags": {"addr:housenumber": "1535", "addr:street": "Haight Street", "amenity": "fast_food", "cuisine": "pizza", "name": "Slice House", "website": "http://www.slicehousehaight.com/"}}, {"type": "node", "id": 6833789439, "lat": 37.7701718, "lon": -122.446492, "tags": {"addr:housenumber": "1466", "addr:street": "Haight Street", "amenity": "fast_food", "cuisine": "burger", "diet:vegan": "only", "diet:vegetarian": "yes", "drive_through": "no", "name": "VeganBurg"}}, {"type": "node", "id": 6852954255, "lat": 37.7968013, "lon": -122.4369675, "tags": {"addr:housenumber": "2299", "addr:street": "Union Street", "amenity": "fast_food", "cuisine": "sandwich", "name": "Marina Submarine", "takeaway": "yes", "website": "https://www.facebook.com/marinasub"}}, {"type": "node", "id": 6903764685, "lat": 37.7697968, "lon": -122.4496113, "tags": {"addr:city": "San Francisco", "addr:housenumber": "19", "addr:postcode": "94117", "addr:state": "CA", "addr:street": "Belvedere Street", "amenity": "fast_food", "cuisine": "honey", "name": "Ava and Joeseph 4 ever", "operator": "Mr. Yuri"}}, {"type": "node", "id": 6959372193, "lat": 37.8492783, "lon": -122.2860423, "tags": {"amenity": "fast_food", "brand": "McDonald's", "brand:website": "https://www.mcdonalds.com/", "brand:wikidata": "Q38076", "brand:wikipedia": "en:McDonald's", "cuisine": "burger", "drive_through": "yes", "name": "McDonald's", "takeaway": "yes"}}, {"type": "node", "id": 7109324499, "lat": 37.884395, "lon": -122.297332, "tags": {"addr:city": "Albany", "addr:housenumber": "1080", "addr:postcode": "94706", "addr:state": "CA", "addr:street": "Monroe Street", "alt_name": "Habit Burger Grill", "amenity": "fast_food", "brand": "The Habit Burger Grill", "brand:wikidata": "Q18158741", "brand:wikipedia": "en:The Habit Burger Grill", "cuisine": "burger", "name": "The Habit Burger Grill", "opening_hours": "Mo-Su 10:30-22:00", "phone": "+15105265560", "short_name": "Habit Burger", "takeaway": "yes", "website": "https://www.habitburger.com/locations/albany/"}}, {"type": "node", "id": 7123440424, "lat": 37.7653697, "lon": -122.4078409}, {"type": "node", "id": 7123440425, "lat": 37.7653711, "lon": -122.4078168}, {"type": "node", "id": 7472208124, "lat": 37.8700138, "lon": -122.3014402, "tags": {"addr:city": "Berkeley", "addr:housenumber": "1788", "addr:postcode": "94710", "addr:state": "CA", "addr:street": "Fourth Street", "amenity": "fast_food", "cuisine": "pizza", "name": "Pollara Pizzeria", "phone": "+1-510-529-4548", "website": "https://www.pollarapizzeria.com/"}}, {"type": "node", "id": 8060674292, "lat": 37.830747, "lon": -122.280257, "tags": {"addr:city": "Emeryville", "addr:housenumber": "1151", "addr:postcode": "94608", "addr:street": "40th Street", "amenity": "fast_food", "brand": "Panda Express", "brand:wikidata": "Q1358690", "brand:wikipedia": "en:Panda Express", "cuisine": "chinese", "name": "Panda Express", "opening_hours": "Mo-Su 10:00-21:30", "takeaway": "yes", "website": "https://www.pandaexpress.com/userlocation/2385/ca/emeryville/1151-40th-st"}}, {"type": "node", "id": 8060681596, "lat": 37.832853, "lon": -122.280799, "tags": {"amenity": "fast_food", "brand": "Wingstop", "brand:wikidata": "Q8025339", "brand:wikipedia": "en:Wingstop", "cuisine": "wings", "name": "Wingstop", "takeaway": "yes", "website": "https://www.wingstop.com/location/wingstop-454-emeryville-ca-94608/menu"}}, {"type": "node", "id": 8313408238, "lat": 37.8286224, "lon": -122.2841038, "tags": {"amenity": "fast_food", "name": "Kelly's deli"}}, {"type": "node", "id": 8516379206, "lat": 37.7837347, "lon": -122.2773807}, {"type": "node", "id": 8516379207, "lat": 37.7837383, "lon": -122.2773638}, {"type": "node", "id": 8516379209, "lat": 37.7837662, "lon": -122.2771502}, {"type": "node", "id": 8516379210, "lat": 37.7837843, "lon": -122.277072}, {"type": "node", "id": 8660683671, "lat": 37.7659521, "lon": -122.402155, "tags": {"addr:housenumber": "300", "addr:street": "De Haro Street", "amenity": "fast_food", "cuisine": "chicken;bakery", "diet:halal": "yes", "name": "Myrtle\u2019s Good Pie", "phone": "+1 415-890-3334", "website": "https://www.mygoodpie.com/"}}, {"type": "node", "id": 8715520434, "lat": 37.8903655, "lon": -122.2949113, "tags": {"addr:city": "Albany", "addr:street": "Solano Avenue", "amenity": "fast_food", "cuisine": "pizza", "indoor_seating": "yes", "name": "Islice", "opening_hours": "Mo-Su 11:30-20:00", "outdoor_seating": "yes", "website": "https://www.isliceonline.com", "wheelchair": "yes"}}, {"type": "node", "id": 8736839518, "lat": 37.894054, "lon": -122.29989, "tags": {"addr:city": "Albany", "addr:housenumber": "635", "addr:postcode": "94706", "addr:state": "CA", "addr:street": "San Pablo Avenue", "amenity": "fast_food", "brand": "Taco Bell", "brand:wikidata": "Q752941", "brand:wikipedia": "en:Taco Bell", "cuisine": "tex-mex", "delivery": "no", "drive_through": "yes", "name": "Taco Bell", "opening_hours": "Mo-Fr 06:00-01:00; Sa-Su 09:00-01:00", "phone": "(510) 527-5090", "smoking": "no", "takeaway": "yes", "website": "https://locations.tacobell.com/ca/albany/635-san-pablo-ave.html"}}, {"type": "node", "id": 8755084919, "lat": 37.8016565, "lon": -122.411921, "tags": {"addr:housenumber": "752", "addr:street": "Columbus Avenue", "amenity": "fast_food", "name": "Le Sandwich"}}, {"type": "node", "id": 8759011498, "lat": 37.9078157, "lon": -122.305634, "tags": {"addr:housenumber": "10398", "addr:street": "San Pablo Avenue", "amenity": "fast_food", "brand": "Subway", "brand:wikidata": "Q244457", "cuisine": "sandwich", "name": "Subway", "opening_hours": "Mo-Sa 08:00-20:30; Su 09:00-20:00", "phone": "+1 510-527-4300", "takeaway": "yes", "website": "https://restaurants.subway.com/united-states/ca/el-cerrito/10398-san-pablo-ave"}}, {"type": "node", "id": 8851953883, "lat": 37.7663181, "lon": -122.4218732, "tags": {"addr:city": "San Francisco", "addr:housenumber": "411", "addr:state": "CA", "addr:street": "Valencia Street", "amenity": "fast_food", "contact:facebook": "joyride.pizza", "contact:instagram": "joyride.pizza", "cuisine": "pizza", "delivery": "yes", "diet:vegetarian": "yes", "indoor_seating": "no", "name": "Joyride Pizza", "opening_hours": "Mo-We,Su 11:00-22:00; Th-Sa 11:00-23:00", "opening_hours:url": "https://www.joyridepizza.com/mission-district", "outdoor_seating": "yes", "phone": "+1 415 5536887", "takeaway": "yes", "website": "https://www.joyridepizza.com/mission-district", "wheelchair": "yes"}}, {"type": "node", "id": 8901494466, "lat": 37.8809139, "lon": -122.29576, "tags": {"amenity": "fast_food", "cuisine": "mexican", "name": "Tacos El Rulas"}}, {"type": "node", "id": 8947382602, "lat": 37.7868497, "lon": -122.2805957, "tags": {"amenity": "fast_food", "brand": "Panda Express", "brand:wikidata": "Q1358690", "brand:wikipedia": "en:Panda Express", "cuisine": "chinese", "name": "Panda Express", "takeaway": "yes"}}, {"type": "node", "id": 8947382612, "lat": 37.7866187, "lon": -122.28122, "tags": {"alt_name": "Jamba Juice", "amenity": "fast_food", "brand": "Jamba", "brand:wikidata": "Q3088784", "brand:wikipedia": "en:Jamba Juice", "cuisine": "juice", "name": "Jamba", "takeaway": "yes"}}, {"type": "node", "id": 9119045263, "lat": 37.7838775, "lon": -122.2772426}, {"type": "node", "id": 9181840531, "lat": 37.7884521, "lon": -122.4156131, "tags": {"addr:housenumber": "920", "addr:street": "Sutter Street", "amenity": "fast_food", "cuisine": "pizza", "diet:vegan": "no", "diet:vegetarian": "yes", "name": "Bellissimo Pizza", "phone": "+1 415 8854445", "takeaway": "yes", "website": "https://www.bellissimopizzasf.com/", "wheelchair": "yes"}}, {"type": "node", "id": 9194418333, "lat": 37.7862637, "lon": -122.4104324, "tags": {"addr:housenumber": "336", "addr:street": "O'Farrell Street", "amenity": "fast_food", "brand": "The Halal Guys", "brand:wikidata": "Q10846129", "brand:wikipedia": "en:The Halal Guys", "cuisine": "chicken;falafel;gyros", "delivery": "yes", "diet:halal": "yes", "name": "The Halal Guys", "opening_hours": "Mo-Th 10:00-25:30; Fr,Sa 10:00-26:00; Su 11:00-22:00", "payment:credit_cards": "yes", "phone": "+1 415 5493454", "takeaway": "yes", "website": "https://thehalalguys.com/locations/336-ofarrell-street-san-francisco/", "wheelchair": "yes"}}, {"type": "node", "id": 9200430821, "lat": 37.7850968, "lon": -122.4305114, "tags": {"amenity": "fast_food", "contact:facebook": "takoyakiyamachan", "contact:instagram": "takoyakiyamachanusa", "cuisine": "japanese;takoyaki", "description": "Takoyaki", "email": "taisukey46@gmail.com", "level": "1", "name": "Takoyaki Yamachan", "opening_hours": "Mo-Su 11:00-21:00", "opening_hours:url": "https://www.takoyakiyamachan.com/location", "website": "https://www.takoyakiyamachan.com/"}}, {"type": "node", "id": 9319548160, "lat": 37.7842354, "lon": -122.406565, "tags": {"amenity": "fast_food", "brand": "Shake Shack", "brand:wikidata": "Q1058722", "brand:wikipedia": "en:Shake Shack", "cuisine": "burger", "drive_through": "no", "indoor": "yes", "level": "-1", "name": "Shake Shack", "takeaway": "yes"}}, {"type": "node", "id": 9319555845, "lat": 37.784335, "lon": -122.405949, "tags": {"amenity": "fast_food", "cuisine": "chinese;noodle;bubble_tea", "diet:vegetarian": "yes", "drive_through": "no", "indoor": "yes", "level": "-1", "name": "NooBowl", "takeaway": "only"}}, {"type": "node", "id": 9319558943, "lat": 37.7844144, "lon": -122.405936, "tags": {"amenity": "fast_food", "cuisine": "hot_dog", "drive_through": "no", "indoor": "yes", "level": "-1", "name": "Umai Savory Hot Dogs"}}, {"type": "node", "id": 9319574462, "lat": 37.7844425, "lon": -122.40598, "tags": {"amenity": "fast_food", "cuisine": "pizza", "drive_through": "no", "indoor": "yes", "level": "-1", "name": "Blondie's Pizza"}}, {"type": "node", "id": 9354907012, "lat": 37.7851535, "lon": -122.419763, "tags": {"addr:city": "San Francisco", "addr:housenumber": "901", "addr:postcode": "94109", "addr:state": "CA", "addr:street": "Polk Street", "amenity": "fast_food", "brand": "Ike's Love and Sandwiches", "brand:wikidata": "Q112028897", "cuisine": "sandwich", "delivery": "yes", "diet:vegan": "yes", "diet:vegetarian": "yes", "indoor_seating": "yes", "name": "Ike's Love and Sandwiches", "opening_hours": "Mo-Fr 10:00-20:00", "outdoor_seating": "no", "phone": "+1 415 3511972", "short_name": "Ike's", "takeaway": "yes", "website": "https://locations.ikessandwich.com/ca/sanfrancisco/sandwich-shop-122.html"}}, {"type": "node", "id": 9408415654, "lat": 37.7884611, "lon": -122.4155373, "tags": {"addr:city": "San Francisco", "addr:state": "CA", "addr:street": "Sutter Street", "amenity": "fast_food", "contact:facebook": "SFBite", "contact:instagram": "bitesandwiches_sf", "contact:twitter": "SFBite", "cuisine": "sandwich", "email": "contact@bitesandwiches.com", "name": "Bite", "phone": "+1 415 5632483", "website": "https://www.bitesandwiches.com/"}}, {"type": "node", "id": 9451941409, "lat": 37.7937239, "lon": -122.4048061, "tags": {"addr:city": "San Francisco", "addr:housenumber": "605", "addr:state": "CA", "addr:street": "Kearny Street", "amenity": "fast_food", "check_date": "2022-01-05", "cuisine": "poke;asian", "name": "Ohana Poke Bar", "note": "Part of Ohana Poke Bar x royaltea", "wheelchair": "yes"}}, {"type": "node", "id": 9501233308, "lat": 37.8776342, "lon": -122.309415, "tags": {"amenity": "fast_food", "name": "Taqueria food truck", "phone": "5104785999"}}, {"type": "node", "id": 9506858288, "lat": 37.8392553, "lon": -122.2888672, "tags": {"amenity": "fast_food", "name": "Ike's"}}, {"type": "node", "id": 9546656576, "lat": 37.7882695, "lon": -122.4037001, "tags": {"addr:city": "San Francisco", "addr:housenumber": "33", "addr:state": "CA", "addr:street": "Kearny Street", "amenity": "fast_food", "check_date": "2022-10-28", "name": "Poke Bowl"}}, {"type": "node", "id": 9603796975, "lat": 37.788144, "lon": -122.4162785, "tags": {"addr:city": "San Francisco", "addr:housenumber": "969", "addr:state": "CA", "addr:street": "Sutter Street", "amenity": "fast_food", "brand": "Papa John's", "brand:wikidata": "Q2759586", "brand:wikipedia": "en:Papa John's", "cuisine": "pizza", "name": "Papa John's", "takeaway": "yes"}}, {"type": "node", "id": 9646446266, "lat": 37.7927828, "lon": -122.3989635, "tags": {"addr:city": "San Francisco", "addr:housenumber": "100", "addr:postcode": "94104", "addr:state": "CA", "addr:street": "Pine Street", "addr:unit": "102", "amenity": "fast_food", "cuisine": "sandwich", "drive_through": "no", "name": "Lou's Cafe", "opening_hours": "Mo-Fr 08:00-15:00", "outdoor_seating": "no", "phone": "+1 415-283-4777", "website": "http://www.louscafesf.com/100-pine-st"}}, {"type": "node", "id": 9657078791, "lat": 37.7940318, "lon": -122.400293, "tags": {"addr:housenumber": "275", "addr:street": "Battery Street", "amenity": "fast_food", "cuisine": "soup", "name": "Ladle & Leaf", "opening_hours": "Mo-Fr 10:00-14:00", "phone": " (415) 788-7687", "website": "https://ladleandleaf.com/locations/275-Battery-Street/"}}, {"type": "node", "id": 9661677179, "lat": 37.7932893, "lon": -122.4007373, "tags": {"addr:housenumber": "350", "addr:street": "California Street", "amenity": "fast_food", "name": "Proper Food", "opening_hours": "Mo-Th 08:00-14:30", "website": "https://properfood.com/"}}, {"type": "node", "id": 9677951788, "lat": 37.7809482, "lon": -122.4202037, "tags": {"amenity": "fast_food", "check_date": "2022-04-06", "cuisine": "vietnamese", "email": "BodegaSaturdays@gmail.com", "name": "Bodega", "opening_hours": "Su,Mo,We 11:00-20:00; Tu off; Th-Sa 11:00-23:00", "phone": "+1 415 2128929", "website": "https://bodega-sf.square.site/"}}, {"type": "node", "id": 9727962594, "lat": 37.8107503, "lon": -122.4110358, "tags": {"amenity": "fast_food", "level": "1", "name": "Fun Food Factory"}}, {"type": "node", "id": 9735505750, "lat": 37.7833744, "lon": -122.4178427, "tags": {"addr:city": "San Francisco", "addr:housenumber": "602", "addr:state": "CA", "addr:street": "Eddy Street", "amenity": "fast_food", "check_date": "2021-08-11", "cuisine": "vietnamese;sandwich", "name": "L & G Vietnamese Sandwich"}}, {"type": "node", "id": 9738163375, "lat": 37.7826696, "lon": -122.414268, "tags": {"amenity": "fast_food", "cuisine": "mexican"}}, {"type": "node", "id": 9763355100, "lat": 37.7730885, "lon": -122.438996, "tags": {"amenity": "fast_food", "cuisine": "chicken", "diet:vegan": "yes", "diet:vegetarian": "yes", "name": "RT Rotisserie", "opening_hours": "Mo-Su 11:00-20:00", "website": "https://www.rtrotisserie.com"}}, {"type": "node", "id": 9919959747, "lat": 37.7889013, "lon": -122.396087, "tags": {"amenity": "fast_food", "brand": "Chipotle", "brand:wikidata": "Q465751", "cuisine": "mexican", "name": "Chipotle", "official_name": "Chipotle Mexican Grill", "takeaway": "yes"}}, {"type": "node", "id": 9956026787, "lat": 37.786298, "lon": -122.4176631, "tags": {"addr:housenumber": "868", "amenity": "fast_food", "cuisine": "mexican;burger", "indoor_seating": "yes", "internet_access": "no", "name": "Los Hermanos Taqueria", "note": "Located inside Mid City Market", "outdoor_seating": "no", "phone": "+1 415 474 0530", "takeaway": "yes", "website": "loshermanosonline.com"}}, {"type": "node", "id": 9996417479, "lat": 37.7876816, "lon": -122.4030679, "tags": {"amenity": "fast_food", "cuisine": "pizza", "name": "Joyride Pizza"}}, {"type": "node", "id": 9996420663, "lat": 37.7836674, "lon": -122.4088539, "tags": {"addr:housenumber": "940", "addr:street": "Market Street", "amenity": "fast_food", "cuisine": "pizza", "name": "Abe's Pizza"}}, {"type": "node", "id": 10000451619, "lat": 37.7961249, "lon": -122.3936978, "tags": {"amenity": "fast_food", "cuisine": "filipino", "diet:vegan": "yes", "diet:vegetarian": "yes", "name": "Se\u00f1or Sisig", "outdoor_seating": "yes", "takeaway": "yes", "website": "https://www.senorsisig.com/", "wheelchair": "yes"}}, {"type": "node", "id": 10007806188, "lat": 37.7817938, "lon": -122.4171045, "tags": {"addr:city": "San Francisco", "addr:housenumber": "418", "addr:state": "CA", "addr:street": "Larkin Street", "amenity": "fast_food", "cuisine": "chinese;dim_sum", "description": "\"Authentic Chinese Food\"", "name": "Emperor's Kitchen", "takeaway": "yes"}}, {"type": "node", "id": 10007847653, "lat": 37.7818917, "lon": -122.4171223, "tags": {"addr:city": "San Francisco", "addr:housenumber": "426", "addr:state": "CA", "addr:street": "Larkin Street", "alt_name": "Hello Sandwich & Noodle", "amenity": "fast_food", "cuisine": "vietnamese;sandwich", "description": "Vietnamese sandwich and noodle", "name": "Hello!"}}, {"type": "node", "id": 10008162923, "lat": 37.7818381, "lon": -122.4171104, "tags": {"addr:city": "San Francisco", "addr:housenumber": "422", "addr:state": "CA", "addr:street": "Larkin Street", "amenity": "fast_food", "check_date": "2022-09-21", "cuisine": "pizza", "name": "Outta Sight Pizza", "outdoor_seating": "no"}}, {"type": "node", "id": 10018909585, "lat": 37.8684661, "lon": -122.296941, "tags": {"amenity": "fast_food", "brand": "Burger King", "brand:wikidata": "Q177054", "cuisine": "burger", "name": "Burger King", "takeaway": "yes"}}, {"type": "node", "id": 10028262811, "lat": 37.7819093, "lon": -122.4101256, "tags": {"addr:city": "San Francisco", "addr:housenumber": "6", "addr:state": "CA", "addr:street": "6th Street", "amenity": "fast_food", "check_date": "2021-08-12", "cuisine": "donut;chicken", "name": "Happy Donut", "outdoor_seating": "no"}}, {"type": "node", "id": 10034263258, "lat": 37.807152, "lon": -122.4157746, "tags": {"addr:housenumber": "2699", "amenity": "fast_food", "cuisine": "sushi", "indoor_seating": "yes", "name": "Sushi GoGo", "outdoor_seating": "no", "website": "www.sushigogo11.com", "wheelchair": "yes"}}, {"type": "node", "id": 10048320949, "lat": 37.8086533, "lon": -122.4115075, "tags": {"amenity": "fast_food", "name": "The Dog House"}}, {"type": "node", "id": 10048320950, "lat": 37.8086082, "lon": -122.4110542, "tags": {"amenity": "fast_food", "name": "Old Tyme Treats"}}, {"type": "node", "id": 10057272382, "lat": 37.7830061, "lon": -122.4190289, "tags": {"addr:city": "San Francisco", "addr:housenumber": "691", "addr:street": "Eddy Street", "amenity": "fast_food", "brand": "Taco Bell", "brand:wikidata": "Q752941", "cuisine": "tex-mex", "name": "Taco Bell", "source": "survey", "takeaway": "yes"}}, {"type": "node", "id": 10057272383, "lat": 37.7829665, "lon": -122.4190187, "tags": {"addr:city": "San Francisco", "addr:housenumber": "691", "addr:street": "Eddy Street", "alt_name": "Kentucky Fried Chicken", "amenity": "fast_food", "brand": "KFC", "brand:wikidata": "Q524757", "cuisine": "chicken", "name": "KFC", "source": "survey", "takeaway": "yes"}}, {"type": "node", "id": 10065602368, "lat": 37.7756362, "lon": -122.418171, "tags": {"addr:city": "San Francisco", "addr:housenumber": "1455", "addr:postcode": "94103", "addr:state": "CA", "addr:street": "Market Street", "amenity": "fast_food", "cuisine": "donut", "name": "Dough"}}, {"type": "node", "id": 10101917516, "lat": 37.7844956, "lon": -122.406099, "tags": {"amenity": "fast_food", "drive_through": "no", "level": "-1", "name": "Buckhorn Grill"}}, {"type": "node", "id": 10128467026, "lat": 37.7900177, "lon": -122.4207091, "tags": {"addr:housenumber": "1431", "addr:street": "Polk Street", "amenity": "fast_food", "cuisine": "mexican", "name": "The Little Chihuahua"}}, {"type": "way", "id": 43313850, "nodes": [544331882, 544331883, 544331884, 544331885, 544331882], "tags": {"addr:housenumber": "1199", "addr:street": "University Avenue", "amenity": "fast_food", "building": "yes", "name": "Foster's Freeze"}}, {"type": "way", "id": 89905464, "nodes": [1042049342, 1042049346, 5070942458, 5070942476, 5070942435, 5070942441, 1042049330, 5070942448, 5070942465, 5070942431, 5070942472, 1042049281, 1042049342], "tags": {"addr:city": "Emeryville", "addr:housenumber": "5701", "addr:state": "CA", "addr:street": "Christie Avenue", "amenity": "fast_food", "brand": "Burger King", "brand:wikidata": "Q177054", "brand:wikipedia": "en:Burger King", "building": "yes", "cuisine": "burger", "name": "Burger King", "takeaway": "yes"}}, {"type": "way", "id": 148285582, "nodes": [1613878590, 1613878592, 1613878589, 1613878587, 1613878590], "tags": {"addr:housenumber": "30", "addr:street": "2nd Street", "amenity": "fast_food", "brand": "Subway", "brand:wikidata": "Q244457", "brand:wikipedia": "en:Subway (restaurant)", "building": "yes", "cuisine": "sandwich", "height": "9", "name": "Subway", "takeaway": "yes"}}, {"type": "way", "id": 220601194, "nodes": [2297033147, 2297033092, 2297033091, 2297033138, 2297033147], "tags": {"addr:housenumber": "1782", "addr:street": "Haight Street", "amenity": "fast_food", "building": "yes", "cuisine": "thai", "name": "What The Cluck", "opening_hours": "Mo-Su 11:00-20:00"}}, {"type": "way", "id": 227005940, "nodes": [2357396674, 2357396668, 2357396677, 2357396682, 2357396674], "tags": {"addr:city": "San Francisco", "addr:housenumber": "1270", "addr:postcode": "94103", "addr:state": "CA", "addr:street": "Mission Street", "amenity": "fast_food", "building": "yes", "cuisine": "pizza", "height": "4", "name": "SF Pizza"}}, {"type": "way", "id": 247957676, "nodes": [2507800813, 2507800843, 2548042624, 2548042622, 2507800813], "tags": {"addr:city": "San Francisco", "addr:country": "US", "addr:housenumber": "397", "addr:postcode": "94103", "addr:street": "8th Street", "amenity": "fast_food", "building": "yes", "cuisine": "burger", "name": "AK Subs", "opening_hours": "Mo-Fr 06:30-16:00", "phone": "415-241-9600", "smoking": "no", "website": "aksubs.net"}}, {"type": "way", "id": 252221778, "nodes": [2583130484, 2583130485, 2583130487, 2583130488, 2583130484], "tags": {"addr:housenumber": "200", "addr:street": "Duboce Avenue", "alt_name": "Kentucky Fried Chicken", "amenity": "fast_food", "brand": "KFC", "brand:wikidata": "Q524757", "brand:wikipedia": "en:KFC", "building": "yes", "cuisine": "chicken", "height": "5", "name": "KFC", "takeaway": "yes"}}, {"type": "way", "id": 256045023, "nodes": [2617441124, 2617441129, 2656266389, 2656266386, 2656266388, 2656266385, 2656266387, 2656266384, 2617441124], "tags": {"addr:city": "San Francisco", "addr:housenumber": "691", "addr:street": "Eddy Street", "amenity": "fast_food", "building": "yes", "height": "5", "name": "KFC & Taco Bell", "source": "survey"}}, {"type": "way", "id": 256462436, "nodes": [2621272506, 2621272510, 2667034285, 2667034287, 2621272511, 7123440425, 7123440424, 2621272507, 2667034279, 2667034283, 2667034281, 2667034278, 2621272506], "tags": {"addr:city": "San Francisco", "addr:housenumber": "302", "addr:postcode": "94103", "addr:street": "Potrero Avenue", "amenity": "fast_food", "brand": "McDonald's", "brand:wikidata": "Q38076", "brand:wikipedia": "en:McDonald's", "building": "yes", "cuisine": "burger", "height": "4", "name": "McDonald's", "source": "survey;bing", "takeaway": "yes"}}, {"type": "way", "id": 256750430, "nodes": [2623846335, 2623839599, 2623839623, 2623846347, 2623839641, 2623839660, 2623839531, 2623846272, 2623839518, 2623839514, 2623846268, 2623839521, 2623846335], "tags": {"addr:city": "San Francisco", "addr:housenumber": "1100", "addr:postcode": "94115", "addr:street": "Fillmore Street", "amenity": "fast_food", "brand": "McDonald's", "brand:wikidata": "Q38076", "brand:wikipedia": "en:McDonald's", "building": "yes", "cuisine": "burger", "height": "4", "name": "McDonald's", "phone": "+1 (415) 923-1138", "takeaway": "yes"}}, {"type": "way", "id": 260506857, "nodes": [2660051383, 2660051380, 2660051378, 2660051373, 2660051370, 2660051368, 2660051364, 2660051365, 2660051369, 2660051366, 2660051371, 2660051374, 2660051375, 2660051377, 2660051379, 2660051382, 2660051383], "tags": {"addr:city": "San Francisco", "addr:country": "US", "addr:housenumber": "170A", "addr:postcode": "94103", "addr:state": "CA", "addr:street": "South Van Ness Avenue", "amenity": "fast_food", "building": "yes", "name": "Liquid Culture"}}, {"type": "way", "id": 361611704, "nodes": [3660717204, 9119045263, 3660717205, 8516379210, 8516379209, 3660717207, 8516379207, 8516379206, 3660717204], "tags": {"addr:city": "Alameda", "addr:country": "US", "addr:housenumber": "555", "addr:postcode": "94501", "addr:state": "CA", "addr:street": "Willie Stargell Ave.", "amenity": "fast_food", "brand": "In-N-Out Burger", "brand:wikidata": "Q1205312", "brand:wikipedia": "en:In-N-Out Burger", "building": "retail", "building:use": "fast_food", "cuisine": "burger", "delivery": "no", "drive_through": "yes", "layer": "1", "name": "In-N-Out Burger", "opening_hours": "10:30-01:00", "outdoor_seating": "yes", "ref": "303", "start_date": "2015-05-14", "store_number": "303", "takeaway": "yes", "website": "https://locations.in-n-out.com/303"}}]}