{"version": 0.6, "generator": "Overpass API 0.7.59 e21c39fe", "osm3s": {"timestamp_osm_base": "2022-11-21T06:37:08Z", "copyright": "The data included in this document is from www.openstreetmap.org. The data is made available under ODbL."}, "elements": [{"type": "node", "id": 212435197, "lat": 37.8455422, "lon": -122.252612, "tags": {"brand": "Trader Joe's", "brand:wikidata": "Q688825", "brand:wikipedia": "en:Trader Joe's", "name": "Trader Joe's", "shop": "supermarket", "website": "https://locations.traderjoes.com/ca/oakland/231/"}}, {"type": "node", "id": 246739578, "lat": 37.8255682, "lon": -122.2090536}, {"type": "node", "id": 246739579, "lat": 37.8253037, "lon": -122.2089573}, {"type": "node", "id": 246739580, "lat": 37.8254394, "lon": -122.2083601}, {"type": "node", "id": 246739581, "lat": 37.8257039, "lon": -122.2084564}, {"type": "node", "id": 251271013, "lat": 37.8567101, "lon": -122.2675978}, {"type": "node", "id": 251271014, "lat": 37.8570632, "lon": -122.2676677}, {"type": "node", "id": 251271015, "lat": 37.8570676, "lon": -122.2676784}, {"type": "node", "id": 251271016, "lat": 37.8572421, "lon": -122.2676123}, {"type": "node", "id": 251271017, "lat": 37.8572196, "lon": -122.2675046}, {"type": "node", "id": 251271018, "lat": 37.8572289, "lon": -122.2675015}, {"type": "node", "id": 251271021, "lat": 37.857273, "lon": -122.2671438}, {"type": "node", "id": 251271022, "lat": 37.8573039, "lon": -122.2671123}, {"type": "node", "id": 251271026, "lat": 37.8573361, "lon": -122.2668981}, {"type": "node", "id": 251271027, "lat": 37.8568013, "lon": -122.2668362}, {"type": "node", "id": 262105255, "lat": 37.9008036, "lon": -122.2987298}, {"type": "node", "id": 262105256, "lat": 37.9010384, "lon": -122.2979725}, {"type": "node", "id": 262105257, "lat": 37.9009379, "lon": -122.2979209}, {"type": "node", "id": 262105258, "lat": 37.9009113, "lon": -122.2980078}, {"type": "node", "id": 262105259, "lat": 37.9005846, "lon": -122.2978403}, {"type": "node", "id": 262105260, "lat": 37.9006146, "lon": -122.2977589}, {"type": "node", "id": 262105261, "lat": 37.9005288, "lon": -122.2977191}, {"type": "node", "id": 262105262, "lat": 37.9005006, "lon": -122.297799}, {"type": "node", "id": 262105263, "lat": 37.9002047, "lon": -122.2976493}, {"type": "node", "id": 262105264, "lat": 37.8999943, "lon": -122.2983171}, {"type": "node", "id": 262105265, "lat": 37.9001044, "lon": -122.2983728}, {"type": "node", "id": 262105266, "lat": 37.900091, "lon": -122.2984152}, {"type": "node", "id": 262105267, "lat": 37.9001544, "lon": -122.2984473}, {"type": "node", "id": 262105268, "lat": 37.9001698, "lon": -122.2983985}, {"type": "node", "id": 262105269, "lat": 37.9006281, "lon": -122.2986311}, {"type": "node", "id": 262105270, "lat": 37.9006129, "lon": -122.2986793}, {"type": "node", "id": 262105271, "lat": 37.9006727, "lon": -122.2987096}, {"type": "node", "id": 262105272, "lat": 37.9006889, "lon": -122.2986583}, {"type": "node", "id": 262105273, "lat": 37.9002154, "lon": -122.2984216}, {"type": "node", "id": 262105274, "lat": 37.9002061, "lon": -122.298451}, {"type": "node", "id": 262105275, "lat": 37.9005875, "lon": -122.2986106}, {"type": "node", "id": 262105276, "lat": 37.9005784, "lon": -122.2986393}, {"type": "node", "id": 262105293, "lat": 37.9010053, "lon": -122.2980717}, {"type": "node", "id": 262257319, "lat": 37.8804487, "lon": -122.2704056}, {"type": "node", "id": 262257320, "lat": 37.8807768, "lon": -122.2704675}, {"type": "node", "id": 262257321, "lat": 37.8806913, "lon": -122.2703316}, {"type": "node", "id": 262257322, "lat": 37.8810026, "lon": -122.2703729}, {"type": "node", "id": 262257323, "lat": 37.8810087, "lon": -122.2702967}, {"type": "node", "id": 262257324, "lat": 37.8810228, "lon": -122.270299}, {"type": "node", "id": 262257325, "lat": 37.8810757, "lon": -122.2697606}, {"type": "node", "id": 262257326, "lat": 37.8809448, "lon": -122.2696537}, {"type": "node", "id": 275513434, "lat": 37.7428959, "lon": -122.4223888}, {"type": "node", "id": 276545898, "lat": 37.7693329, "lon": -122.4154926}, {"type": "node", "id": 276545899, "lat": 37.7692666, "lon": -122.4146292}, {"type": "node", "id": 276545900, "lat": 37.7689868, "lon": -122.4146569}, {"type": "node", "id": 276545901, "lat": 37.7689858, "lon": -122.4148131}, {"type": "node", "id": 281652956, "lat": 37.7679744, "lon": -122.4165852}, {"type": "node", "id": 281652957, "lat": 37.7672095, "lon": -122.4165222}, {"type": "node", "id": 281652958, "lat": 37.76726, "lon": -122.4156472}, {"type": "node", "id": 281652959, "lat": 37.7680342, "lon": -122.4157332}, {"type": "node", "id": 286081303, "lat": 37.8650305, "lon": -122.267112, "tags": {"addr:city": "Berkeley", "addr:housenumber": "2441", "addr:postcode": "94704", "addr:state": "CA", "addr:street": "Shattuck Avenue", "name": "Shattuck Market", "phone": "+1 510-703-0314", "shop": "supermarket", "website": "https://shattuck-market.business.site"}}, {"type": "node", "id": 286131029, "lat": 37.8046226, "lon": -122.4333382}, {"type": "node", "id": 286131030, "lat": 37.8047381, "lon": -122.4324163}, {"type": "node", "id": 286131031, "lat": 37.8042758, "lon": -122.4323235}, {"type": "node", "id": 286131032, "lat": 37.8041617, "lon": -122.4332338}, {"type": "node", "id": 293632937, "lat": 37.7767382, "lon": -122.3942265, "tags": {"addr:city": "San Francisco", "addr:housenumber": "298", "addr:postcode": "94107", "addr:street": "King Street", "brand": "Safeway", "brand:wikidata": "Q1508234", "brand:wikipedia": "en:Safeway Inc.", "designation": "Safeway 2606", "name": "Safeway", "opening_hours": "Su-Sa 05:00-24:00", "ref": "2606", "shop": "supermarket", "website": "https://local.safeway.com/ca/san-francisco-2606.html", "wheelchair": "yes"}}, {"type": "node", "id": 310601138, "lat": 37.7664883, "lon": -122.4096523}, {"type": "node", "id": 310601139, "lat": 37.7664021, "lon": -122.409644}, {"type": "node", "id": 310601153, "lat": 37.7666921, "lon": -122.4089355}, {"type": "node", "id": 310601154, "lat": 37.7672511, "lon": -122.4089754}, {"type": "node", "id": 310601156, "lat": 37.7672579, "lon": -122.408863}, {"type": "node", "id": 310601157, "lat": 37.7673411, "lon": -122.408871}, {"type": "node", "id": 310601158, "lat": 37.7673308, "lon": -122.4090414}, {"type": "node", "id": 310601159, "lat": 37.7673537, "lon": -122.4090436}, {"type": "node", "id": 310973114, "lat": 37.7676863, "lon": -122.2396875, "tags": {"addr:city": "Alameda", "addr:housenumber": "1650", "addr:postcode": "94501", "addr:street": "Park Street", "name": "Alameda Natural Grocery", "phone": "1-510-865-1500", "shop": "supermarket", "website": "http://www.alamedanaturalgrocery.com/"}}, {"type": "node", "id": 318178961, "lat": 37.7436588, "lon": -122.4737199}, {"type": "node", "id": 318178962, "lat": 37.7436412, "lon": -122.4741181}, {"type": "node", "id": 318178963, "lat": 37.7435649, "lon": -122.4741127}, {"type": "node", "id": 318178964, "lat": 37.7434623, "lon": -122.4745098}, {"type": "node", "id": 318178965, "lat": 37.7432102, "lon": -122.4745239}, {"type": "node", "id": 318178967, "lat": 37.7432472, "lon": -122.4736907}, {"type": "node", "id": 332787306, "lat": 37.786265, "lon": -122.4528047, "tags": {"name": "Calmart", "shop": "supermarket", "wheelchair": "yes"}}, {"type": "node", "id": 343311762, "lat": 37.8909942, "lon": -122.2790762}, {"type": "node", "id": 343311763, "lat": 37.891048, "lon": -122.2786826}, {"type": "node", "id": 343311764, "lat": 37.8912778, "lon": -122.278733}, {"type": "node", "id": 343311765, "lat": 37.8913015, "lon": -122.2783203}, {"type": "node", "id": 343311766, "lat": 37.8909379, "lon": -122.2782242}, {"type": "node", "id": 343311767, "lat": 37.8909264, "lon": -122.2783103}, {"type": "node", "id": 343311768, "lat": 37.8909393, "lon": -122.2783319}, {"type": "node", "id": 343311769, "lat": 37.8909028, "lon": -122.2785995}, {"type": "node", "id": 343311770, "lat": 37.8909556, "lon": -122.2786111}, {"type": "node", "id": 343311771, "lat": 37.8909425, "lon": -122.2787065}, {"type": "node", "id": 343311772, "lat": 37.8909302, "lon": -122.2787038}, {"type": "node", "id": 343311773, "lat": 37.8909112, "lon": -122.279058}, {"type": "node", "id": 343311921, "lat": 37.8904558, "lon": -122.2865713}, {"type": "node", "id": 343311922, "lat": 37.8904513, "lon": -122.2865931}, {"type": "node", "id": 343311924, "lat": 37.8901754, "lon": -122.2865223}, {"type": "node", "id": 343311937, "lat": 37.8900829, "lon": -122.2872554}, {"type": "node", "id": 343311942, "lat": 37.8902563, "lon": -122.287313}, {"type": "node", "id": 343311943, "lat": 37.8902755, "lon": -122.2872202}, {"type": "node", "id": 343317788, "lat": 37.8988539, "lon": -122.2995747, "tags": {"addr:city": "El Cerrito", "addr:housenumber": "225", "addr:postcode": "94530", "addr:state": "CA", "addr:street": "El Cerrito Plaza", "brand": "Trader Joe's", "brand:wikidata": "Q688825", "brand:wikipedia": "en:Trader Joe's", "name": "Trader Joe's", "opening_hours": "Mo-Su 08:00-21:00", "phone": "(510) 524-7609", "shop": "supermarket", "website": "https://locations.traderjoes.com/ca/el-cerrito/108/", "wheelchair": "yes"}}, {"type": "node", "id": 350379088, "lat": 37.8841074, "lon": -122.1908206}, {"type": "node", "id": 350379089, "lat": 37.8838607, "lon": -122.1905378}, {"type": "node", "id": 350379091, "lat": 37.8837431, "lon": -122.1905757}, {"type": "node", "id": 350379093, "lat": 37.8833782, "lon": -122.1910503}, {"type": "node", "id": 350379095, "lat": 37.883683, "lon": -122.1914127}, {"type": "node", "id": 350384374, "lat": 37.8835602, "lon": -122.1908133}, {"type": "node", "id": 358058686, "lat": 38.0079644, "lon": -122.2709697}, {"type": "node", "id": 358058687, "lat": 38.0082175, "lon": -122.2701297}, {"type": "node", "id": 358058688, "lat": 38.0075821, "lon": -122.2698212}, {"type": "node", "id": 358058689, "lat": 38.0073289, "lon": -122.2706613}, {"type": "node", "id": 363915431, "lat": 37.8099099, "lon": -122.2443754, "tags": {"brand": "Trader Joe's", "brand:wikidata": "Q688825", "name": "Trader Joe's", "shop": "supermarket"}}, {"type": "node", "id": 364880844, "lat": 37.8812871, "lon": -122.2824995}, {"type": "node", "id": 364880845, "lat": 37.8813827, "lon": -122.2823104}, {"type": "node", "id": 364880846, "lat": 37.8813141, "lon": -122.2822546}, {"type": "node", "id": 364880847, "lat": 37.8813502, "lon": -122.2821832}, {"type": "node", "id": 364880848, "lat": 37.8810977, "lon": -122.2820825}, {"type": "node", "id": 364880849, "lat": 37.8810627, "lon": -122.2821518}, {"type": "node", "id": 364880850, "lat": 37.8810057, "lon": -122.2821055}, {"type": "node", "id": 364880851, "lat": 37.8809463, "lon": -122.2822228}, {"type": "node", "id": 371233599, "lat": 37.7824579, "lon": -122.4318791}, {"type": "node", "id": 389404007, "lat": 37.7811499, "lon": -122.3997789, "tags": {"brand": "Whole Foods Market", "brand:wikidata": "Q1809448", "brand:wikipedia": "en:Whole Foods Market", "name": "Whole Foods Market", "opening_hours": "8:00-20:00", "phone": "415.618.0066", "shop": "supermarket", "website": "https://www.wholefoodsmarket.com/stores/soma"}}, {"type": "node", "id": 393729801, "lat": 37.7835915, "lon": -122.4476773}, {"type": "node", "id": 393729802, "lat": 37.7832277, "lon": -122.4475872}, {"type": "node", "id": 393729803, "lat": 37.7831877, "lon": -122.4480197}, {"type": "node", "id": 393729804, "lat": 37.7835385, "lon": -122.4480914}, {"type": "node", "id": 410243509, "lat": 37.8027213, "lon": -122.2649954, "tags": {"name": "Nature's Best Food", "shop": "supermarket", "wheelchair": "yes"}}, {"type": "node", "id": 411910255, "lat": 37.7765031, "lon": -122.4172584}, {"type": "node", "id": 411910256, "lat": 37.7761861, "lon": -122.4168639}, {"type": "node", "id": 416779714, "lat": 37.8000223, "lon": -122.4416127, "tags": {"addr:city": "San Francisco", "addr:housenumber": "2323", "addr:state": "CA", "addr:street": "Chestnut Street", "name": "Marina Supermarket", "shop": "supermarket", "wheelchair": "yes"}}, {"type": "node", "id": 443521343, "lat": 37.8128526, "lon": -122.261296}, {"type": "node", "id": 443521352, "lat": 37.8124987, "lon": -122.2606709}, {"type": "node", "id": 446235213, "lat": 37.8557421, "lon": -122.2606902}, {"type": "node", "id": 446235215, "lat": 37.855799, "lon": -122.2602646}, {"type": "node", "id": 446235217, "lat": 37.8552391, "lon": -122.2601447}, {"type": "node", "id": 446235219, "lat": 37.8552262, "lon": -122.2606201}, {"type": "node", "id": 459504817, "lat": 37.7606657, "lon": -122.4365592, "tags": {"addr:housenumber": "4201", "addr:street": "18th Street", "name": "Mollie Stone's", "opening_hours": "Mo-Su 07:00-21:00", "phone": "(415) 255-8959", "shop": "supermarket", "website": "https://www.molliestones.com/"}}, {"type": "node", "id": 470780580, "lat": 37.7575336, "lon": -122.2508105, "tags": {"addr:city": "Alameda", "addr:housenumber": "2227", "addr:postcode": "94501", "addr:state": "CA", "addr:street": "South Shore Center", "brand": "Safeway", "brand:wikidata": "Q1508234", "brand:wikipedia": "en:Safeway Inc.", "name": "Safeway", "shop": "supermarket"}}, {"type": "node", "id": 470780581, "lat": 37.7577613, "lon": -122.2514016, "tags": {"addr:city": "Alameda", "addr:housenumber": "2217", "addr:postcode": "94501", "addr:state": "CA", "addr:street": "South Shore Center", "brand": "Trader Joe's", "brand:wikidata": "Q688825", "brand:wikipedia": "en:Trader Joe's", "name": "Trader Joe's", "shop": "supermarket"}}, {"type": "node", "id": 477131697, "lat": 37.8986536, "lon": -122.3071439, "tags": {"addr:postcode": "94804", "alt_name": "Ranch 99 Market", "brand": "99 Ranch Market", "brand:wikidata": "Q4646307", "brand:wikipedia": "en:99 Ranch Market", "cuisine": "asian", "name": "99 Ranch Market", "name:en": "99 Ranch Market", "name:zh-Hans": "\u5927\u534e\u8d85\u7ea7\u5e02\u573a", "name:zh-Hant": "\u5927\u83ef\u8d85\u7d1a\u5e02\u5834", "opening_hours": "Mo-Su 08:00-21:00", "phone": "+15107698899", "shop": "supermarket", "website": "https://www.99ranch.com/stores/richmond", "wheelchair": "limited"}}, {"type": "node", "id": 537501766, "lat": 37.7708354, "lon": -122.4181574}, {"type": "node", "id": 537501767, "lat": 37.770181, "lon": -122.4185049}, {"type": "node", "id": 537501769, "lat": 37.770219, "lon": -122.4187577}, {"type": "node", "id": 537501770, "lat": 37.7708659, "lon": -122.4185617}, {"type": "node", "id": 537501796, "lat": 37.77063, "lon": -122.4186344}, {"type": "node", "id": 537501829, "lat": 37.7707192, "lon": -122.4183405}, {"type": "node", "id": 537501830, "lat": 37.7707039, "lon": -122.4181199}, {"type": "node", "id": 587298135, "lat": 37.9950788, "lon": -122.2870126}, {"type": "node", "id": 612767884, "lat": 37.7986741, "lon": -122.4090015, "tags": {"addr:city": "San Francisco", "addr:country": "US", "addr:housenumber": "1401", "addr:state": "CA", "addr:street": "Stockton Street", "name": "JW & L Market", "name:zh": "\u6046\u8208\u8d85\u7d1a\u5e02\u5834", "phone": "+1 415 3972668", "shop": "supermarket"}}, {"type": "node", "id": 669533769, "lat": 37.8538145, "lon": -122.289775}, {"type": "node", "id": 669533770, "lat": 37.8536169, "lon": -122.2907319}, {"type": "node", "id": 669533771, "lat": 37.8532218, "lon": -122.290601}, {"type": "node", "id": 669533772, "lat": 37.8532039, "lon": -122.2906879}, {"type": "node", "id": 669533773, "lat": 37.8528307, "lon": -122.2905642}, {"type": "node", "id": 669533774, "lat": 37.8529648, "lon": -122.2899156}, {"type": "node", "id": 669533775, "lat": 37.8535852, "lon": -122.2901212}, {"type": "node", "id": 669533777, "lat": 37.8536668, "lon": -122.289726}, {"type": "node", "id": 732040844, "lat": 37.8064387, "lon": -122.41289, "tags": {"addr:city": "San Francisco", "addr:housenumber": "350", "addr:postcode": "94133", "addr:street": "Bay Street", "branch": "1206", "brand": "Safeway", "brand:wikidata": "Q1508234", "brand:wikipedia": "en:Safeway Inc.", "designation": "Safeway 1206", "name": "Safeway", "opening_hours": "06:00-24:00", "shop": "supermarket", "website": "https://local.safeway.com/ca/san-francisco-1206.html"}}, {"type": "node", "id": 746849177, "lat": 37.8551851, "lon": -122.2605491}, {"type": "node", "id": 746849182, "lat": 37.8552343, "lon": -122.2605597}, {"type": "node", "id": 746849197, "lat": 37.8555885, "lon": -122.2606573}, {"type": "node", "id": 761762694, "lat": 37.726601, "lon": -122.4762084, "tags": {"addr:city": "San Francisco", "addr:housenumber": "265", "addr:postcode": "94132", "addr:state": "CA", "addr:street": "Winston Drive", "brand": "Trader Joe's", "brand:wikidata": "Q688825", "brand:wikipedia": "en:Trader Joe's", "name": "Trader Joe's", "opening_hours": "Mo-Su 08:00-21:00", "phone": "+1 415-665-1835", "shop": "supermarket"}}, {"type": "node", "id": 764070894, "lat": 37.7690068, "lon": -122.4155183}, {"type": "node", "id": 775881481, "lat": 37.8717025, "lon": -122.2732154, "tags": {"addr:city": "Berkeley", "addr:country": "US", "addr:housenumber": "1885", "addr:state": "CA", "addr:street": "University Avenue", "brand": "Trader Joe's", "brand:wikidata": "Q688825", "brand:wikipedia": "en:Trader Joe's", "name": "Trader Joe's", "opening_hours": "Mo-Su 08:00-21:00", "phone": "(510) 204-9074", "shop": "supermarket", "website": "https://locations.traderjoes.com/ca/berkeley/186/", "wheelchair": "yes"}}, {"type": "node", "id": 899912771, "lat": 37.8129901, "lon": -122.2611713}, {"type": "node", "id": 903709628, "lat": 37.7632581, "lon": -122.4196733, "tags": {"name": "One $ Store", "shop": "supermarket"}}, {"type": "node", "id": 904141569, "lat": 37.7797642, "lon": -122.4099802, "tags": {"name": "Starco Mart", "organic": "only", "shop": "supermarket"}}, {"type": "node", "id": 910883477, "lat": 37.8683448, "lon": -122.29451, "tags": {"addr:street": "9th Street", "name": "Milan Indian Grocery", "opening_hours": "Tu-Su 09:30-18:00", "shop": "supermarket", "wheelchair": "limited"}}, {"type": "node", "id": 910883497, "lat": 37.8679107, "lon": -122.2919929, "tags": {"addr:street": "San Pablo Avenue", "name": "Mi Tierra", "opening_hours": "Mo-Su 06:30-20:00", "phone": "+15105408946", "shop": "supermarket"}}, {"type": "node", "id": 939010949, "lat": 37.9041156, "lon": -122.27812}, {"type": "node", "id": 939010950, "lat": 37.9041574, "lon": -122.2779651}, {"type": "node", "id": 939010951, "lat": 37.9039677, "lon": -122.2778035}, {"type": "node", "id": 939010952, "lat": 37.9038975, "lon": -122.2780561}, {"type": "node", "id": 988503860, "lat": 37.8812074, "lon": -122.2820672}, {"type": "node", "id": 988503861, "lat": 37.88117, "lon": -122.2821411}, {"type": "node", "id": 992416904, "lat": 37.8992663, "lon": -122.2866819, "tags": {"name": "Colusa Market", "shop": "supermarket"}}, {"type": "node", "id": 1002186270, "lat": 37.7900899, "lon": -122.4234142, "tags": {"addr:city": "San Francisco", "addr:country": "US", "addr:housenumber": "1765", "addr:postcode": "94109", "addr:state": "CA", "addr:street": "California Street", "brand": "Whole Foods Market", "brand:wikidata": "Q1809448", "brand:wikipedia": "en:Whole Foods Market", "name": "Whole Foods Market", "opening_hours": "Mo-Su 08:00-22:00", "phone": "+1 415 674 0500", "shop": "supermarket"}}, {"type": "node", "id": 1042049251, "lat": 37.8369883, "lon": -122.2939699}, {"type": "node", "id": 1042049261, "lat": 37.8368769, "lon": -122.2939617}, {"type": "node", "id": 1042049262, "lat": 37.8371214, "lon": -122.2944341}, {"type": "node", "id": 1042049263, "lat": 37.8370676, "lon": -122.2942436}, {"type": "node", "id": 1042049283, "lat": 37.8371068, "lon": -122.2945055}, {"type": "node", "id": 1042049295, "lat": 37.8372068, "lon": -122.2945395}, {"type": "node", "id": 1042049298, "lat": 37.8367992, "lon": -122.2942963}, {"type": "node", "id": 1042049303, "lat": 37.8368318, "lon": -122.2943675}, {"type": "node", "id": 1042049322, "lat": 37.8372292, "lon": -122.2944283}, {"type": "node", "id": 1042049332, "lat": 37.8368545, "lon": -122.2943508}, {"type": "node", "id": 1042049354, "lat": 37.8368156, "lon": -122.2942846}, {"type": "node", "id": 1096686241, "lat": 37.8276669, "lon": -122.2115868}, {"type": "node", "id": 1096686244, "lat": 37.8273978, "lon": -122.21075}, {"type": "node", "id": 1096686252, "lat": 37.8271964, "lon": -122.2111903}, {"type": "node", "id": 1096686429, "lat": 37.8274127, "lon": -122.2107607}, {"type": "node", "id": 1096686438, "lat": 37.8273894, "lon": -122.2107178}, {"type": "node", "id": 1096686481, "lat": 37.8272954, "lon": -122.2109942}, {"type": "node", "id": 1096686488, "lat": 37.827832, "lon": -122.2112113}, {"type": "node", "id": 1096686681, "lat": 37.8272502, "lon": -122.2109577}, {"type": "node", "id": 1096687254, "lat": 37.8273806, "lon": -122.210696}, {"type": "node", "id": 1096687259, "lat": 37.8278914, "lon": -122.2112649}, {"type": "node", "id": 1140673872, "lat": 37.9904425, "lon": -122.3024404, "tags": {"brand": "Lucky", "brand:wikidata": "Q6698032", "brand:wikipedia": "en:Lucky Stores", "name": "Lucky", "operator:wikidata": "Q7428009", "operator:wikipedia": "en:Save Mart Supermarkets", "shop": "supermarket"}}, {"type": "node", "id": 1140673927, "lat": 37.9902136, "lon": -122.308104, "tags": {"brand": "Grocery Outlet", "brand:wikidata": "Q5609934", "brand:wikipedia": "en:Grocery Outlet", "name": "Grocery Outlet", "official_name": "Grocery Outlet Bargain Market", "shop": "supermarket"}}, {"type": "node", "id": 1205120785, "lat": 37.7367631, "lon": -122.3897193, "tags": {"name": "Super Save", "shop": "supermarket"}}, {"type": "node", "id": 1211031024, "lat": 37.7995987, "lon": -122.2156304}, {"type": "node", "id": 1211031062, "lat": 37.799365, "lon": -122.2157191}, {"type": "node", "id": 1211032560, "lat": 37.7995163, "lon": -122.2163583}, {"type": "node", "id": 1211033767, "lat": 37.79975, "lon": -122.2162696}, {"type": "node", "id": 1213823254, "lat": 37.7709988, "lon": -122.4077368, "tags": {"addr:city": "San Francisco", "addr:housenumber": "555", "addr:postcode": "94103", "addr:state": "CA", "addr:street": "9th Street", "brand": "Trader Joe's", "brand:wikidata": "Q688825", "brand:wikipedia": "en:Trader Joe's", "name": "Trader Joe's", "opening_hours": "Mo-Su 08:00-22:00", "phone": "+1 415-863-1292", "shop": "supermarket", "wheelchair": "yes"}}, {"type": "node", "id": 1221413899, "lat": 37.7418624, "lon": -122.387192, "tags": {"addr:city": "San Francisco", "addr:housenumber": "3801", "addr:postcode": "94124", "addr:state": "CA", "addr:street": "3rd Street", "name": "Lucky", "opening_hours": "06:00-21:00", "operator": "Lucky", "shop": "supermarket", "website": "https://www.luckysupermarkets.com/bayview"}}, {"type": "node", "id": 1246324336, "lat": 37.7969257, "lon": -122.2045574}, {"type": "node", "id": 1250119234, "lat": 37.7968199, "lon": -122.2043437}, {"type": "node", "id": 1250119235, "lat": 37.7969578, "lon": -122.2045164}, {"type": "node", "id": 1250119236, "lat": 37.7969014, "lon": -122.2046622}, {"type": "node", "id": 1250119237, "lat": 37.7966555, "lon": -122.204554}, {"type": "node", "id": 1250119239, "lat": 37.7969618, "lon": -122.2046026}, {"type": "node", "id": 1250119241, "lat": 37.7969724, "lon": -122.2047511}, {"type": "node", "id": 1250119242, "lat": 37.7968934, "lon": -122.204852}, {"type": "node", "id": 1305397495, "lat": 37.8423296, "lon": -122.283254, "tags": {"name": "Gateway Grocery", "shop": "supermarket"}}, {"type": "node", "id": 1315718094, "lat": 37.7833751, "lon": -122.274285}, {"type": "node", "id": 1315718096, "lat": 37.7833217, "lon": -122.2743993}, {"type": "node", "id": 1315718109, "lat": 37.7835466, "lon": -122.2737936}, {"type": "node", "id": 1315718113, "lat": 37.7838454, "lon": -122.2738297}, {"type": "node", "id": 1315718115, "lat": 37.7837598, "lon": -122.2747267}, {"type": "node", "id": 1315718121, "lat": 37.7840312, "lon": -122.2739685}, {"type": "node", "id": 1315718123, "lat": 37.7836515, "lon": -122.2736848}, {"type": "node", "id": 1315718126, "lat": 37.7835145, "lon": -122.2745433}, {"type": "node", "id": 1315718127, "lat": 37.7833322, "lon": -122.274253}, {"type": "node", "id": 1315718129, "lat": 37.7835867, "lon": -122.2738236}, {"type": "node", "id": 1315718133, "lat": 37.7837687, "lon": -122.274531}, {"type": "node", "id": 1315718151, "lat": 37.7838299, "lon": -122.2745767}, {"type": "node", "id": 1316025649, "lat": 37.7758746, "lon": -122.2308509}, {"type": "node", "id": 1316025661, "lat": 37.7760749, "lon": -122.2304267}, {"type": "node", "id": 1316025664, "lat": 37.7757427, "lon": -122.2308036}, {"type": "node", "id": 1316025671, "lat": 37.7751681, "lon": -122.230121}, {"type": "node", "id": 1316025673, "lat": 37.7759376, "lon": -122.2301673}, {"type": "node", "id": 1316025677, "lat": 37.7755276, "lon": -122.2307947}, {"type": "node", "id": 1316025684, "lat": 37.7751978, "lon": -122.2302913}, {"type": "node", "id": 1316025716, "lat": 37.775899, "lon": -122.2300961}, {"type": "node", "id": 1316025797, "lat": 37.7760984, "lon": -122.2305036}, {"type": "node", "id": 1316025822, "lat": 37.7760252, "lon": -122.230448}, {"type": "node", "id": 1316025824, "lat": 37.7757831, "lon": -122.230879}, {"type": "node", "id": 1316025881, "lat": 37.7758957, "lon": -122.2302065}, {"type": "node", "id": 1316025904, "lat": 37.7758781, "lon": -122.2300204}, {"type": "node", "id": 1316025906, "lat": 37.7756367, "lon": -122.2297226}, {"type": "node", "id": 1316025939, "lat": 37.7760003, "lon": -122.2307446}, {"type": "node", "id": 1316026043, "lat": 37.7754851, "lon": -122.2308291}, {"type": "node", "id": 1316026094, "lat": 37.775942, "lon": -122.2306359}, {"type": "node", "id": 1316026136, "lat": 37.7752392, "lon": -122.2302551}, {"type": "node", "id": 1316026143, "lat": 37.7758116, "lon": -122.2300494}, {"type": "node", "id": 1316026146, "lat": 37.7755985, "lon": -122.230927}, {"type": "node", "id": 1316026203, "lat": 37.7755422, "lon": -122.229803}, {"type": "node", "id": 1321244211, "lat": 37.9951545, "lon": -122.2865612}, {"type": "node", "id": 1321244229, "lat": 37.9954479, "lon": -122.2866404}, {"type": "node", "id": 1321244277, "lat": 37.9954367, "lon": -122.2867072}, {"type": "node", "id": 1321244320, "lat": 37.9953722, "lon": -122.2870919}, {"type": "node", "id": 1332033095, "lat": 37.8009578, "lon": -122.2149741}, {"type": "node", "id": 1332033102, "lat": 37.801077, "lon": -122.2151092}, {"type": "node", "id": 1332033170, "lat": 37.8015349, "lon": -122.2155658}, {"type": "node", "id": 1332033196, "lat": 37.8013864, "lon": -122.2149829}, {"type": "node", "id": 1332033209, "lat": 37.8010346, "lon": -122.2149428}, {"type": "node", "id": 1332033211, "lat": 37.8011487, "lon": -122.2157234}, {"type": "node", "id": 1350484814, "lat": 37.7928844, "lon": -122.416234, "tags": {"addr:housenumber": "1263", "addr:postcode": "94109", "addr:street": "Leavenworth Street", "name": "Le Beau Market", "payment:cash": "yes", "payment:credit_cards": "yes", "shop": "supermarket", "source": "personal knowlege"}}, {"type": "node", "id": 1366261149, "lat": 37.7796231, "lon": -122.4075474, "tags": {"name": "Mi Tierra", "shop": "supermarket", "wheelchair": "yes"}}, {"type": "node", "id": 1377221132, "lat": 37.743547, "lon": -122.4745158}, {"type": "node", "id": 1377221133, "lat": 37.7434609, "lon": -122.4745417}, {"type": "node", "id": 1378041461, "lat": 37.8109894, "lon": -122.2439078, "tags": {"name": "Lakeshore Natural Foods", "shop": "supermarket"}}, {"type": "node", "id": 1388235199, "lat": 37.8133919, "lon": -122.2676765}, {"type": "node", "id": 1388235206, "lat": 37.8136721, "lon": -122.2676528}, {"type": "node", "id": 1388235213, "lat": 37.8134604, "lon": -122.2680903}, {"type": "node", "id": 1388235217, "lat": 37.8134462, "lon": -122.2680047}, {"type": "node", "id": 1388235220, "lat": 37.8136422, "lon": -122.2676608}, {"type": "node", "id": 1388235222, "lat": 37.8137326, "lon": -122.2680181}, {"type": "node", "id": 1388235224, "lat": 37.8136341, "lon": -122.2676122}, {"type": "node", "id": 1395461494, "lat": 37.8176204, "lon": -122.2610345}, {"type": "node", "id": 1395461495, "lat": 37.8178247, "lon": -122.2616353}, {"type": "node", "id": 1395461496, "lat": 37.8174178, "lon": -122.2610885}, {"type": "node", "id": 1395461497, "lat": 37.8172258, "lon": -122.2612106}, {"type": "node", "id": 1395461498, "lat": 37.8173189, "lon": -122.2617702}, {"type": "node", "id": 1395461500, "lat": 37.8176347, "lon": -122.2611205}, {"type": "node", "id": 1395461504, "lat": 37.8177346, "lon": -122.2610939}, {"type": "node", "id": 1395461506, "lat": 37.8174291, "lon": -122.2611564}, {"type": "node", "id": 1413800126, "lat": 37.9074126, "lon": -122.3065683}, {"type": "node", "id": 1413800132, "lat": 37.9075385, "lon": -122.3062611}, {"type": "node", "id": 1413800141, "lat": 37.907304, "lon": -122.3061096}, {"type": "node", "id": 1421106376, "lat": 37.8030467, "lon": -122.2683305, "tags": {"name": "E & M Food Market", "note": "Currently closed (March 16, 2014) while moving to new location across the street", "shop": "supermarket", "wheelchair": "yes"}}, {"type": "node", "id": 1478520948, "lat": 37.7965466, "lon": -122.4217072, "tags": {"addr:city": "San Francisco", "addr:housenumber": "2140", "addr:postcode": "94109", "addr:state": "CA", "addr:street": "Polk Street", "alt_name": "The Real Food Co.", "check_date": "2021-08-11", "contact:instagram": "realfoodspolk", "email": "hello@realfoodco.com", "name": "Real Food Company", "opening_hours": "Mo-Su 8:00-21:00", "opening_hours:url": "https://www.realfoodco.com/", "organic": "yes", "phone": "+1 415 6737420", "shop": "supermarket", "website": "https://www.realfoodco.com/"}}, {"type": "node", "id": 1478543322, "lat": 37.8809789, "lon": -122.2884199}, {"type": "node", "id": 1478543328, "lat": 37.8808466, "lon": -122.2887793}, {"type": "node", "id": 1478543345, "lat": 37.8810466, "lon": -122.2886975}, {"type": "node", "id": 1640101688, "lat": 37.7295906, "lon": -122.3987257}, {"type": "node", "id": 1640101706, "lat": 37.7299571, "lon": -122.3984362}, {"type": "node", "id": 1643851282, "lat": 37.7377092, "lon": -122.239576, "tags": {"air_conditioning": "yes", "name": "Safeway", "shop": "supermarket"}}, {"type": "node", "id": 1669811032, "lat": 37.8699429, "lon": -122.2922014, "tags": {"name": "99 cent store", "shop": "supermarket", "website": "https://99only.com/stores/berkeley-san-pablo-ave-289"}}, {"type": "node", "id": 1671449579, "lat": 37.8926677, "lon": -122.1197517}, {"type": "node", "id": 1671449584, "lat": 37.8926285, "lon": -122.1197436}, {"type": "node", "id": 1671449586, "lat": 37.8927279, "lon": -122.1189752}, {"type": "node", "id": 1671449588, "lat": 37.8931739, "lon": -122.1190678}, {"type": "node", "id": 1671449591, "lat": 37.8929437, "lon": -122.1198977}, {"type": "node", "id": 1671449593, "lat": 37.8927801, "lon": -122.1189246}, {"type": "node", "id": 1671449595, "lat": 37.8930552, "lon": -122.1199859}, {"type": "node", "id": 1671449597, "lat": 37.8929355, "lon": -122.1199611}, {"type": "node", "id": 1671449598, "lat": 37.8926565, "lon": -122.119838}, {"type": "node", "id": 1671449601, "lat": 37.8928226, "lon": -122.1189949}, {"type": "node", "id": 1706618868, "lat": 37.7761053, "lon": -122.4459793, "tags": {"addr:city": "San Francisco", "addr:country": "US", "addr:housenumber": "1750", "addr:postcode": "94117", "addr:state": "CA", "addr:street": "Fulton Street", "alt_name": "Fulton Market", "brand": "Lucky", "brand:wikidata": "Q6698032", "brand:wikipedia": "en:Lucky Stores", "name": "Lucky", "old_name": "Petrini Market", "opening_hours": "Mo-Su 07:00-22:00", "shop": "supermarket"}}, {"type": "node", "id": 1707556416, "lat": 37.811192, "lon": -122.1971997, "tags": {"addr:housenumber": "5000", "addr:street": "Woodminster Lane", "name": "Woodminster Market", "shop": "supermarket"}}, {"type": "node", "id": 1723375479, "lat": 37.7690956, "lon": -122.428969}, {"type": "node", "id": 1776778096, "lat": 37.7227631, "lon": -122.156127}, {"type": "node", "id": 1779680166, "lat": 37.8751977, "lon": -122.4598234, "tags": {"name": "Woodland Market", "shop": "supermarket", "wheelchair": "yes"}}, {"type": "node", "id": 1803661669, "lat": 37.7689766, "lon": -122.4151784}, {"type": "node", "id": 1803661671, "lat": 37.7689904, "lon": -122.4150092}, {"type": "node", "id": 1803661672, "lat": 37.7689123, "lon": -122.4148112}, {"type": "node", "id": 1803661674, "lat": 37.7687992, "lon": -122.4151657}, {"type": "node", "id": 1803661675, "lat": 37.7689925, "lon": -122.4151795}, {"type": "node", "id": 1803661676, "lat": 37.7687892, "lon": -122.415501}, {"type": "node", "id": 1803661678, "lat": 37.7689111, "lon": -122.4150064}, {"type": "node", "id": 1819811637, "lat": 37.7821021, "lon": -122.4653403}, {"type": "node", "id": 1819811638, "lat": 37.7821299, "lon": -122.4649765}, {"type": "node", "id": 1819811648, "lat": 37.7823784, "lon": -122.4649935}, {"type": "node", "id": 1819811654, "lat": 37.7824584, "lon": -122.465369}, {"type": "node", "id": 1819811655, "lat": 37.782474, "lon": -122.465004}, {"type": "node", "id": 1924130352, "lat": 37.7237981, "lon": -122.4546813, "tags": {"addr:housenumber": "1150", "addr:postcode": "94112", "addr:street": "Ocean Avenue", "brand": "Whole Foods Market", "brand:wikidata": "Q1809448", "brand:wikipedia": "en:Whole Foods Market", "contact:phone": "+1 (415) 333-7400", "name": "Whole Foods Market", "shop": "supermarket"}}, {"type": "node", "id": 1966450788, "lat": 37.8807765, "lon": -122.2885032}, {"type": "node", "id": 2019596502, "lat": 37.9005132, "lon": -122.2977591}, {"type": "node", "id": 2034102824, "lat": 37.8252807, "lon": -122.252621}, {"type": "node", "id": 2047570603, "lat": 37.7504228, "lon": -122.4181255, "tags": {"addr:housenumber": "2909", "addr:street": "Mission Street", "name": "Casa Guadalupe", "shop": "supermarket"}}, {"type": "node", "id": 2047570604, "lat": 37.7492129, "lon": -122.4180336, "tags": {"name": "Casa Guadalupe", "shop": "supermarket", "wheelchair": "limited"}}, {"type": "node", "id": 2050131394, "lat": 37.7522423, "lon": -122.4205203, "tags": {"addr:housenumber": "1299", "addr:street": "Valencia Street", "name": "Valencia Farmers Market", "shop": "supermarket"}}, {"type": "node", "id": 2054170689, "lat": 37.7518683, "lon": -122.4306687}, {"type": "node", "id": 2054170700, "lat": 37.7518413, "lon": -122.4311146}, {"type": "node", "id": 2054170702, "lat": 37.7521619, "lon": -122.430697}, {"type": "node", "id": 2054170704, "lat": 37.752135, "lon": -122.4311429}, {"type": "node", "id": 2059226347, "lat": 37.7303902, "lon": -122.4051055, "tags": {"name": "San Bruno Supermarket", "shop": "supermarket"}}, {"type": "node", "id": 2061466447, "lat": 37.7233351, "lon": -122.1566098}, {"type": "node", "id": 2061466448, "lat": 37.7227968, "lon": -122.1562635}, {"type": "node", "id": 2061466451, "lat": 37.7233729, "lon": -122.1565155}, {"type": "node", "id": 2069159598, "lat": 37.7570365, "lon": -122.4209796, "tags": {"addr:housenumber": "999", "addr:street": "Valencia Street", "name": "Valencia Whole Foods", "shop": "supermarket"}}, {"type": "node", "id": 2078333126, "lat": 37.7346227, "lon": -122.4337115, "tags": {"name": "Buddies Market", "shop": "supermarket"}}, {"type": "node", "id": 2095919655, "lat": 37.7302007, "lon": -122.429136}, {"type": "node", "id": 2095938862, "lat": 37.7301126, "lon": -122.4287874}, {"type": "node", "id": 2130264969, "lat": 37.8054807, "lon": -122.4137896, "tags": {"addr:city": "San Francisco", "addr:housenumber": "401", "addr:postcode": "94133", "addr:state": "CA", "addr:street": "Bay Street", "brand": "Trader Joe's", "brand:wikidata": "Q688825", "brand:wikipedia": "en:Trader Joe's", "name": "Trader Joe's", "opening_hours": "Mo-Su 08:00-21:00", "phone": "+1 415-351-1013", "shop": "supermarket"}}, {"type": "node", "id": 2184767720, "lat": 37.7852546, "lon": -122.4310324, "tags": {"addr:city": "San Francisco", "addr:housenumber": "1737", "addr:postcode": "94115", "addr:state": "CA", "addr:street": "Post Street", "addr:unit": "#333", "brand:wikidata": "Q24566947", "brand:wikipedia": "en:Nijiya Market", "cuisine": "japanese", "level": "0", "name": "Nijiya Market", "opening_hours": "Mo-Su 10:00-20:00", "opening_hours:url": "https://www.nijiya.com/store-location", "organic": "yes", "phone": "+1 415 5631901", "shop": "supermarket", "website": "https://www.nijiya.com/", "wheelchair": "yes", "wikimedia_commons": "Category:Nijiya Market (San Francisco store)"}}, {"type": "node", "id": 2184790554, "lat": 37.7907686, "lon": -122.4179305, "tags": {"addr:city": "San Francisco", "addr:housenumber": "1095", "addr:postcode": "94109", "addr:state": "CA", "addr:street": "Hyde Street", "brand": "Trader Joe's", "brand:wikidata": "Q688825", "brand:wikipedia": "en:Trader Joe's", "name": "Trader Joe's", "opening_hours": "Mo-Su 08:00-22:00", "phone": "+1 415-292-7665", "shop": "supermarket"}}, {"type": "node", "id": 2206275695, "lat": 37.8903782, "lon": -122.2872543}, {"type": "node", "id": 2206275696, "lat": 37.8905155, "lon": -122.2865911}, {"type": "node", "id": 2206283678, "lat": 37.8912797, "lon": -122.2786997, "tags": {"entrance": "yes"}}, {"type": "node", "id": 2206283690, "lat": 37.8909513, "lon": -122.2786422, "tags": {"entrance": "yes"}}, {"type": "node", "id": 2220082604, "lat": 37.7959769, "lon": -122.4149018, "tags": {"addr:city": "San Francisco", "addr:street": "Jones Street", "name": "New Russian Hill Market", "shop": "supermarket"}}, {"type": "node", "id": 2240227436, "lat": 37.8171668, "lon": -122.2459357}, {"type": "node", "id": 2240227554, "lat": 37.8171773, "lon": -122.2459991}, {"type": "node", "id": 2242837160, "lat": 37.8807914, "lon": -122.2695882}, {"type": "node", "id": 2242837165, "lat": 37.880621, "lon": -122.2695244}, {"type": "node", "id": 2242837168, "lat": 37.8808657, "lon": -122.2696212}, {"type": "node", "id": 2282647804, "lat": 37.782928, "lon": -122.4319648}, {"type": "node", "id": 2282647806, "lat": 37.7830319, "lon": -122.4311293}, {"type": "node", "id": 2282647807, "lat": 37.7824894, "lon": -122.4316353}, {"type": "node", "id": 2282647810, "lat": 37.7825633, "lon": -122.4310618}, {"type": "node", "id": 2282647813, "lat": 37.78307, "lon": -122.4312996}, {"type": "node", "id": 2282647814, "lat": 37.7830141, "lon": -122.431288}, {"type": "node", "id": 2282647815, "lat": 37.7829484, "lon": -122.4318096}, {"type": "node", "id": 2282647817, "lat": 37.7824226, "lon": -122.4313783}, {"type": "node", "id": 2282647818, "lat": 37.7824603, "lon": -122.4310423}, {"type": "node", "id": 2282647819, "lat": 37.7825668, "lon": -122.4310345}, {"type": "node", "id": 2282647820, "lat": 37.7830065, "lon": -122.4318159}, {"type": "node", "id": 2282647824, "lat": 37.7825207, "lon": -122.4313928}, {"type": "node", "id": 2282680192, "lat": 37.73111, "lon": -122.450356}, {"type": "node", "id": 2282680196, "lat": 37.7311261, "lon": -122.4497847}, {"type": "node", "id": 2282680197, "lat": 37.7310722, "lon": -122.4499886}, {"type": "node", "id": 2282680198, "lat": 37.7311371, "lon": -122.4497848}, {"type": "node", "id": 2282680202, "lat": 37.731409, "lon": -122.4497476}, {"type": "node", "id": 2282680206, "lat": 37.7311263, "lon": -122.4497456}, {"type": "node", "id": 2282680211, "lat": 37.7314079, "lon": -122.4503555}, {"type": "node", "id": 2282680212, "lat": 37.7311105, "lon": -122.4499886}, {"type": "node", "id": 2282680235, "lat": 37.7311369, "lon": -122.4498258}, {"type": "node", "id": 2282680238, "lat": 37.7310722, "lon": -122.4498256}, {"type": "node", "id": 2282681693, "lat": 37.7433621, "lon": -122.4220867}, {"type": "node", "id": 2282681700, "lat": 37.7434679, "lon": -122.4223476}, {"type": "node", "id": 2282789014, "lat": 37.7433438, "lon": -122.4386015}, {"type": "node", "id": 2282789020, "lat": 37.7433598, "lon": -122.4388627}, {"type": "node", "id": 2282789021, "lat": 37.7433163, "lon": -122.4393339}, {"type": "node", "id": 2282789026, "lat": 37.7432879, "lon": -122.4388697}, {"type": "node", "id": 2282794078, "lat": 37.7744839, "lon": -122.4658527}, {"type": "node", "id": 2282794079, "lat": 37.7746281, "lon": -122.4654338}, {"type": "node", "id": 2282794081, "lat": 37.7746387, "lon": -122.4652327}, {"type": "node", "id": 2282794083, "lat": 37.7746726, "lon": -122.4651281}, {"type": "node", "id": 2282794085, "lat": 37.7746306, "lon": -122.4653561}, {"type": "node", "id": 2282794090, "lat": 37.7745487, "lon": -122.4650638}, {"type": "node", "id": 2282794092, "lat": 37.7746348, "lon": -122.4652922}, {"type": "node", "id": 2282794093, "lat": 37.7746412, "lon": -122.4651629}, {"type": "node", "id": 2282794094, "lat": 37.7746385, "lon": -122.4654341}, {"type": "node", "id": 2282794095, "lat": 37.7743926, "lon": -122.4658519}, {"type": "node", "id": 2282794097, "lat": 37.7746493, "lon": -122.4652355}, {"type": "node", "id": 2282794098, "lat": 37.7745485, "lon": -122.465013}, {"type": "node", "id": 2282794101, "lat": 37.7742824, "lon": -122.4658401}, {"type": "node", "id": 2282794103, "lat": 37.7746115, "lon": -122.4650476}, {"type": "node", "id": 2282794106, "lat": 37.7744426, "lon": -122.465847, "tags": {"barrier": "gate"}}, {"type": "node", "id": 2282794112, "lat": 37.7746164, "lon": -122.4658629}, {"type": "node", "id": 2282794113, "lat": 37.7743211, "lon": -122.4649966}, {"type": "node", "id": 2282794114, "lat": 37.7746451, "lon": -122.4652976}, {"type": "node", "id": 2282794117, "lat": 37.7746624, "lon": -122.4650637}, {"type": "node", "id": 2282794118, "lat": 37.7746069, "lon": -122.465066}, {"type": "node", "id": 2282794119, "lat": 37.7746434, "lon": -122.4653562}, {"type": "node", "id": 2282799645, "lat": 37.8042499, "lon": -122.432959}, {"type": "node", "id": 2282799648, "lat": 37.8042141, "lon": -122.4332443}, {"type": "node", "id": 2282799649, "lat": 37.8042746, "lon": -122.4332683}, {"type": "node", "id": 2282799654, "lat": 37.8043118, "lon": -122.4329714}, {"type": "node", "id": 2282801961, "lat": 37.7689283, "lon": -122.4277704}, {"type": "node", "id": 2282801963, "lat": 37.7688315, "lon": -122.4278849}, {"type": "node", "id": 2282801964, "lat": 37.7690313, "lon": -122.4277337}, {"type": "node", "id": 2282801965, "lat": 37.768776, "lon": -122.4287807}, {"type": "node", "id": 2282801966, "lat": 37.7694442, "lon": -122.4277087}, {"type": "node", "id": 2282801967, "lat": 37.7688809, "lon": -122.4278898}, {"type": "node", "id": 2282801970, "lat": 37.7690354, "lon": -122.4276681}, {"type": "node", "id": 2282801971, "lat": 37.7691052, "lon": -122.4288134}, {"type": "node", "id": 2282804190, "lat": 37.7664463, "lon": -122.4089143}, {"type": "node", "id": 2287736967, "lat": 37.7435607, "lon": -122.4737129}, {"type": "node", "id": 2287770995, "lat": 37.7433115, "lon": -122.4736953}, {"type": "node", "id": 2287770996, "lat": 37.7432632, "lon": -122.4745277}, {"type": "node", "id": 2287770997, "lat": 37.7435973, "lon": -122.4737155}, {"type": "node", "id": 2287770998, "lat": 37.7436527, "lon": -122.473857}, {"type": "node", "id": 2287771001, "lat": 37.7432428, "lon": -122.4737887}, {"type": "node", "id": 2287771002, "lat": 37.7432152, "lon": -122.4744116}, {"type": "node", "id": 2294690551, "lat": 37.7693293, "lon": -122.4529985}, {"type": "node", "id": 2294690553, "lat": 37.7696717, "lon": -122.4525122}, {"type": "node", "id": 2294690556, "lat": 37.7697063, "lon": -122.453077}, {"type": "node", "id": 2294690561, "lat": 37.7697769, "lon": -122.4525341}, {"type": "node", "id": 2301267523, "lat": 37.8258361, "lon": -122.2530079}, {"type": "node", "id": 2301267530, "lat": 37.8254993, "lon": -122.2523707}, {"type": "node", "id": 2303037496, "lat": 37.7949012, "lon": -122.3928736, "tags": {"addr:city": "San Francisco", "addr:housename": "38C South Entrance", "addr:housenumber": "1", "addr:postcode": "94111", "addr:street": "Ferry Plaza", "name": "Buyer's Best Friend Wholesale & Market", "operator": "Buyer's Best Friend", "payment:bitcoin": "yes", "shop": "supermarket", "wheelchair": "yes"}}, {"type": "node", "id": 2321151156, "lat": 37.7521403, "lon": -122.4310542}, {"type": "node", "id": 2321151157, "lat": 37.7521548, "lon": -122.4308141}, {"type": "node", "id": 2321151158, "lat": 37.7521876, "lon": -122.4310073}, {"type": "node", "id": 2321151160, "lat": 37.7521966, "lon": -122.4308727}, {"type": "node", "id": 2338835471, "lat": 37.777716, "lon": -122.43816, "tags": {"addr:city": "San Francisco", "addr:housenumber": "860", "addr:postcode": "94117", "addr:state": "CA", "addr:street": "Divisadero Street", "name": "Green Earth", "opening_hours": "Mo-Su 09:00-21:00", "shop": "supermarket", "website": "http://www.greenearthnaturalfoods.com/"}}, {"type": "node", "id": 2338865775, "lat": 37.7387895, "lon": -122.4165863}, {"type": "node", "id": 2338865776, "lat": 37.7388058, "lon": -122.4167762}, {"type": "node", "id": 2338865787, "lat": 37.7389844, "lon": -122.4165595}, {"type": "node", "id": 2338865788, "lat": 37.7390009, "lon": -122.4167478}, {"type": "node", "id": 2368783178, "lat": 37.769376, "lon": -122.4526389}, {"type": "node", "id": 2368784957, "lat": 37.7696608, "lon": -122.4525962}, {"type": "node", "id": 2368791978, "lat": 37.7696463, "lon": -122.4525932}, {"type": "node", "id": 2368791980, "lat": 37.7696334, "lon": -122.4526924}, {"type": "node", "id": 2399950826, "lat": 37.7436057, "lon": -122.4226174}, {"type": "node", "id": 2399950838, "lat": 37.7430726, "lon": -122.4228166}, {"type": "node", "id": 2399950876, "lat": 37.7435329, "lon": -122.4223055}, {"type": "node", "id": 2406528006, "lat": 37.7994524, "lon": -122.2537192}, {"type": "node", "id": 2406528007, "lat": 37.7995075, "lon": -122.2536334}, {"type": "node", "id": 2406528008, "lat": 37.7997703, "lon": -122.2534831}, {"type": "node", "id": 2406528009, "lat": 37.7992404, "lon": -122.2528763}, {"type": "node", "id": 2406528010, "lat": 37.7989501, "lon": -122.2532733}, {"type": "node", "id": 2406528011, "lat": 37.7994163, "lon": -122.2537748}, {"type": "node", "id": 2412716300, "lat": 37.7991623, "lon": -122.2664057, "tags": {"addr:housename": "hk outlets", "addr:housenumber": "178", "addr:postcode": "94607", "addr:street": "10th Street", "name": "hk outlets", "shop": "supermarket"}}, {"type": "node", "id": 2416941915, "lat": 37.7994307, "lon": -122.267846, "tags": {"addr:housenumber": "241", "addr:street": "10th Street", "name": "Hometown Grocery", "shop": "supermarket"}}, {"type": "node", "id": 2416945139, "lat": 37.8002901, "lon": -122.2700186, "tags": {"addr:housenumber": "325", "addr:street": "10th Street", "name": "LG Supermarket", "shop": "supermarket"}}, {"type": "node", "id": 2430288254, "lat": 37.772945, "lon": -122.430492, "tags": {"addr:city": "San Francisco", "addr:housenumber": "378", "addr:postcode": "94117", "addr:street": "Fillmore Street", "name": "Abes Market", "shop": "supermarket"}}, {"type": "node", "id": 2445180639, "lat": 37.7936065, "lon": -122.2006562}, {"type": "node", "id": 2445180640, "lat": 37.793446, "lon": -122.2005041}, {"type": "node", "id": 2445180641, "lat": 37.7933297, "lon": -122.2007005}, {"type": "node", "id": 2445180642, "lat": 37.7933371, "lon": -122.2007075}, {"type": "node", "id": 2445180643, "lat": 37.7933034, "lon": -122.2007645}, {"type": "node", "id": 2445180644, "lat": 37.7934473, "lon": -122.2009009}, {"type": "node", "id": 2445180645, "lat": 37.7934816, "lon": -122.200843}, {"type": "node", "id": 2445180646, "lat": 37.7934908, "lon": -122.2008517}, {"type": "node", "id": 2450063797, "lat": 37.7769666, "lon": -122.275019}, {"type": "node", "id": 2450063798, "lat": 37.7765056, "lon": -122.2745988}, {"type": "node", "id": 2450063800, "lat": 37.7765017, "lon": -122.2750369}, {"type": "node", "id": 2450063801, "lat": 37.7769434, "lon": -122.2745494}, {"type": "node", "id": 2475053697, "lat": 37.7235449, "lon": -122.1560962}, {"type": "node", "id": 2475053701, "lat": 37.7229989, "lon": -122.1557208}, {"type": "node", "id": 2475053703, "lat": 37.7230795, "lon": -122.1557815}, {"type": "node", "id": 2475053704, "lat": 37.7229415, "lon": -122.1556839}, {"type": "node", "id": 2475053706, "lat": 37.7230604, "lon": -122.155829}, {"type": "node", "id": 2475053708, "lat": 37.7234547, "lon": -122.1565691}, {"type": "node", "id": 2475053710, "lat": 37.7233937, "lon": -122.1560475}, {"type": "node", "id": 2475053713, "lat": 37.7234732, "lon": -122.1560987}, {"type": "node", "id": 2475053715, "lat": 37.7233524, "lon": -122.1565669}, {"type": "node", "id": 2475053717, "lat": 37.7229769, "lon": -122.1557753}, {"type": "node", "id": 2475053719, "lat": 37.723491, "lon": -122.1560544}, {"type": "node", "id": 2475053724, "lat": 37.7234141, "lon": -122.1559968}, {"type": "node", "id": 2475053726, "lat": 37.7234344, "lon": -122.1566196}, {"type": "node", "id": 2475068218, "lat": 37.7343945, "lon": -122.1520975}, {"type": "node", "id": 2475068220, "lat": 37.7341969, "lon": -122.1525716}, {"type": "node", "id": 2475068222, "lat": 37.7344469, "lon": -122.1520594}, {"type": "node", "id": 2475068224, "lat": 37.734233, "lon": -122.1524965}, {"type": "node", "id": 2475068225, "lat": 37.7344016, "lon": -122.1528264}, {"type": "node", "id": 2475068227, "lat": 37.7344409, "lon": -122.1527419}, {"type": "node", "id": 2475068228, "lat": 37.7344176, "lon": -122.1521169}, {"type": "node", "id": 2475068230, "lat": 37.7342054, "lon": -122.1524777}, {"type": "node", "id": 2475068231, "lat": 37.7344865, "lon": -122.1528881}, {"type": "node", "id": 2475068233, "lat": 37.734776, "lon": -122.1522859}, {"type": "node", "id": 2475998084, "lat": 37.8701314, "lon": -122.3013572, "tags": {"addr:city": "Berkeley", "addr:housenumber": "1786", "addr:postcode": "94710", "addr:state": "CA", "addr:street": "Fourth Street", "contact:instagram": "https://www.instagram.com/markethallfoods", "name": "Market Hall Foods", "opening_hours": "Mo-Su 10:00-16:00", "phone": "+1-510-250-6004", "shop": "supermarket", "website": "https://www.markethallfoodson4th.com/"}}, {"type": "node", "id": 2479681841, "lat": 37.7687435, "lon": -122.4270651, "tags": {"addr:housenumber": "2001", "addr:postcode": "94114", "addr:street": "Market Street", "brand": "Whole Foods Market", "brand:wikidata": "Q1809448", "brand:wikipedia": "en:Whole Foods Market", "name": "Whole Foods Market", "opening_hours": "Mo-Su 08:00-22:00", "phone": "+1 (510) 428-7400", "shop": "supermarket", "website": "https://www.wholefoodsmarket.com/stores/2001marketstreet"}}, {"type": "node", "id": 2482042060, "lat": 37.9944467, "lon": -122.3035438}, {"type": "node", "id": 2482042062, "lat": 37.994509, "lon": -122.3035782}, {"type": "node", "id": 2482042064, "lat": 37.9941696, "lon": -122.3043318}, {"type": "node", "id": 2482042067, "lat": 37.994449, "lon": -122.3035837}, {"type": "node", "id": 2482042068, "lat": 37.9945257, "lon": -122.3038695}, {"type": "node", "id": 2482042069, "lat": 37.9940862, "lon": -122.3043395}, {"type": "node", "id": 2482042075, "lat": 37.9940977, "lon": -122.3045373}, {"type": "node", "id": 2482042077, "lat": 37.9945625, "lon": -122.3045049}, {"type": "node", "id": 2482042078, "lat": 37.9941261, "lon": -122.3035734}, {"type": "node", "id": 2482042079, "lat": 37.9945541, "lon": -122.3043662}, {"type": "node", "id": 2482042081, "lat": 37.9945498, "lon": -122.3038673}, {"type": "node", "id": 2482042082, "lat": 37.9945781, "lon": -122.304364}, {"type": "node", "id": 2487652502, "lat": 37.8506081, "lon": -122.25203, "tags": {"addr:city": "Oakland", "addr:housenumber": "6310", "addr:postcode": "94618", "addr:street": "College Avenue", "brand": "Safeway", "brand:wikidata": "Q1508234", "brand:wikipedia": "en:Safeway Inc.", "level": "0", "name": "Safeway", "opening_hours": "Mo-Su 05:00-00:00", "phone": "+15109850012", "shop": "supermarket", "website": "https://local.safeway.com/safeway/ca/oakland/6310-college-ave.html", "wheelchair": "yes"}}, {"type": "node", "id": 2487698379, "lat": 37.7984154, "lon": -122.1827989}, {"type": "node", "id": 2487698383, "lat": 37.7986622, "lon": -122.1824165}, {"type": "node", "id": 2487698386, "lat": 37.7986411, "lon": -122.1825521}, {"type": "node", "id": 2487698389, "lat": 37.798444, "lon": -122.1827345}, {"type": "node", "id": 2487698392, "lat": 37.7986018, "lon": -122.1823575}, {"type": "node", "id": 2487698396, "lat": 37.7982733, "lon": -122.1820571}, {"type": "node", "id": 2487698399, "lat": 37.798623, "lon": -122.1825587}, {"type": "node", "id": 2487698402, "lat": 37.798444, "lon": -122.1822423}, {"type": "node", "id": 2487698406, "lat": 37.7980477, "lon": -122.1824234}, {"type": "node", "id": 2487698409, "lat": 37.7985838, "lon": -122.1823884}, {"type": "node", "id": 2487698412, "lat": 37.7985838, "lon": -122.1825171}, {"type": "node", "id": 2487698415, "lat": 37.7986273, "lon": -122.1825521}, {"type": "node", "id": 2487698418, "lat": 37.7984376, "lon": -122.1822529}, {"type": "node", "id": 2487698420, "lat": 37.7984514, "lon": -122.1827439}, {"type": "node", "id": 2487709688, "lat": 37.8172012, "lon": -122.245435}, {"type": "node", "id": 2487709689, "lat": 37.81743, "lon": -122.2454082}, {"type": "node", "id": 2487709690, "lat": 37.8175741, "lon": -122.2458145}, {"type": "node", "id": 2487709691, "lat": 37.8172861, "lon": -122.2453991}, {"type": "node", "id": 2487709692, "lat": 37.817197, "lon": -122.2454229}, {"type": "node", "id": 2487709693, "lat": 37.8176569, "lon": -122.2458219}, {"type": "node", "id": 2487709694, "lat": 37.8170719, "lon": -122.2454699}, {"type": "node", "id": 2487709695, "lat": 37.8174216, "lon": -122.2454108}, {"type": "node", "id": 2487709696, "lat": 37.8175286, "lon": -122.2457367}, {"type": "node", "id": 2487709697, "lat": 37.8172902, "lon": -122.2454068}, {"type": "node", "id": 2487709698, "lat": 37.8176409, "lon": -122.2457609}, {"type": "node", "id": 2487709699, "lat": 37.8174201, "lon": -122.245359}, {"type": "node", "id": 2487709700, "lat": 37.8174671, "lon": -122.2456294}, {"type": "node", "id": 2487709701, "lat": 37.8174968, "lon": -122.2456254}, {"type": "node", "id": 2509602338, "lat": 37.7759084, "lon": -122.4116478}, {"type": "node", "id": 2509602395, "lat": 37.7758048, "lon": -122.4117803}, {"type": "node", "id": 2509602403, "lat": 37.7758757, "lon": -122.411869}, {"type": "node", "id": 2509602414, "lat": 37.7758355, "lon": -122.4115565}, {"type": "node", "id": 2509602439, "lat": 37.7760661, "lon": -122.4116253}, {"type": "node", "id": 2509602452, "lat": 37.7759224, "lon": -122.4114454}, {"type": "node", "id": 2583430058, "lat": 37.8362874, "lon": -122.1279714}, {"type": "node", "id": 2583430063, "lat": 37.8359705, "lon": -122.1284342}, {"type": "node", "id": 2583430069, "lat": 37.8364852, "lon": -122.1288016}, {"type": "node", "id": 2583430076, "lat": 37.8367352, "lon": -122.1285576}, {"type": "node", "id": 2583430078, "lat": 37.8359595, "lon": -122.128286}, {"type": "node", "id": 2583430101, "lat": 37.8363348, "lon": -122.128984}, {"type": "node", "id": 2583430146, "lat": 37.8359281, "lon": -122.1283162}, {"type": "node", "id": 2583430151, "lat": 37.836409, "lon": -122.1278548}, {"type": "node", "id": 2583430157, "lat": 37.8365022, "lon": -122.1288258}, {"type": "node", "id": 2583430159, "lat": 37.8359917, "lon": -122.1284181}, {"type": "node", "id": 2583430172, "lat": 37.836267, "lon": -122.1288553}, {"type": "node", "id": 2583430177, "lat": 37.8365128, "lon": -122.1281981}, {"type": "node", "id": 2583430187, "lat": 37.8362459, "lon": -122.1288794}, {"type": "node", "id": 2583430202, "lat": 37.8365784, "lon": -122.1281338}, {"type": "node", "id": 2587325153, "lat": 38.0009628, "lon": -122.132721}, {"type": "node", "id": 2587325154, "lat": 38.001075, "lon": -122.133304}, {"type": "node", "id": 2587325160, "lat": 38.0009945, "lon": -122.133016}, {"type": "node", "id": 2587325168, "lat": 38.0009015, "lon": -122.1327264}, {"type": "node", "id": 2587325173, "lat": 38.0005422, "lon": -122.1327907}, {"type": "node", "id": 2587325184, "lat": 38.0010442, "lon": -122.1330044}, {"type": "node", "id": 2587325186, "lat": 38.0005422, "lon": -122.1334318}, {"type": "node", "id": 2587325187, "lat": 38.0004767, "lon": -122.1328068}, {"type": "node", "id": 2587325189, "lat": 38.0010262, "lon": -122.1333191}, {"type": "node", "id": 2587325202, "lat": 38.0005337, "lon": -122.132729}, {"type": "node", "id": 2587325204, "lat": 38.0010346, "lon": -122.1333567}, {"type": "node", "id": 2587664432, "lat": 37.8936781, "lon": -122.1169678}, {"type": "node", "id": 2587664433, "lat": 37.893677, "lon": -122.1172612}, {"type": "node", "id": 2587664441, "lat": 37.8937393, "lon": -122.1170297}, {"type": "node", "id": 2587664444, "lat": 37.8936102, "lon": -122.1173992}, {"type": "node", "id": 2587664447, "lat": 37.8937436, "lon": -122.1170004}, {"type": "node", "id": 2587664452, "lat": 37.8936735, "lon": -122.1175053}, {"type": "node", "id": 2587664453, "lat": 37.8936233, "lon": -122.1170023}, {"type": "node", "id": 2587664455, "lat": 37.8934107, "lon": -122.1175114}, {"type": "node", "id": 2587664476, "lat": 37.8931704, "lon": -122.1174334}, {"type": "node", "id": 2587664478, "lat": 37.8936515, "lon": -122.1173049}, {"type": "node", "id": 2587664484, "lat": 37.8936306, "lon": -122.1174361}, {"type": "node", "id": 2587664485, "lat": 37.8936371, "lon": -122.1174054}, {"type": "node", "id": 2587664488, "lat": 37.8936057, "lon": -122.1174305}, {"type": "node", "id": 2587664490, "lat": 37.8934141, "lon": -122.1174866}, {"type": "node", "id": 2587664492, "lat": 37.8937288, "lon": -122.1169789}, {"type": "node", "id": 2587664493, "lat": 37.8936108, "lon": -122.1170874}, {"type": "node", "id": 2587664494, "lat": 37.8936225, "lon": -122.1174939}, {"type": "node", "id": 2587664499, "lat": 37.8936808, "lon": -122.1169473}, {"type": "node", "id": 2587664502, "lat": 37.8936994, "lon": -122.1171083}, {"type": "node", "id": 2587664507, "lat": 37.8936242, "lon": -122.1172986}, {"type": "node", "id": 2587664512, "lat": 37.8932492, "lon": -122.1168531}, {"type": "node", "id": 2587664518, "lat": 37.8936312, "lon": -122.1172505}, {"type": "node", "id": 2623001667, "lat": 37.7690037, "lon": -122.2339366}, {"type": "node", "id": 2623001668, "lat": 37.7691463, "lon": -122.2338221}, {"type": "node", "id": 2623001669, "lat": 37.7691212, "lon": -122.2337715}, {"type": "node", "id": 2623001670, "lat": 37.7691873, "lon": -122.2337158}, {"type": "node", "id": 2623001671, "lat": 37.7692123, "lon": -122.2337677}, {"type": "node", "id": 2623001672, "lat": 37.7694034, "lon": -122.233612}, {"type": "node", "id": 2623001673, "lat": 37.7693754, "lon": -122.2335601}, {"type": "node", "id": 2623001674, "lat": 37.7694393, "lon": -122.2335037}, {"type": "node", "id": 2623001675, "lat": 37.7694685, "lon": -122.2335588}, {"type": "node", "id": 2623001676, "lat": 37.7696326, "lon": -122.2334183}, {"type": "node", "id": 2623001677, "lat": 37.7697646, "lon": -122.2336677}, {"type": "node", "id": 2623001678, "lat": 37.7697446, "lon": -122.2336842}, {"type": "node", "id": 2623001679, "lat": 37.7698696, "lon": -122.2339275}, {"type": "node", "id": 2623001680, "lat": 37.7698477, "lon": -122.2339463}, {"type": "node", "id": 2623001681, "lat": 37.7699237, "lon": -122.2340928}, {"type": "node", "id": 2623001682, "lat": 37.7699061, "lon": -122.234106}, {"type": "node", "id": 2623001683, "lat": 37.7699503, "lon": -122.2341959}, {"type": "node", "id": 2623001684, "lat": 37.7698907, "lon": -122.2342428}, {"type": "node", "id": 2623001685, "lat": 37.76985, "lon": -122.2341566}, {"type": "node", "id": 2623001686, "lat": 37.7694375, "lon": -122.234492}, {"type": "node", "id": 2623001687, "lat": 37.7694173, "lon": -122.2344536}, {"type": "node", "id": 2623001688, "lat": 37.7693276, "lon": -122.2345256}, {"type": "node", "id": 2623001689, "lat": 37.7693029, "lon": -122.2345188}, {"type": "node", "id": 2625322054, "lat": 37.7437994, "lon": -122.453828}, {"type": "node", "id": 2625322057, "lat": 37.7438836, "lon": -122.4537246}, {"type": "node", "id": 2625322059, "lat": 37.7437646, "lon": -122.4535629}, {"type": "node", "id": 2625322060, "lat": 37.7436754, "lon": -122.4536628}, {"type": "node", "id": 2625322074, "lat": 37.7438746, "lon": -122.453712}, {"type": "node", "id": 2634481110, "lat": 37.7528984, "lon": -122.4161843}, {"type": "node", "id": 2634481119, "lat": 37.7529052, "lon": -122.4160688}, {"type": "node", "id": 2634481133, "lat": 37.7529094, "lon": -122.4159977}, {"type": "node", "id": 2634481139, "lat": 37.7529151, "lon": -122.4159008}, {"type": "node", "id": 2635592104, "lat": 37.7528007, "lon": -122.4104963}, {"type": "node", "id": 2635592106, "lat": 37.7528015, "lon": -122.4104601}, {"type": "node", "id": 2635592110, "lat": 37.7528042, "lon": -122.4105444}, {"type": "node", "id": 2635592116, "lat": 37.7528066, "lon": -122.4104968}, {"type": "node", "id": 2635592120, "lat": 37.7528084, "lon": -122.4105447}, {"type": "node", "id": 2635592122, "lat": 37.7528142, "lon": -122.4104579}, {"type": "node", "id": 2635592146, "lat": 37.7528899, "lon": -122.4104758}, {"type": "node", "id": 2635592150, "lat": 37.7528905, "lon": -122.4104641}, {"type": "node", "id": 2635592186, "lat": 37.7529432, "lon": -122.4105557}, {"type": "node", "id": 2635592188, "lat": 37.7529436, "lon": -122.410549}, {"type": "node", "id": 2635592241, "lat": 37.7529976, "lon": -122.4105018}, {"type": "node", "id": 2635592243, "lat": 37.7529984, "lon": -122.4104847}, {"type": "node", "id": 2635592271, "lat": 37.7530455, "lon": -122.4105573}, {"type": "node", "id": 2635592278, "lat": 37.7530481, "lon": -122.4105059}, {"type": "node", "id": 2641796593, "lat": 37.7415785, "lon": -122.4053683, "tags": {"addr:city": "San Francisco", "addr:housenumber": "355", "addr:postcode": "94124", "addr:street": "Bayshore Boulevard", "brand": "Smart & Final", "brand:wikidata": "Q7543916", "brand:wikipedia": "en:Smart & Final", "fax": "1-415-642-0799", "name": "Smart & Final", "phone": "1-415-642-0799", "shop": "supermarket", "website": "https://www.smartandfinal.com/locations/locations.asp?id=438"}}, {"type": "node", "id": 2665234938, "lat": 37.7936808, "lon": -122.4043768}, {"type": "node", "id": 2665234939, "lat": 37.7937032, "lon": -122.4041987}, {"type": "node", "id": 2665234948, "lat": 37.7937253, "lon": -122.4042031}, {"type": "node", "id": 2665234954, "lat": 37.7937449, "lon": -122.404207}, {"type": "node", "id": 2665234969, "lat": 37.7938057, "lon": -122.4044019}, {"type": "node", "id": 2665234978, "lat": 37.793828, "lon": -122.4042238}, {"type": "node", "id": 2665287342, "lat": 37.7968117, "lon": -122.39884}, {"type": "node", "id": 2665287350, "lat": 37.7968648, "lon": -122.3984342}, {"type": "node", "id": 2665287363, "lat": 37.7969329, "lon": -122.3988642}, {"type": "node", "id": 2665287365, "lat": 37.7969899, "lon": -122.3984599}, {"type": "node", "id": 2665667337, "lat": 37.7982096, "lon": -122.4099919}, {"type": "node", "id": 2665667338, "lat": 37.7982245, "lon": -122.4098758}, {"type": "node", "id": 2665667343, "lat": 37.7983532, "lon": -122.4100213}, {"type": "node", "id": 2665667345, "lat": 37.798368, "lon": -122.4099052}, {"type": "node", "id": 2667574537, "lat": 37.7529431, "lon": -122.4087167, "tags": {"addr:city": "San Francisco", "addr:housenumber": "2824", "addr:postcode": "94110", "addr:street": "24th Street", "name": "Five Markets", "payment:bitcoin": "no", "phone": "+1 415 282 6838", "shop": "supermarket", "website": "https://www.facebook.com/pages/Five-Markets/123964861127962"}}, {"type": "node", "id": 2669246202, "lat": 37.7747303, "lon": -122.4376279}, {"type": "node", "id": 2669246205, "lat": 37.7747346, "lon": -122.4375929}, {"type": "node", "id": 2669246223, "lat": 37.7747609, "lon": -122.4373779}, {"type": "node", "id": 2669246227, "lat": 37.7747672, "lon": -122.4373269}, {"type": "node", "id": 2669246258, "lat": 37.7748409, "lon": -122.4373399}, {"type": "node", "id": 2669246260, "lat": 37.774841, "lon": -122.4376499}, {"type": "node", "id": 2669246322, "lat": 37.7748712, "lon": -122.4373464}, {"type": "node", "id": 2683767151, "lat": 37.775563, "lon": -122.4583124}, {"type": "node", "id": 2683767168, "lat": 37.7755918, "lon": -122.458079}, {"type": "node", "id": 2683767180, "lat": 37.7756085, "lon": -122.457956}, {"type": "node", "id": 2683767211, "lat": 37.7756434, "lon": -122.4583277}, {"type": "node", "id": 2683767212, "lat": 37.7756439, "lon": -122.4583181}, {"type": "node", "id": 2683767244, "lat": 37.7756909, "lon": -122.458331}, {"type": "node", "id": 2683767249, "lat": 37.7756934, "lon": -122.4583101}, {"type": "node", "id": 2683767259, "lat": 37.7756985, "lon": -122.4583115}, {"type": "node", "id": 2683767268, "lat": 37.7757259, "lon": -122.4581005}, {"type": "node", "id": 2683767278, "lat": 37.7757426, "lon": -122.4579669}, {"type": "node", "id": 2688485786, "lat": 37.7883712, "lon": -122.4346022}, {"type": "node", "id": 2688485788, "lat": 37.7884025, "lon": -122.4343461}, {"type": "node", "id": 2688485804, "lat": 37.7886779, "lon": -122.4346621}, {"type": "node", "id": 2688485805, "lat": 37.7887092, "lon": -122.434406}, {"type": "node", "id": 2693004231, "lat": 37.7694214, "lon": -122.4505453, "tags": {"addr:housenumber": "1699", "addr:street": "Haight Street", "name": "Frank's Liquors", "shop": "supermarket"}}, {"type": "node", "id": 2698387925, "lat": 37.7902045, "lon": -122.420782, "tags": {"addr:city": "San Francisco", "addr:housenumber": "1475", "addr:postcode": "94109", "addr:street": "Polk Street", "name": "golden farmers market", "payment:credit_cards": "yes", "phone": "(415) 771-9099", "shop": "supermarket", "wheelchair": "yes"}}, {"type": "node", "id": 2698582720, "lat": 37.7605535, "lon": -122.4662171}, {"type": "node", "id": 2698582723, "lat": 37.7604032, "lon": -122.4665524}, {"type": "node", "id": 2700575435, "lat": 37.7699991, "lon": -122.4476777}, {"type": "node", "id": 2700575437, "lat": 37.7700097, "lon": -122.4475913}, {"type": "node", "id": 2700575441, "lat": 37.7700199, "lon": -122.447508}, {"type": "node", "id": 2700575683, "lat": 37.7703536, "lon": -122.447747}, {"type": "node", "id": 2700575702, "lat": 37.7703879, "lon": -122.4477537}, {"type": "node", "id": 2700575711, "lat": 37.7703984, "lon": -122.4476674}, {"type": "node", "id": 2700575714, "lat": 37.7704086, "lon": -122.447584}, {"type": "node", "id": 2703036789, "lat": 37.7649828, "lon": -122.4497116}, {"type": "node", "id": 2703036791, "lat": 37.7649837, "lon": -122.4496844}, {"type": "node", "id": 2703036793, "lat": 37.764986, "lon": -122.4496849}, {"type": "node", "id": 2703036799, "lat": 37.7650247, "lon": -122.4493436}, {"type": "node", "id": 2703036827, "lat": 37.7650785, "lon": -122.44973}, {"type": "node", "id": 2703036830, "lat": 37.7650812, "lon": -122.4497069}, {"type": "node", "id": 2703036875, "lat": 37.765122, "lon": -122.4493684}, {"type": "node", "id": 2703036878, "lat": 37.7651227, "lon": -122.4493624}, {"type": "node", "id": 2725394713, "lat": 37.763915, "lon": -122.471569}, {"type": "node", "id": 2725394714, "lat": 37.7639405, "lon": -122.4709382}, {"type": "node", "id": 2725394715, "lat": 37.7639522, "lon": -122.4708714}, {"type": "node", "id": 2725394716, "lat": 37.7639573, "lon": -122.4707444}, {"type": "node", "id": 2725394717, "lat": 37.7639576, "lon": -122.4709393}, {"type": "node", "id": 2725394718, "lat": 37.7639603, "lon": -122.470872}, {"type": "node", "id": 2725394719, "lat": 37.7642182, "lon": -122.4708946}, {"type": "node", "id": 2725394720, "lat": 37.7642189, "lon": -122.4708768}, {"type": "node", "id": 2725394721, "lat": 37.7643067, "lon": -122.4715942}, {"type": "node", "id": 2725394722, "lat": 37.7643262, "lon": -122.4709273}, {"type": "node", "id": 2725394723, "lat": 37.7643279, "lon": -122.4708838}, {"type": "node", "id": 2725394724, "lat": 37.7643288, "lon": -122.471046}, {"type": "node", "id": 2725394725, "lat": 37.7643572, "lon": -122.4710478}, {"type": "node", "id": 2725394726, "lat": 37.7643683, "lon": -122.4707709}, {"type": "node", "id": 2727093284, "lat": 37.7604064, "lon": -122.4662851}, {"type": "node", "id": 2727093287, "lat": 37.7604091, "lon": -122.466208}, {"type": "node", "id": 2727093289, "lat": 37.7604129, "lon": -122.4662855}, {"type": "node", "id": 2727093291, "lat": 37.7604153, "lon": -122.4661999}, {"type": "node", "id": 2727093294, "lat": 37.7604235, "lon": -122.4665535}, {"type": "node", "id": 2727093303, "lat": 37.7604718, "lon": -122.4662123}, {"type": "node", "id": 2727093305, "lat": 37.7604721, "lon": -122.4662032}, {"type": "node", "id": 2727093337, "lat": 37.7605411, "lon": -122.4665604}, {"type": "node", "id": 2727093339, "lat": 37.7605468, "lon": -122.466402}, {"type": "node", "id": 2781967130, "lat": 37.7863128, "lon": -122.4509854}, {"type": "node", "id": 2781967131, "lat": 37.7863306, "lon": -122.4509891}, {"type": "node", "id": 2781967133, "lat": 37.7863513, "lon": -122.4506878}, {"type": "node", "id": 2781967134, "lat": 37.7863648, "lon": -122.4506906}, {"type": "node", "id": 2781967135, "lat": 37.7863686, "lon": -122.4506612}, {"type": "node", "id": 2781967165, "lat": 37.786546, "lon": -122.4510337}, {"type": "node", "id": 2781967167, "lat": 37.7865526, "lon": -122.4510351}, {"type": "node", "id": 2781967169, "lat": 37.7865949, "lon": -122.4507081}, {"type": "node", "id": 2795274944, "lat": 37.7824494, "lon": -122.4670764}, {"type": "node", "id": 2795274945, "lat": 37.7824496, "lon": -122.4670734}, {"type": "node", "id": 2795274949, "lat": 37.7824552, "lon": -122.4669467}, {"type": "node", "id": 2795274950, "lat": 37.7824555, "lon": -122.4669385}, {"type": "node", "id": 2795274951, "lat": 37.7824586, "lon": -122.4668701}, {"type": "node", "id": 2795274954, "lat": 37.7824612, "lon": -122.4668107}, {"type": "node", "id": 2795274955, "lat": 37.7824631, "lon": -122.4667669}, {"type": "node", "id": 2795274963, "lat": 37.7825185, "lon": -122.46713}, {"type": "node", "id": 2795274964, "lat": 37.7825206, "lon": -122.4670815}, {"type": "node", "id": 2795274984, "lat": 37.7827326, "lon": -122.4671452}, {"type": "node", "id": 2795274985, "lat": 37.7827405, "lon": -122.4667865}, {"type": "node", "id": 2795274986, "lat": 37.7827405, "lon": -122.4669669}, {"type": "node", "id": 2795274993, "lat": 37.7827484, "lon": -122.4667871}, {"type": "node", "id": 2796438866, "lat": 37.782117, "lon": -122.4649925}, {"type": "node", "id": 2796438867, "lat": 37.7821292, "lon": -122.4649934}, {"type": "node", "id": 2796438868, "lat": 37.7821718, "lon": -122.4653539}, {"type": "node", "id": 2796439469, "lat": 37.7821722, "lon": -122.4653451}, {"type": "node", "id": 2796439470, "lat": 37.7824582, "lon": -122.4653735}, {"type": "node", "id": 2796439471, "lat": 37.7824742, "lon": -122.465}, {"type": "node", "id": 2810181541, "lat": 37.825051, "lon": -122.232837, "tags": {"name": "Mulberries' Market", "shop": "supermarket"}}, {"type": "node", "id": 2811437034, "lat": 37.7445387, "lon": -122.4523911}, {"type": "node", "id": 2811437045, "lat": 37.7447405, "lon": -122.4525843}, {"type": "node", "id": 2811437047, "lat": 37.7447538, "lon": -122.4520316}, {"type": "node", "id": 2811437054, "lat": 37.744946, "lon": -122.4522207}, {"type": "node", "id": 2812136418, "lat": 37.7630309, "lon": -122.4806537}, {"type": "node", "id": 2812136420, "lat": 37.7630351, "lon": -122.480546}, {"type": "node", "id": 2812136422, "lat": 37.7630396, "lon": -122.4804287}, {"type": "node", "id": 2812136430, "lat": 37.7630838, "lon": -122.480657}, {"type": "node", "id": 2812136438, "lat": 37.7633053, "lon": -122.4806709}, {"type": "node", "id": 2812136441, "lat": 37.7633224, "lon": -122.4806719}, {"type": "node", "id": 2812136442, "lat": 37.7633312, "lon": -122.4804469}, {"type": "node", "id": 2822033315, "lat": 37.7339527, "lon": -122.4337752}, {"type": "node", "id": 2822033316, "lat": 37.7339764, "lon": -122.4339191}, {"type": "node", "id": 2822033317, "lat": 37.7341861, "lon": -122.4338796}, {"type": "node", "id": 2822037996, "lat": 37.7341506, "lon": -122.4337099}, {"type": "node", "id": 2831987362, "lat": 37.7428659, "lon": -122.4723464}, {"type": "node", "id": 2831987363, "lat": 37.742873, "lon": -122.4721624}, {"type": "node", "id": 2831987365, "lat": 37.7428986, "lon": -122.472164}, {"type": "node", "id": 2831987506, "lat": 37.7430888, "lon": -122.4723601}, {"type": "node", "id": 2831987507, "lat": 37.7430918, "lon": -122.4721758}, {"type": "node", "id": 2831987511, "lat": 37.7430958, "lon": -122.4721761}, {"type": "node", "id": 2836883670, "lat": 37.7994823, "lon": -122.2162144, "tags": {"entrance": "main"}}, {"type": "node", "id": 2838479530, "lat": 37.8254386, "lon": -122.2534898, "tags": {"addr:city": "Oakland", "addr:housenumber": "4000", "addr:postcode": "94611", "addr:street": "Piedmont Avenue", "name": "Monte Vista Food Center", "opening_hours": "Mo-Su 08:30-19:30", "shop": "supermarket"}}, {"type": "node", "id": 2838479533, "lat": 37.8256869, "lon": -122.2532088}, {"type": "node", "id": 2838479534, "lat": 37.8255778, "lon": -122.2530559}, {"type": "node", "id": 2906825972, "lat": 37.8804894, "lon": -122.2701012}, {"type": "node", "id": 2906825974, "lat": 37.8810096, "lon": -122.2696991}, {"type": "node", "id": 2906825975, "lat": 37.8805463, "lon": -122.2701103}, {"type": "node", "id": 2906825977, "lat": 37.8810326, "lon": -122.269728}, {"type": "node", "id": 2906825981, "lat": 37.8807258, "lon": -122.2695402}, {"type": "node", "id": 2906825983, "lat": 37.8808683, "lon": -122.2695963}, {"type": "node", "id": 2906825985, "lat": 37.8805385, "lon": -122.2704392}, {"type": "node", "id": 2906825987, "lat": 37.8809982, "lon": -122.2699407}, {"type": "node", "id": 2906825990, "lat": 37.880688, "lon": -122.2703759}, {"type": "node", "id": 2906825995, "lat": 37.8809818, "lon": -122.2701805}, {"type": "node", "id": 2906826000, "lat": 37.8810148, "lon": -122.2696765}, {"type": "node", "id": 2906828001, "lat": 37.8810308, "lon": -122.2702176}, {"type": "node", "id": 2906828005, "lat": 37.8810382, "lon": -122.2697136}, {"type": "node", "id": 2906828009, "lat": 37.8809472, "lon": -122.269634}, {"type": "node", "id": 2906828010, "lat": 37.880783, "lon": -122.2703894}, {"type": "node", "id": 2906828013, "lat": 37.88054, "lon": -122.2704259}, {"type": "node", "id": 2906828018, "lat": 37.880795, "lon": -122.2695586}, {"type": "node", "id": 2922201529, "lat": 37.7673166, "lon": -122.4096287}, {"type": "node", "id": 2931450175, "lat": 37.7294328, "lon": -122.3987638}, {"type": "node", "id": 2931450176, "lat": 37.7294494, "lon": -122.3988528}, {"type": "node", "id": 2931450178, "lat": 37.7295404, "lon": -122.3988251}, {"type": "node", "id": 2931450180, "lat": 37.7295639, "lon": -122.398527}, {"type": "node", "id": 2931450181, "lat": 37.7295915, "lon": -122.3990759}, {"type": "node", "id": 2931450183, "lat": 37.7296392, "lon": -122.3990642}, {"type": "node", "id": 2931450185, "lat": 37.7296585, "lon": -122.3992052}, {"type": "node", "id": 2931450905, "lat": 37.7300539, "lon": -122.3991152}, {"type": "node", "id": 2972235799, "lat": 37.7673114, "lon": -122.4097311}, {"type": "node", "id": 2977763531, "lat": 37.8804898, "lon": -122.298084}, {"type": "node", "id": 2977763532, "lat": 37.8805674, "lon": -122.2976921}, {"type": "node", "id": 2977764834, "lat": 37.8805932, "lon": -122.2977003}, {"type": "node", "id": 2977764835, "lat": 37.8806871, "lon": -122.2972262}, {"type": "node", "id": 2977764836, "lat": 37.8808436, "lon": -122.2981889}, {"type": "node", "id": 2977764837, "lat": 37.8808822, "lon": -122.2979937}, {"type": "node", "id": 3088427373, "lat": 37.7533476, "lon": -122.4155082}, {"type": "node", "id": 3088427374, "lat": 37.7533052, "lon": -122.4162235}, {"type": "node", "id": 3148123214, "lat": 37.7979062, "lon": -122.4085421, "tags": {"name": "Pang Kee Bargain Market", "shop": "supermarket"}}, {"type": "node", "id": 3148123215, "lat": 37.798411, "lon": -122.4086385, "tags": {"name": "Sun Kau Shing Co., Inc.", "shop": "supermarket"}}, {"type": "node", "id": 3160895119, "lat": 37.8784709, "lon": -122.2701915}, {"type": "node", "id": 3160895120, "lat": 37.8784747, "lon": -122.2701396}, {"type": "node", "id": 3160895121, "lat": 37.8784763, "lon": -122.2698559}, {"type": "node", "id": 3160895123, "lat": 37.8784891, "lon": -122.2696813}, {"type": "node", "id": 3160895124, "lat": 37.8784991, "lon": -122.2699762}, {"type": "node", "id": 3160895125, "lat": 37.8785077, "lon": -122.2698596}, {"type": "node", "id": 3160895126, "lat": 37.8785115, "lon": -122.270012}, {"type": "node", "id": 3160895127, "lat": 37.878514, "lon": -122.269978}, {"type": "node", "id": 3160895128, "lat": 37.8785205, "lon": -122.269685}, {"type": "node", "id": 3160895129, "lat": 37.878521, "lon": -122.2696776}, {"type": "node", "id": 3160895131, "lat": 37.8785429, "lon": -122.2701036}, {"type": "node", "id": 3160895132, "lat": 37.8785493, "lon": -122.2700164}, {"type": "node", "id": 3160895133, "lat": 37.8785669, "lon": -122.2702028}, {"type": "node", "id": 3160895136, "lat": 37.8789932, "lon": -122.2701238}, {"type": "node", "id": 3160895137, "lat": 37.8790026, "lon": -122.2702541}, {"type": "node", "id": 3160895138, "lat": 37.8790032, "lon": -122.2702455}, {"type": "node", "id": 3160895139, "lat": 37.8790043, "lon": -122.2699726}, {"type": "node", "id": 3160895140, "lat": 37.879052, "lon": -122.2699782}, {"type": "node", "id": 3160895141, "lat": 37.8790693, "lon": -122.2697422}, {"type": "node", "id": 3160895142, "lat": 37.8791119, "lon": -122.2702583}, {"type": "node", "id": 3160895143, "lat": 37.8791206, "lon": -122.2701388}, {"type": "node", "id": 3165311986, "lat": 37.7734003, "lon": -122.2115925}, {"type": "node", "id": 3165311987, "lat": 37.7730271, "lon": -122.2118687}, {"type": "node", "id": 3165311988, "lat": 37.7731176, "lon": -122.2120611}, {"type": "node", "id": 3165311990, "lat": 37.7733267, "lon": -122.2125038}, {"type": "node", "id": 3165311991, "lat": 37.7736254, "lon": -122.2122753}, {"type": "node", "id": 3165311992, "lat": 37.773685, "lon": -122.2121992}, {"type": "node", "id": 3165311993, "lat": 37.7736854, "lon": -122.2119771}, {"type": "node", "id": 3180422129, "lat": 37.8198341, "lon": -122.2626781}, {"type": "node", "id": 3180422130, "lat": 37.8196355, "lon": -122.2619539}, {"type": "node", "id": 3180422131, "lat": 37.8187235, "lon": -122.2624217}, {"type": "node", "id": 3180422132, "lat": 37.8187907, "lon": -122.2628251}, {"type": "node", "id": 3187950917, "lat": 37.8567558, "lon": -122.2671758}, {"type": "node", "id": 3187950918, "lat": 37.8567693, "lon": -122.2671782}, {"type": "node", "id": 3187950923, "lat": 37.8568599, "lon": -122.267629}, {"type": "node", "id": 3195111220, "lat": 37.7716296, "lon": -122.1927837}, {"type": "node", "id": 3195111221, "lat": 37.7713431, "lon": -122.1928738}, {"type": "node", "id": 3195111222, "lat": 37.7712361, "lon": -122.1923297}, {"type": "node", "id": 3195111223, "lat": 37.7715581, "lon": -122.1922284}, {"type": "node", "id": 3195111224, "lat": 37.7715882, "lon": -122.1923818}, {"type": "node", "id": 3195111225, "lat": 37.7715529, "lon": -122.192393}, {"type": "node", "id": 3219685777, "lat": 37.7437417, "lon": -122.1485938}, {"type": "node", "id": 3219685778, "lat": 37.7432995, "lon": -122.1482017}, {"type": "node", "id": 3219685779, "lat": 37.7433749, "lon": -122.1480659}, {"type": "node", "id": 3219685780, "lat": 37.7431739, "lon": -122.1478877}, {"type": "node", "id": 3219685782, "lat": 37.7429431, "lon": -122.1478752}, {"type": "node", "id": 3219685783, "lat": 37.7426281, "lon": -122.1484432}, {"type": "node", "id": 3219685784, "lat": 37.7434363, "lon": -122.1491446}, {"type": "node", "id": 3376135508, "lat": 37.7884234, "lon": -122.4165679, "tags": {"addr:city": "San Francisco", "addr:housenumber": "988", "addr:postcode": "94109", "addr:state": "CA", "addr:street": "Sutter Street", "name": "Sutter Fine Foods", "opening_hours": "Su,Mo-Fr 07:00-24:00; Sa off", "shop": "supermarket"}}, {"type": "node", "id": 3520676346, "lat": 37.8368407, "lon": -122.2759558, "tags": {"addr:street": "Adeline Street", "name": "Baseline Produce", "shop": "supermarket"}}, {"type": "node", "id": 3524458050, "lat": 37.7839057, "lon": -122.4819672, "tags": {"addr:city": "San Francisco", "addr:housenumber": "6001", "addr:postcode": "94121", "addr:state": "CA", "addr:street": "California Street", "name": "6001 California Market (Appel & Dietrich)", "note": "Includes a deli counter", "opening_hours": "Daily: 8:30am - 8:30pm", "phone": "+1 (415) 221-7600", "shop": "supermarket"}}, {"type": "node", "id": 3534516491, "lat": 37.7914539, "lon": -122.2195437}, {"type": "node", "id": 3534516492, "lat": 37.7913178, "lon": -122.2195987}, {"type": "node", "id": 3534518093, "lat": 37.7912004, "lon": -122.2191336}, {"type": "node", "id": 3534518094, "lat": 37.7913365, "lon": -122.2190786}, {"type": "node", "id": 3564521986, "lat": 37.7427662, "lon": -122.479296, "tags": {"addr:city": "San Francisco", "addr:housenumber": "1217", "addr:postcode": "94116", "addr:state": "CA", "addr:street": "Taraval Street", "name": "Good Luck Market", "name:zh": "\u5e78\u904b\u5e73\u50f9\u5e02\u5834", "phone": "+1 415 682-8822", "shop": "supermarket"}}, {"type": "node", "id": 3565153877, "lat": 37.7937589, "lon": -122.2672304, "tags": {"addr:housenumber": "400", "addr:street": "Oak Street", "name": "Cash & Carry", "shop": "supermarket"}}, {"type": "node", "id": 3574958424, "lat": 37.8811421, "lon": -122.2973709}, {"type": "node", "id": 3574958425, "lat": 37.8810107, "lon": -122.2980346}, {"type": "node", "id": 3641710571, "lat": 37.7764867, "lon": -122.4116366, "tags": {"addr:street": "8th Street", "name": "Harvest Urban Market", "opening_hours": "Mo-Su 07:00-22:00", "shop": "supermarket"}}, {"type": "node", "id": 3667870602, "lat": 37.8117309, "lon": -122.2123098}, {"type": "node", "id": 3667870603, "lat": 37.8118065, "lon": -122.2124469}, {"type": "node", "id": 3667870604, "lat": 37.8119088, "lon": -122.2121469}, {"type": "node", "id": 3667870605, "lat": 37.8119851, "lon": -122.2122881}, {"type": "node", "id": 3799894173, "lat": 37.7677359, "lon": -122.1774582, "tags": {"name": "Gazzail's Supermarket", "shop": "supermarket"}}, {"type": "node", "id": 3811475327, "lat": 37.7614046, "lon": -122.424704, "tags": {"addr:city": "San Francisco", "addr:housenumber": "3639", "addr:postcode": "94110", "addr:street": "18th Street", "name": "Bi-Rite Market", "opening_hours": "Mo-Su 08:00-21:00", "phone": "+1 (415) 241-9760", "shop": "supermarket", "website": "https://biritemarket.com/"}}, {"type": "node", "id": 3850073315, "lat": 37.7639653, "lon": -122.4127878, "tags": {"addr:housenumber": "2111", "addr:postcode": "94110", "addr:street": "Harrison Street", "name": "Gus's Community Market", "opening_hours": "07:00-22:00", "phone": "+1 415 431 9300", "shop": "supermarket", "website": "https://gussmarket.com/"}}, {"type": "node", "id": 3857827557, "lat": 37.749437, "lon": -122.413623, "tags": {"addr:city": "San Francisco", "addr:housenumber": "2997", "addr:street": "Folsom Street", "name": "Rubin's Market", "shop": "supermarket"}}, {"type": "node", "id": 3891179927, "lat": 37.9358387, "lon": -122.3489522}, {"type": "node", "id": 3891179930, "lat": 37.9360277, "lon": -122.3486903}, {"type": "node", "id": 3891179939, "lat": 37.9358367, "lon": -122.3487115}, {"type": "node", "id": 3891180463, "lat": 37.9360298, "lon": -122.3489497}, {"type": "node", "id": 3891213304, "lat": 37.9311561, "lon": -122.3214234}, {"type": "node", "id": 3891213327, "lat": 37.9316929, "lon": -122.3216647}, {"type": "node", "id": 3891213329, "lat": 37.9311162, "lon": -122.321397}, {"type": "node", "id": 3891213340, "lat": 37.9311175, "lon": -122.3212102}, {"type": "node", "id": 3891213341, "lat": 37.9310748, "lon": -122.3218253}, {"type": "node", "id": 3891213347, "lat": 37.9316722, "lon": -122.3217716}, {"type": "node", "id": 3891213348, "lat": 37.9311025, "lon": -122.3212372}, {"type": "node", "id": 3891213353, "lat": 37.9313629, "lon": -122.322042}, {"type": "node", "id": 3891213358, "lat": 37.9310599, "lon": -122.3216104}, {"type": "node", "id": 3891213359, "lat": 37.9313535, "lon": -122.322061}, {"type": "node", "id": 3891213361, "lat": 37.9311404, "lon": -122.3213108}, {"type": "node", "id": 3891213364, "lat": 37.9310111, "lon": -122.3215753}, {"type": "node", "id": 3891213377, "lat": 37.9314781, "lon": -122.3221607}, {"type": "node", "id": 3891213384, "lat": 37.9309861, "lon": -122.3216328}, {"type": "node", "id": 3934275723, "lat": 37.7459862, "lon": -122.1722439}, {"type": "node", "id": 3934275742, "lat": 37.7464269, "lon": -122.1712421}, {"type": "node", "id": 3934277159, "lat": 37.745919, "lon": -122.1714802}, {"type": "node", "id": 3934277166, "lat": 37.7370516, "lon": -122.1635413, "tags": {"brand": "FoodMaxx", "brand:wikidata": "Q61894844", "name": "FoodMaxx", "shop": "supermarket"}}, {"type": "node", "id": 3934277175, "lat": 37.7460405, "lon": -122.1724601}, {"type": "node", "id": 3934277197, "lat": 37.7459613, "lon": -122.1713876}, {"type": "node", "id": 3934277199, "lat": 37.746008, "lon": -122.1719625}, {"type": "node", "id": 3934277201, "lat": 37.746243, "lon": -122.1717169}, {"type": "node", "id": 3934277212, "lat": 37.7461985, "lon": -122.1710753}, {"type": "node", "id": 3934277214, "lat": 37.7462012, "lon": -122.1721007}, {"type": "node", "id": 3934277250, "lat": 37.7463956, "lon": -122.1713107}, {"type": "node", "id": 3934277251, "lat": 37.7459074, "lon": -122.1721875}, {"type": "node", "id": 3934277288, "lat": 37.7460322, "lon": -122.1714394}, {"type": "node", "id": 3934277289, "lat": 37.7459262, "lon": -122.1723783}, {"type": "node", "id": 3934277299, "lat": 37.7464203, "lon": -122.1713287}, {"type": "node", "id": 3934305664, "lat": 37.7730994, "lon": -122.2167498}, {"type": "node", "id": 3934305692, "lat": 37.7731946, "lon": -122.2133905}, {"type": "node", "id": 3934305701, "lat": 37.7730482, "lon": -122.2135012}, {"type": "node", "id": 3934305711, "lat": 37.7733083, "lon": -122.2171974}, {"type": "node", "id": 3934305719, "lat": 37.7728427, "lon": -122.2169416}, {"type": "node", "id": 3934305721, "lat": 37.7731146, "lon": -122.2132212}, {"type": "node", "id": 3934305727, "lat": 37.7729682, "lon": -122.2133318}, {"type": "node", "id": 3934330573, "lat": 37.7729186, "lon": -122.2171043}, {"type": "node", "id": 3969574176, "lat": 37.795529, "lon": -122.4100247, "tags": {"name": "Kiki Supermarket", "shop": "supermarket"}}, {"type": "node", "id": 3992953178, "lat": 37.8000479, "lon": -122.271586, "tags": {"alt_name": "Tan Duc Supermarket", "name": "New Dic's Supermarket", "shop": "supermarket"}}, {"type": "node", "id": 3992986699, "lat": 37.7977739, "lon": -122.2685094, "tags": {"name": "Won Kee Supermarket", "shop": "supermarket"}}, {"type": "node", "id": 3998379075, "lat": 37.7687884, "lon": -122.4155118}, {"type": "node", "id": 3998379080, "lat": 37.7689825, "lon": -122.4150091}, {"type": "node", "id": 3998379081, "lat": 37.7693163, "lon": -122.415273}, {"type": "node", "id": 3998379083, "lat": 37.7693231, "lon": -122.4153692}, {"type": "node", "id": 3998379085, "lat": 37.7693264, "lon": -122.4154047}, {"type": "node", "id": 4017211397, "lat": 37.7969706, "lon": -122.4083521, "tags": {"name": "Dong Hing Supermarket", "shop": "supermarket", "wheelchair": "yes"}}, {"type": "node", "id": 4017220288, "lat": 37.7970928, "lon": -122.4086681, "tags": {"addr:housenumber": "1215", "addr:street": "Stockton Street", "name": "J & L Vegi Supermarket", "shop": "supermarket"}}, {"type": "node", "id": 4052290593, "lat": 37.7996819, "lon": -122.2159817}, {"type": "node", "id": 4052295851, "lat": 37.7996057, "lon": -122.2156599}, {"type": "node", "id": 4126626222, "lat": 37.8195616, "lon": -122.2619006}, {"type": "node", "id": 4126626223, "lat": 37.8197102, "lon": -122.2619378}, {"type": "node", "id": 4126626224, "lat": 37.8191913, "lon": -122.2621209}, {"type": "node", "id": 4126626225, "lat": 37.8192388, "lon": -122.2622488}, {"type": "node", "id": 4126626226, "lat": 37.8191309, "lon": -122.2623138}, {"type": "node", "id": 4134761495, "lat": 37.7795816, "lon": -122.2292107, "tags": {"name": "Supermercado Mi Pueblo", "shop": "supermarket"}}, {"type": "node", "id": 4150095166, "lat": 37.8497999, "lon": -122.4810685}, {"type": "node", "id": 4150095167, "lat": 37.8496396, "lon": -122.4810731}, {"type": "node", "id": 4150095168, "lat": 37.8496353, "lon": -122.4808282}, {"type": "node", "id": 4150095169, "lat": 37.8497955, "lon": -122.4808236}, {"type": "node", "id": 4173551409, "lat": 37.754856, "lon": -122.412313, "tags": {"name": "Local Mission Market", "shop": "supermarket"}}, {"type": "node", "id": 4173566690, "lat": 37.753871, "lon": -122.416268, "tags": {"name": "Casa Maria", "shop": "supermarket"}}, {"type": "node", "id": 4174545090, "lat": 37.8197462, "lon": -122.2621359}, {"type": "node", "id": 4174545092, "lat": 37.819196, "lon": -122.2628484}, {"type": "node", "id": 4174545093, "lat": 37.819175, "lon": -122.2627225}, {"type": "node", "id": 4218361464, "lat": 37.7603364, "lon": -122.41941, "tags": {"name": "City Discount Meat & Grocery Market", "shop": "supermarket"}}, {"type": "node", "id": 4220797224, "lat": 37.7788521, "lon": -122.2250463, "tags": {"name": "El Charro Supermarket", "shop": "supermarket"}}, {"type": "node", "id": 4318478491, "lat": 37.7853965, "lon": -122.2798406}, {"type": "node", "id": 4318478520, "lat": 37.7856854, "lon": -122.2811186}, {"type": "node", "id": 4318478521, "lat": 37.7856594, "lon": -122.2800186}, {"type": "node", "id": 4318478528, "lat": 37.7854007, "lon": -122.2800266}, {"type": "node", "id": 4422423946, "lat": 37.9345786, "lon": -122.356971, "tags": {"brand": "Foods Co", "brand:wikidata": "Q5465282", "name": "Foods Co", "shop": "supermarket"}}, {"type": "node", "id": 4485989999, "lat": 37.776893, "lon": -122.416756}, {"type": "node", "id": 4547291183, "lat": 37.7703233, "lon": -122.4187274}, {"type": "node", "id": 4548821705, "lat": 37.7528358, "lon": -122.4183448, "tags": {"addr:housenumber": "2765", "addr:street": "Mission Street", "name": "Mi Pueblito Market", "shop": "supermarket"}}, {"type": "node", "id": 4569376405, "lat": 37.8936648, "lon": -122.117567}, {"type": "node", "id": 4595680172, "lat": 37.7800462, "lon": -122.2064001}, {"type": "node", "id": 4595680173, "lat": 37.7798743, "lon": -122.2061968}, {"type": "node", "id": 4595680174, "lat": 37.7797538, "lon": -122.2063137}, {"type": "node", "id": 4595680175, "lat": 37.7798952, "lon": -122.2065444}, {"type": "node", "id": 4611235501, "lat": 37.8347336, "lon": -122.248783, "tags": {"brand": "Safeway", "brand:wikidata": "Q1508234", "brand:wikipedia": "en:Safeway Inc.", "name": "Safeway", "opening_hours": "Mo-Su 05:00-02:00", "shop": "supermarket", "wheelchair": "yes"}}, {"type": "node", "id": 4625049319, "lat": 37.7954858, "lon": -122.4116977, "tags": {"shop": "grocery"}}, {"type": "node", "id": 4625108173, "lat": 37.7948993, "lon": -122.4149473, "tags": {"name": "Jackson Market", "opening_hours": "Mo-Sa 14:00-19:00", "shop": "supermarket", "wheelchair": "yes"}}, {"type": "node", "id": 4625169865, "lat": 37.7933763, "lon": -122.412688, "tags": {"addr:city": "San Francisco", "addr:housenumber": "1199", "addr:state": "CA", "addr:street": "Taylor Street", "atm": "yes", "drink:wine": "retail", "name": "VJ Grocery", "shop": "grocery"}}, {"type": "node", "id": 4625224087, "lat": 37.7985332, "lon": -122.4325571, "tags": {"shop": "grocery"}}, {"type": "node", "id": 4630226706, "lat": 37.7840258, "lon": -122.4788199, "tags": {"name": "New California Market", "shop": "supermarket"}}, {"type": "node", "id": 4631876719, "lat": 37.7840482, "lon": -122.4107866, "tags": {"name": "Cool Super Discount Market", "shop": "supermarket"}}, {"type": "node", "id": 4631891265, "lat": 37.7857309, "lon": -122.4145173, "tags": {"name": "Right Way", "shop": "supermarket"}}, {"type": "node", "id": 4637210183, "lat": 37.7944737, "lon": -122.4182553, "tags": {"name": "J H Grocery and Liquor", "shop": "supermarket"}}, {"type": "node", "id": 4637773272, "lat": 37.7842393, "lon": -122.4111301, "tags": {"name": "Daldas Market", "shop": "supermarket"}}, {"type": "node", "id": 4637773279, "lat": 37.7879975, "lon": -122.4118912, "tags": {"name": "Town and County Market", "opening_hours:signed": "no", "shop": "supermarket"}}, {"type": "node", "id": 4645950883, "lat": 37.7432328, "lon": -122.1490173}, {"type": "node", "id": 4645955855, "lat": 37.7430373, "lon": -122.1478866}, {"type": "node", "id": 4645958669, "lat": 37.7426592, "lon": -122.1485073}, {"type": "node", "id": 4645959241, "lat": 37.7429839, "lon": -122.1478393}, {"type": "node", "id": 4645967629, "lat": 37.7429571, "lon": -122.1478876}, {"type": "node", "id": 4645971020, "lat": 37.7428237, "lon": -122.1486532}, {"type": "node", "id": 4645971892, "lat": 37.7426728, "lon": -122.1484828}, {"type": "node", "id": 4645979905, "lat": 37.7428168, "lon": -122.1486655}, {"type": "node", "id": 4645980977, "lat": 37.7432525, "lon": -122.1489817}, {"type": "node", "id": 4645985997, "lat": 37.743014, "lon": -122.1488404}, {"type": "node", "id": 4645986269, "lat": 37.7430582, "lon": -122.147849}, {"type": "node", "id": 4645989284, "lat": 37.7430203, "lon": -122.1488289}, {"type": "node", "id": 4645989556, "lat": 37.7431501, "lon": -122.1479305}, {"type": "node", "id": 4646062424, "lat": 37.7459149, "lon": -122.1721708}, {"type": "node", "id": 4661543003, "lat": 37.7643298, "lon": -122.4027236, "tags": {"addr:city": "San Francisco", "addr:housenumber": "450", "addr:postcode": "94107", "addr:state": "CA", "addr:street": "Rhode Island Street", "brand": "Whole Foods Market", "brand:wikidata": "Q1809448", "brand:wikipedia": "en:Whole Foods Market", "name": "Whole Foods Market", "operator": "Whole Foods", "phone": "+1 415 552-1155", "shop": "supermarket", "website": "https://www.wholefoodsmarket.com/stores/potrerohill", "wheelchair": "no"}}, {"type": "node", "id": 4673189759, "lat": 37.7845758, "lon": -122.2340928}, {"type": "node", "id": 4673189761, "lat": 37.7845922, "lon": -122.234117}, {"type": "node", "id": 4673189784, "lat": 37.7845592, "lon": -122.234334}, {"type": "node", "id": 4673189785, "lat": 37.7845806, "lon": -122.2343655}, {"type": "node", "id": 4673189819, "lat": 37.7848014, "lon": -122.2344251}, {"type": "node", "id": 4673189820, "lat": 37.7845636, "lon": -122.234094}, {"type": "node", "id": 4673189821, "lat": 37.7844674, "lon": -122.2341983}, {"type": "node", "id": 4673189822, "lat": 37.7846972, "lon": -122.2345379}, {"type": "node", "id": 4673726084, "lat": 37.7725457, "lon": -122.2177541}, {"type": "node", "id": 4673726085, "lat": 37.7724073, "lon": -122.217476}, {"type": "node", "id": 4680790126, "lat": 37.8570528, "lon": -122.2676659}, {"type": "node", "id": 4680790137, "lat": 37.8573084, "lon": -122.2670787}, {"type": "node", "id": 4689251314, "lat": 37.8552566, "lon": -122.2606512}, {"type": "node", "id": 4689251438, "lat": 37.8555806, "lon": -122.2607165}, {"type": "node", "id": 4689251505, "lat": 37.8554492, "lon": -122.2607062}, {"type": "node", "id": 4689252325, "lat": 37.8556747, "lon": -122.2607714}, {"type": "node", "id": 4689253259, "lat": 37.8556682, "lon": -122.2608201}, {"type": "node", "id": 4689253383, "lat": 37.8556114, "lon": -122.2607579}, {"type": "node", "id": 4689254646, "lat": 37.8555238, "lon": -122.2607363}, {"type": "node", "id": 4689255432, "lat": 37.8552251, "lon": -122.2606288}, {"type": "node", "id": 4689255622, "lat": 37.8555256, "lon": -122.2607226}, {"type": "node", "id": 4689257420, "lat": 37.8556159, "lon": -122.2607241}, {"type": "node", "id": 4689258383, "lat": 37.8554901, "lon": -122.260729}, {"type": "node", "id": 4689259274, "lat": 37.8553018, "lon": -122.2606468}, {"type": "node", "id": 4689259467, "lat": 37.8553, "lon": -122.2606605}, {"type": "node", "id": 4689260158, "lat": 37.8552586, "lon": -122.260636}, {"type": "node", "id": 4689262127, "lat": 37.8554832, "lon": -122.2607805}, {"type": "node", "id": 4689263011, "lat": 37.8554528, "lon": -122.2606791}, {"type": "node", "id": 4693634740, "lat": 37.7742721, "lon": -122.391412, "tags": {"addr:city": "San Francisco", "addr:housenumber": "1101", "addr:postcode": "94158", "addr:state": "CA", "addr:street": "4th Street", "name": "Gus's Community Market", "opening_hours": "PH,Mo-Su 08:00-21:00", "payment:cash": "yes", "payment:contactless": "yes", "payment:credit_cards": "yes", "shop": "supermarket", "wheelchair": "yes"}}, {"type": "node", "id": 4701043047, "lat": 37.8118799, "lon": -122.2123816}, {"type": "node", "id": 4703329126, "lat": 37.7969199, "lon": -122.2046385}, {"type": "node", "id": 4703329127, "lat": 37.7969269, "lon": -122.2046472}, {"type": "node", "id": 4704557447, "lat": 37.785398, "lon": -122.4056288, "tags": {"addr:city": "San Francisco", "addr:housenumber": "10", "addr:postcode": "94103", "addr:state": "CA", "addr:street": "4th Street", "brand": "Trader Joe's", "brand:wikidata": "Q688825", "brand:wikipedia": "en:Trader Joe's", "check_date:opening_hours": "2022-10-14", "level": "-1", "name": "Trader Joe's", "opening_hours": "Mo-Su 08:00-21:00", "shop": "supermarket"}}, {"type": "node", "id": 4712468080, "lat": 37.8784785, "lon": -122.2698254}, {"type": "node", "id": 4721943034, "lat": 37.8810757, "lon": -122.2977062}, {"type": "node", "id": 4721943052, "lat": 37.8811284, "lon": -122.2974403}, {"type": "node", "id": 4746989110, "lat": 37.9311321, "lon": -122.3213609}, {"type": "node", "id": 4746989718, "lat": 37.9311123, "lon": -122.3213415}, {"type": "node", "id": 4748373218, "lat": 37.931649, "lon": -122.321752}, {"type": "node", "id": 4772921740, "lat": 37.8900977, "lon": -122.2871839}, {"type": "node", "id": 4772926230, "lat": 37.8904034, "lon": -122.286598}, {"type": "node", "id": 4772927354, "lat": 37.8904074, "lon": -122.2865785}, {"type": "node", "id": 4772927887, "lat": 37.8900423, "lon": -122.2871655}, {"type": "node", "id": 4777439529, "lat": 37.9072597, "lon": -122.3064353}, {"type": "node", "id": 4777439530, "lat": 37.9071811, "lon": -122.3063835}, {"type": "node", "id": 4777439531, "lat": 37.9072493, "lon": -122.3064607}, {"type": "node", "id": 4812364281, "lat": 37.9996551, "lon": -122.287196, "tags": {"addr:city": "Pinole", "addr:housenumber": "1300", "addr:postcode": "94564", "addr:state": "CA", "addr:street": "Pinole Valley Road", "brand": "Sprouts Farmers Market", "brand:wikidata": "Q7581369", "brand:wikipedia": "en:Sprouts Farmers Market", "name": "Sprouts Farmers Market", "opening_hours": "07:00-22:00", "shop": "supermarket", "short_name": "Sprouts", "website": "https://sprouts.com/"}}, {"type": "node", "id": 4852448016, "lat": 37.7733138, "lon": -122.4389402, "tags": {"addr:city": "San Francisco", "addr:housenumber": "302", "addr:postcode": "94127", "addr:state": "CA", "addr:street": "Broderick Street", "level": "0", "name": "Falletti Foods", "opening_hours": "Mo-Su 07:00-21:00", "shop": "supermarket", "website": "http://fallettifoods.com"}}, {"type": "node", "id": 4925653001, "lat": 37.7935837, "lon": -122.4110435, "tags": {"shop": "supermarket"}}, {"type": "node", "id": 4934810052, "lat": 37.7305295, "lon": -122.4291782}, {"type": "node", "id": 4934810053, "lat": 37.7304058, "lon": -122.429167}, {"type": "node", "id": 4934810054, "lat": 37.730402, "lon": -122.4292351}, {"type": "node", "id": 4934810055, "lat": 37.7303285, "lon": -122.4292285}, {"type": "node", "id": 4934810056, "lat": 37.7303331, "lon": -122.4291477}, {"type": "node", "id": 4934810057, "lat": 37.7300934, "lon": -122.4291264}, {"type": "node", "id": 4934810058, "lat": 37.7303553, "lon": -122.4288093}, {"type": "node", "id": 4934810059, "lat": 37.7303596, "lon": -122.4287336}, {"type": "node", "id": 4934810060, "lat": 37.7305536, "lon": -122.4287511}, {"type": "node", "id": 4937396411, "lat": 37.7529229, "lon": -122.4157704}, {"type": "node", "id": 4937396412, "lat": 37.7529944, "lon": -122.4157778}, {"type": "node", "id": 4937396413, "lat": 37.7529991, "lon": -122.415697}, {"type": "node", "id": 4937396414, "lat": 37.7531614, "lon": -122.4157123}, {"type": "node", "id": 4937396415, "lat": 37.7531818, "lon": -122.4157323}, {"type": "node", "id": 4937396416, "lat": 37.7533204, "lon": -122.4155056}, {"type": "node", "id": 4955428694, "lat": 37.9924517, "lon": -122.1208999, "tags": {"name": "Nob Hill", "shop": "supermarket"}}, {"type": "node", "id": 4983814523, "lat": 37.9375713, "lon": -122.3478724, "tags": {"addr:postcode": "94804", "name": "Lao Jaleune Supermarket", "phone": "+15102343895", "shop": "supermarket"}}, {"type": "node", "id": 5070942446, "lat": 37.8369187, "lon": -122.2943658}, {"type": "node", "id": 5070942463, "lat": 37.8368594, "lon": -122.2943605}, {"type": "node", "id": 5070942480, "lat": 37.8369161, "lon": -122.2943788}, {"type": "node", "id": 5153772161, "lat": 37.9222203, "lon": -122.3154601, "tags": {"addr:housenumber": "11450", "addr:postcode": "94530", "addr:street": "San Pablo Avenue", "brand": "Safeway", "brand:wikidata": "Q1508234", "brand:wikipedia": "en:Safeway Inc.", "name": "Safeway", "opening_hours": "05:00-01:00", "phone": "+1-510-233-8400", "ref:operator": "2940", "shop": "supermarket", "website": "https://local.safeway.com/ca/el-cerrito-2940.html"}}, {"type": "node", "id": 5270843145, "lat": 37.7824723, "lon": -122.4317597}, {"type": "node", "id": 5421746769, "lat": 37.891182, "lon": -122.278712}, {"type": "node", "id": 5421746772, "lat": 37.8912276, "lon": -122.278722}, {"type": "node", "id": 5437182833, "lat": 37.7696338, "lon": -122.453061}, {"type": "node", "id": 5598432671, "lat": 37.7693808, "lon": -122.4286493}, {"type": "node", "id": 5598432672, "lat": 37.7693858, "lon": -122.4286499}, {"type": "node", "id": 5598432675, "lat": 37.7693221, "lon": -122.4289745}, {"type": "node", "id": 5598432676, "lat": 37.7693635, "lon": -122.4289297}, {"type": "node", "id": 5598432677, "lat": 37.7689041, "lon": -122.4278048}, {"type": "node", "id": 5598432678, "lat": 37.7689152, "lon": -122.4277865}, {"type": "node", "id": 5598432679, "lat": 37.7688885, "lon": -122.4278444}, {"type": "node", "id": 5598432680, "lat": 37.7688957, "lon": -122.4278238}, {"type": "node", "id": 5598432681, "lat": 37.7689593, "lon": -122.4277469}, {"type": "node", "id": 5598432682, "lat": 37.7688841, "lon": -122.4278667}, {"type": "node", "id": 5598432683, "lat": 37.7689934, "lon": -122.4277351}, {"type": "node", "id": 5598432684, "lat": 37.768943, "lon": -122.4277579}, {"type": "node", "id": 5598432685, "lat": 37.768976, "lon": -122.4277399}, {"type": "node", "id": 5598432686, "lat": 37.7690112, "lon": -122.4277334}, {"type": "node", "id": 5598432691, "lat": 37.7691561, "lon": -122.428975}, {"type": "node", "id": 5598432692, "lat": 37.7691572, "lon": -122.4289582}, {"type": "node", "id": 5616585421, "lat": 37.8852078, "lon": -122.2978846, "tags": {"addr:housenumber": "1075", "addr:postcode": "94706", "addr:street": "Monroe Street", "brand": "Sprouts Farmers Market", "brand:wikidata": "Q7581369", "brand:wikipedia": "en:Sprouts Farmers Market", "check_date:opening_hours": "2022-10-11", "name": "Sprouts Farmers Market", "opening_hours": "Mo-Su 07:00-22:00", "phone": "(510) 345-0461", "shop": "supermarket", "short_name": "Sprouts", "website": "https://www.sprouts.com/store/ca/albany/albany/", "wheelchair": "yes"}}, {"type": "node", "id": 5629883547, "lat": 37.8805544, "lon": -122.2981046}, {"type": "node", "id": 5629883548, "lat": 37.8805558, "lon": -122.2980974}, {"type": "node", "id": 5771926087, "lat": 37.7736135, "lon": -122.2122515}, {"type": "node", "id": 5771926088, "lat": 37.7736075, "lon": -122.2120371}, {"type": "node", "id": 5771926089, "lat": 37.7736229, "lon": -122.211843}, {"type": "node", "id": 5771926090, "lat": 37.7735437, "lon": -122.2119031}, {"type": "node", "id": 5771926094, "lat": 37.7733161, "lon": -122.2124813}, {"type": "node", "id": 6075530401, "lat": 37.7835246, "lon": -122.4476635}, {"type": "node", "id": 6075530411, "lat": 37.7832009, "lon": -122.4479173}, {"type": "node", "id": 6075530412, "lat": 37.7835265, "lon": -122.4476486}, {"type": "node", "id": 6075530424, "lat": 37.7831857, "lon": -122.4479142}, {"type": "node", "id": 6075574280, "lat": 37.7835756, "lon": -122.4478012}, {"type": "node", "id": 6075574281, "lat": 37.7835226, "lon": -122.4480882}, {"type": "node", "id": 6075583626, "lat": 37.7834154, "lon": -122.4480662}, {"type": "node", "id": 6075583629, "lat": 37.7832646, "lon": -122.4480355}, {"type": "node", "id": 6075583632, "lat": 37.7833813, "lon": -122.4480594}, {"type": "node", "id": 6110410528, "lat": 37.7825607, "lon": -122.4667738}, {"type": "node", "id": 6110410544, "lat": 37.7826315, "lon": -122.4667788}, {"type": "node", "id": 6117684983, "lat": 37.8902736, "lon": -122.1269252, "tags": {"brand": "Trader Joe's", "brand:wikidata": "Q688825", "brand:wikipedia": "en:Trader Joe's", "name": "Trader Joe's", "shop": "supermarket"}}, {"type": "node", "id": 6313658719, "lat": 37.8410129, "lon": -122.2741335, "tags": {"amenity": "restaurant", "name": "Al Maida Hot Food and Market", "shop": "grocery"}}, {"type": "node", "id": 6454343835, "lat": 37.7438495, "lon": -122.4391969}, {"type": "node", "id": 6454343840, "lat": 37.7438124, "lon": -122.4385904}, {"type": "node", "id": 6454343841, "lat": 37.7437827, "lon": -122.4385585}, {"type": "node", "id": 6454343842, "lat": 37.7437894, "lon": -122.4392876}, {"type": "node", "id": 6469314085, "lat": 37.7890338, "lon": -122.3919796, "tags": {"addr:city": "San Francisco", "addr:housenumber": "203", "addr:postcode": "94105", "addr:state": "CA", "addr:street": "Folsom Street", "name": "Woodlands Market", "opening_hours": "Mo-Su 07:00-21:00", "shop": "supermarket", "website": "https://www.woodlandsmarket.com/san-francisco/"}}, {"type": "node", "id": 6597795934, "lat": 37.8126015, "lon": -122.2604848}, {"type": "node", "id": 6597795935, "lat": 37.8126363, "lon": -122.2605462}, {"type": "node", "id": 6597795937, "lat": 37.8135756, "lon": -122.2606398}, {"type": "node", "id": 6597795938, "lat": 37.8135465, "lon": -122.2606661}, {"type": "node", "id": 6597795940, "lat": 37.8133876, "lon": -122.260306}, {"type": "node", "id": 6597795941, "lat": 37.8131821, "lon": -122.2604915}, {"type": "node", "id": 6597795942, "lat": 37.8129834, "lon": -122.2601388}, {"type": "node", "id": 6597795943, "lat": 37.8129218, "lon": -122.2601945}, {"type": "node", "id": 6597795945, "lat": 37.8128843, "lon": -122.2602283}, {"type": "node", "id": 6611850458, "lat": 38.0008951, "lon": -122.1326673}, {"type": "node", "id": 6612380473, "lat": 37.7696338, "lon": -122.4530619}, {"type": "node", "id": 6612380474, "lat": 37.769489, "lon": -122.4530318}, {"type": "node", "id": 7071730541, "lat": 37.7449469, "lon": -122.4522357}, {"type": "node", "id": 7071730543, "lat": 37.7449398, "lon": -122.4522091}, {"type": "node", "id": 7071730544, "lat": 37.7449433, "lon": -122.4522142}, {"type": "node", "id": 7071730545, "lat": 37.7449446, "lon": -122.4522424}, {"type": "node", "id": 7071730546, "lat": 37.7449473, "lon": -122.4522274}, {"type": "node", "id": 7237603046, "lat": 37.7767766, "lon": -122.2745244}, {"type": "node", "id": 7237603060, "lat": 37.7765141, "lon": -122.2749503}, {"type": "node", "id": 7237603062, "lat": 37.7767576, "lon": -122.2745889}, {"type": "node", "id": 7237603078, "lat": 37.7769646, "lon": -122.2749365}, {"type": "node", "id": 7237603080, "lat": 37.7767563, "lon": -122.2745244}, {"type": "node", "id": 7237651194, "lat": 37.7764996, "lon": -122.2749509}, {"type": "node", "id": 7237651196, "lat": 37.7769519, "lon": -122.2749369}, {"type": "node", "id": 7762107212, "lat": 37.7673422, "lon": -122.4092242}, {"type": "node", "id": 8038228057, "lat": 37.7996617, "lon": -122.2533586}, {"type": "node", "id": 8118795249, "lat": 37.8294901, "lon": -122.2802443, "tags": {"addr:housenumber": "3889", "addr:postcode": "94608", "addr:street": "San Pablo Avenue", "designation": "Safeway", "name": "Pak N Save - Safeway", "opening_hours": "Mo-Su 06:00-22:00", "phone": "(510) 450-1200", "shop": "supermarket", "website": "https://local.safeway.com/pak-n-save/ca/emeryville/3889-san-pablo-ave.html"}}, {"type": "node", "id": 8140177640, "lat": 37.7972287, "lon": -122.4352703, "tags": {"addr:city": "San Francisco", "addr:housenumber": "2190", "addr:postcode": "94123", "addr:state": "CA", "addr:street": "Union Street", "name": "Luke's Local", "opening_hours": "Mo-Su 08:00-21:00", "opening_hours:covid19": "same", "organic": "yes", "payment:american_express": "yes", "payment:cash": "yes", "payment:contactless": "yes", "payment:credit_cards": "yes", "payment:debit_cards": "yes", "payment:mastercard": "yes", "payment:visa": "yes", "shop": "supermarket", "start_date": "2020-11-14", "website": "https://lukeslocal.com/"}}, {"type": "node", "id": 8272513221, "lat": 37.8256116, "lon": -122.2527136}, {"type": "node", "id": 8272513222, "lat": 37.825676, "lon": -122.2526348}, {"type": "node", "id": 8713627653, "lat": 37.7528609, "lon": -122.4104106, "tags": {"shop": "supermarket"}}, {"type": "node", "id": 8758993181, "lat": 37.9058162, "lon": -122.3053631, "tags": {"name": "New india", "shop": "supermarket"}}, {"type": "node", "id": 8759011945, "lat": 37.9109924, "lon": -122.3077327, "tags": {"description": "Japanese supermarket.", "name": "Yaoya-san", "opening_hours": "Tu-Su 10:00-19:00", "shop": "supermarket", "website": "https://www.yaoyasan.com"}}, {"type": "node", "id": 8895540892, "lat": 37.819672, "lon": -122.2619451, "tags": {"amenity": "parking_entrance"}}, {"type": "node", "id": 8895540897, "lat": 37.8191009, "lon": -122.2627423}, {"type": "node", "id": 8895540901, "lat": 37.8191856, "lon": -122.2627861}, {"type": "node", "id": 8895540902, "lat": 37.818781, "lon": -122.262767, "tags": {"amenity": "parking_entrance"}}, {"type": "node", "id": 8947382607, "lat": 37.7853758, "lon": -122.2811296}, {"type": "node", "id": 8947382608, "lat": 37.7852917, "lon": -122.2810346}, {"type": "node", "id": 8947382609, "lat": 37.7852578, "lon": -122.2799326}, {"type": "node", "id": 8947382610, "lat": 37.7853258, "lon": -122.2798426}, {"type": "node", "id": 9023293126, "lat": 37.8091295, "lon": -122.4187761, "tags": {"addr:housenumber": "Pier 47", "name": "J & P Bait", "phone": "(415) 507-1962", "shop": "supermarket", "website": "https://www.facebook.com/JP-Bait-190511807702436"}}, {"type": "node", "id": 9273452064, "lat": 37.8191987, "lon": -122.2621406}, {"type": "node", "id": 9273452071, "lat": 37.8191573, "lon": -122.2622973}, {"type": "node", "id": 9273452095, "lat": 37.8187927, "lon": -122.2624032}, {"type": "node", "id": 9344941253, "lat": 37.8374422, "lon": -122.2616309, "tags": {"addr:housenumber": "5101;5179;5199", "addr:street": "Telegraph Avenue", "brand": "Whole Foods Market", "brand:wikidata": "Q1809448", "brand:wikipedia": "en:Whole Foods Market", "name": "Whole Foods Market", "shop": "supermarket"}}, {"type": "node", "id": 9581957721, "lat": 37.7788891, "lon": -122.414112, "tags": {"addr:housenumber": "1185", "addr:street": "Market Street", "brand": "Whole Foods Market", "brand:wikidata": "Q1809448", "brand:wikipedia": "en:Whole Foods Market", "name": "Whole Foods Market", "opening_hours": "Mo-Su 08:00-21:00", "opening_hours:covid19": "same", "phone": "+1-415-354-7555", "shop": "supermarket", "website": "https://www.wholefoodsmarket.com/stores/trinity"}}, {"type": "node", "id": 9634295932, "lat": 37.8128206, "lon": -122.2602857}, {"type": "node", "id": 9689397341, "lat": 37.9039617, "lon": -122.2778249}, {"type": "node", "id": 9689397344, "lat": 37.9039957, "lon": -122.2778303}, {"type": "node", "id": 9689397345, "lat": 37.904002, "lon": -122.2778198}, {"type": "node", "id": 9689397346, "lat": 37.9040703, "lon": -122.2779152}, {"type": "node", "id": 9689397347, "lat": 37.9040593, "lon": -122.2779047}, {"type": "node", "id": 9689397348, "lat": 37.9040707, "lon": -122.2778856}, {"type": "node", "id": 9689397349, "lat": 37.9040674, "lon": -122.277924}, {"type": "node", "id": 9765670368, "lat": 37.7692979, "lon": -122.415046, "tags": {"door": "sliding", "entrance": "main"}}, {"type": "node", "id": 9813443099, "lat": 37.9358537, "lon": -122.3486926}, {"type": "node", "id": 9892676258, "lat": 37.8908911, "lon": -122.2789901}, {"type": "node", "id": 9892676259, "lat": 37.8909197, "lon": -122.2789964}, {"type": "node", "id": 9892676260, "lat": 37.8912391, "lon": -122.2782882}, {"type": "node", "id": 9908618530, "lat": 37.7833913, "lon": -122.4223935, "tags": {"addr:city": "San Francisco", "addr:housenumber": "995", "addr:postcode": "94109", "addr:state": "CA", "addr:street": "Ellis Street", "name": "College Market", "shop": "supermarket"}}, {"type": "node", "id": 10028190731, "lat": 37.8256499, "lon": -122.2086937}, {"type": "node", "id": 10028190732, "lat": 37.8254089, "lon": -122.2084941}, {"type": "node", "id": 10028455855, "lat": 37.7339782, "lon": -122.4339306}, {"type": "node", "id": 10057579916, "lat": 37.8263913, "lon": -122.3704466, "tags": {"name": "Island Cove Market", "shop": "supermarket"}}, {"type": "node", "id": 10089911217, "lat": 37.9218019, "lon": -122.3124086, "tags": {"addr:housenumber": "1600", "addr:postcode": "94530", "addr:street": "Liberty Street", "name": "Giovanni's Produce and Grocery", "phone": "5102351233", "shop": "grocery"}}, {"type": "node", "id": 10114600546, "lat": 37.7765808, "lon": -122.4163554}, {"type": "way", "id": 22916723, "nodes": [246739578, 246739579, 10028190732, 246739580, 246739581, 10028190731, 246739578], "tags": {"addr:housenumber": "2096", "addr:postcode": "94611", "addr:street": "Mountain Boulevard", "brand": "Safeway", "brand:wikidata": "Q1508234", "brand:wikipedia": "en:Safeway Inc.", "building": "yes", "designation": "Safeway 0654", "name": "Safeway", "opening_hours": "06:00-24:00", "parking": "rooftop", "shop": "supermarket", "website": "https://local.safeway.com/ca/oakland-654.html"}}, {"type": "way", "id": 23226440, "nodes": [251271013, 3187950923, 4680790126, 251271014, 251271015, 251271016, 251271017, 251271018, 251271021, 251271022, 4680790137, 251271026, 251271027, 3187950917, 3187950918, 251271013], "tags": {"addr:city": "Berkeley", "addr:housenumber": "2020", "addr:street": "Oregon Street", "building": "retail", "building:levels": "1", "name": "Berkeley Bowl", "opening_hours": "Mo-Sa 09:00-20:00; Su 10:00-18:00", "phone": "+15108436929", "shop": "supermarket", "website": "https://www.berkeleybowl.com/", "wheelchair": "yes"}}, {"type": "way", "id": 24206464, "nodes": [262105255, 262105293, 262105256, 262105257, 262105258, 262105259, 262105260, 262105261, 2019596502, 262105262, 262105263, 262105264, 262105265, 262105266, 262105267, 262105268, 262105273, 262105274, 262105276, 262105275, 262105269, 262105270, 262105271, 262105272, 262105255], "tags": {"addr:city": "El Cerrito", "addr:housenumber": "1000", "addr:postcode": "95430", "addr:state": "CA", "addr:street": "El Cerrito Plaza", "brand": "Lucky", "brand:wikidata": "Q6698032", "brand:wikipedia": "en:Lucky Stores", "building": "retail", "building:levels": "1", "name": "Lucky", "opening_hours": "Mo-Su 06:00-22:00", "phone": "(510) 524-7282", "shop": "supermarket", "website": "https://www.luckysupermarkets.com/stores/el-cerrito-709/5036", "wheelchair": "yes"}}, {"type": "way", "id": 24221445, "nodes": [262257319, 2906828013, 2906825985, 262257320, 2906828010, 2906825990, 262257321, 262257322, 262257323, 262257324, 2906828001, 2906825995, 2906825987, 262257325, 2906825977, 2906828005, 2906825974, 2906826000, 262257326, 2906828009, 2242837168, 2906825983, 2242837160, 2906828018, 2906825981, 2242837165, 2906825975, 2906825972, 262257319], "tags": {"addr:city": "Berkeley", "addr:country": "US", "addr:housenumber": "1444", "addr:postcode": "94709", "addr:state": "CA", "addr:street": "Shattuck Avenue", "brand": "Safeway", "brand:wikidata": "Q1508234", "brand:wikipedia": "en:Safeway Inc.", "building": "retail", "building:levels": "1", "name": "Safeway", "opening_hours": "Mo-Su 05:00-23:00", "phone": "15105263086", "shop": "supermarket", "website": "https://local.safeway.com/safeway/ca/berkeley/1444-shattuck-place.html", "wheelchair": "yes"}}, {"type": "way", "id": 25821952, "nodes": [281652956, 281652957, 281652958, 281652959, 281652956], "tags": {"addr:housenumber": "1800", "addr:street": "Folsom Street", "brand": "Foods Co", "brand:wikidata": "Q5465282", "brand:wikipedia": "en:Food 4 Less", "building": "retail", "name": "Foods Co", "opening_hours": "06:00-01:00", "shop": "supermarket"}}, {"type": "way", "id": 26135377, "nodes": [286131029, 286131030, 286131031, 286131032, 2282799648, 2282799645, 2282799654, 2282799649, 286131029], "tags": {"addr:city": "San Francisco", "addr:housenumber": "15", "addr:postcode": "94123", "addr:street": "Marina Boulevard", "brand": "Safeway", "brand:wikidata": "Q1508234", "brand:wikipedia": "en:Safeway Inc.", "building": "yes", "designation": "Safeway 1711", "height": "5", "name": "Safeway", "opening_hours": "24/7", "shop": "supermarket", "website": "https://local.safeway.com/ca/san-francisco-1711.html", "wheelchair": "yes"}}, {"type": "way", "id": 28941473, "nodes": [318178961, 2287770998, 318178962, 318178963, 1377221132, 318178964, 1377221133, 2287770996, 318178965, 2287771002, 2287771001, 318178967, 2287770995, 2287736967, 2287770997, 318178961], "tags": {"addr:city": "San Francisco", "addr:housenumber": "730", "addr:postcode": "94116", "addr:street": "Taraval Street", "branch": "0909", "brand": "Safeway", "brand:wikidata": "Q1508234", "brand:wikipedia": "en:Safeway Inc.", "building": "yes", "designation": "Safeway 0909", "height": "5", "name": "Safeway", "opening_hours": "06:00-24:00", "phone": "+1 (415) 665-4136", "ref": "909", "shop": "supermarket", "website": "https://local.safeway.com/ca/san-francisco-909.html"}}, {"type": "way", "id": 30877164, "nodes": [343311762, 343311763, 5421746769, 5421746772, 343311764, 2206283678, 343311765, 9892676260, 343311766, 343311767, 343311768, 343311769, 343311770, 2206283690, 343311771, 343311772, 9892676258, 9892676259, 343311773, 343311762], "tags": {"addr:city": "Berkeley", "addr:housenumber": "1850", "addr:postcode": "94707", "addr:street": "Solano Avenue", "alt_name": "Andronico's", "building": "retail", "name": "Andronico's Community Market", "old_name": "Safeway Community Markets;Park & Shop", "opening_hours": "Mo-Su 06:00-23:00", "phone": "(510) 524-1673", "shop": "supermarket", "website": "https://local.andronicos.com/ca/berkeley/1850-solano-ave.html"}}, {"type": "way", "id": 30877194, "nodes": [2206275696, 343311921, 343311922, 4772927354, 4772926230, 343311924, 4772927887, 4772921740, 343311937, 343311942, 343311943, 2206275695, 2206275696], "tags": {"addr:city": "Albany", "addr:housenumber": "1500", "addr:street": "Solano Avenue", "brand": "Safeway", "brand:wikidata": "Q1508234", "brand:wikipedia": "en:Safeway Inc.", "building": "retail", "name": "Safeway", "opening_hours": "24/7", "shop": "supermarket", "toilets": "yes", "website": "https://local.safeway.com/safeway/ca/albany/1500-solano-ave.html"}}, {"type": "way", "id": 31424109, "nodes": [350379088, 350379089, 350379091, 350384374, 350379093, 350379095, 350379088], "tags": {"addr:city": "Orinda", "addr:country": "US", "addr:housenumber": "2", "addr:postcode": "94563", "addr:state": "CA", "addr:street": "Camino Sobrante", "brand": "Safeway", "brand:wikidata": "Q1508234", "brand:wikipedia": "en:Safeway Inc.", "building": "retail", "designation": "Safeway 0967", "name": "Safeway", "opening_hours": "24/7", "shop": "supermarket", "website": "https://local.safeway.com/ca/orinda-967.html", "wheelchair": "yes"}}, {"type": "way", "id": 31963450, "nodes": [358058686, 358058687, 358058688, 358058689, 358058686], "tags": {"brand": "Lucky", "brand:wikidata": "Q6698032", "brand:wikipedia": "en:Lucky Stores", "building": "retail", "name": "Lucky", "shop": "supermarket"}}, {"type": "way", "id": 32456726, "nodes": [364880844, 364880845, 364880846, 364880847, 988503860, 988503861, 364880848, 364880849, 364880850, 364880851, 364880844], "tags": {"addr:city": "Berkeley", "addr:housenumber": "1550", "addr:postcode": "94707", "addr:street": "Hopkins Street", "building": "retail", "building:levels": "1", "name": "Monterey Market", "note": "Really mostly a greengrocer", "opening_hours": "Mo-Fr 09:00-19:00; Sa, Su 08:30-18:00", "shop": "supermarket", "website": "https://en.m.wikipedia.org/wiki/Monterey_Market"}}, {"type": "way", "id": 34323155, "nodes": [393729801, 6075530401, 6075530412, 393729802, 6075530424, 6075530411, 393729803, 6075583629, 6075583632, 6075583626, 6075574281, 393729804, 6075574280, 393729801], "tags": {"addr:city": "San Francisco", "addr:country": "US", "addr:housenumber": "3", "addr:postcode": "94118", "addr:state": "CA", "addr:street": "Masonic Avenue", "brand": "Trader Joe's", "brand:wikidata": "Q688825", "brand:wikipedia": "en:Trader Joe's", "building": "retail", "building:levels": "1", "check_date:opening_hours": "2022-08-11", "height": "7", "name": "Trader Joe's", "opening_hours": "Mo-Su 08:00-21:00", "phone": "+1 (415) 346-9964", "ref": "100", "roof:levels": "0", "shop": "supermarket"}}, {"type": "way", "id": 37994792, "nodes": [446235213, 446235215, 446235217, 746849177, 746849182, 446235219, 4689255432, 4689260158, 4689251314, 4689259467, 4689259274, 4689263011, 4689251505, 4689255622, 4689254646, 4689258383, 4689262127, 4689253259, 4689252325, 4689253383, 4689257420, 4689251438, 746849197, 446235213], "tags": {"brand": "Whole Foods Market", "brand:wikidata": "Q1809448", "brand:wikipedia": "en:Whole Foods Market", "building": "retail", "name": "Whole Foods Market", "opening_hours": "Mo-Su 08:00-21:00", "shop": "supermarket", "website": "https://www.wholefoodsmarket.com/stores/berkeley"}}, {"type": "way", "id": 42916777, "nodes": [537501766, 537501830, 537501829, 537501767, 537501769, 4547291183, 537501796, 537501770, 537501766], "tags": {"building": "yes", "height": "5", "name": "Cash & Carry", "shop": "supermarket"}}, {"type": "way", "id": 52769190, "nodes": [669533769, 669533770, 669533771, 669533772, 669533773, 669533774, 669533775, 669533777, 669533769], "tags": {"addr:housenumber": "920", "addr:street": "Heinz Avenue", "building": "yes", "name": "Berkeley Bowl West", "opening_hours": "Mo-Sa 09:00-20:00; Su 10:00-18:00", "phone": "(510) 898-9555", "shop": "supermarket", "website": "https://www.berkeleybowl.com/", "wheelchair": "yes"}}, {"type": "way", "id": 80493585, "nodes": [939010949, 939010950, 9689397349, 9689397346, 9689397347, 9689397348, 9689397345, 9689397344, 939010951, 9689397341, 939010952, 939010949], "tags": {"building": "retail", "building:levels": "2", "name": "Young's Market", "shop": "supermarket", "toilets": "yes", "toilets:access": "public"}}, {"type": "way", "id": 89905471, "nodes": [1042049295, 1042049322, 1042049263, 1042049251, 1042049261, 1042049354, 1042049298, 1042049303, 1042049332, 5070942463, 5070942480, 5070942446, 1042049262, 1042049283, 1042049295], "tags": {"addr:city": "Emeryville", "addr:housenumber": "5700;5751;5761;5765;5767;5769;5777;5791", "addr:postcode": "94608", "addr:state": "CA", "addr:street": "Christie Avenue", "brand": "Trader Joe's", "brand:wikidata": "Q688825", "brand:wikipedia": "en:Trader Joe's", "building": "yes", "name": "Trader Joe's", "shop": "supermarket", "wheelchair": "yes"}}, {"type": "way", "id": 94405302, "nodes": [1096686488, 1096686429, 1096686244, 1096686438, 1096687254, 1096686681, 1096686481, 1096686252, 1096686241, 1096687259, 1096686488], "tags": {"addr:housenumber": "6344", "addr:street": "Moraga Avenue", "brand": "Lucky", "brand:wikidata": "Q6698032", "brand:wikipedia": "en:Lucky Stores", "building": "yes", "name": "Lucky", "shop": "supermarket"}}, {"type": "way", "id": 105058438, "nodes": [1211032560, 1211033767, 4052290593, 4052295851, 1211031024, 1211031062, 2836883670, 1211032560], "tags": {"addr:city": "Oakland", "addr:housenumber": "3426", "addr:state": "CA", "addr:street": "Fruitvale Avenue", "building": "retail", "contact:phone": "+1-510-482-8899", "name": "Farmer Joe's", "opening_hours": "08:30-20:30", "operator": "Joe", "organic": "yes", "shop": "supermarket", "website": "http://farmerjoesmarketplace.com/"}}, {"type": "way", "id": 109107328, "nodes": [1250119241, 1250119242, 1250119237, 1250119234, 1250119235, 1246324336, 1250119239, 4703329127, 4703329126, 1250119236, 1250119241], "tags": {"addr:housenumber": "3033", "addr:street": "MacArthur Boulevard", "building": "yes", "name": "The Food Mill", "shop": "supermarket"}}, {"type": "way", "id": 116779300, "nodes": [1315718096, 1315718126, 1315718115, 1315718151, 1315718133, 1315718121, 1315718113, 1315718123, 1315718129, 1315718109, 1315718127, 1315718094, 1315718096], "tags": {"addr:housenumber": "815;817;819;821", "addr:street": "Marina Village Parkway", "brand": "Lucky", "brand:wikidata": "Q6698032", "brand:wikipedia": "en:Lucky Stores", "building": "yes", "name": "Lucky", "shop": "supermarket"}}, {"type": "way", "id": 116807337, "nodes": [1316025906, 1316026143, 1316025904, 1316025716, 1316025673, 1316025881, 1316025822, 1316025661, 1316025797, 1316026094, 1316025939, 1316025649, 1316025824, 1316025664, 1316026146, 1316025677, 1316026043, 1316025684, 1316026136, 1316025671, 1316026203, 1316025906], "tags": {"addr:city": "Oakland", "addr:housenumber": "3100", "addr:postcode": "94601", "addr:street": "East 9th Street", "brand": "FoodMaxx", "brand:wikidata": "Q61894844", "building": "yes", "name": "FoodMaxx", "phone": "510 437 8000", "shop": "supermarket"}}, {"type": "way", "id": 117316157, "nodes": [587298135, 1321244211, 1321244229, 1321244277, 1321244320, 587298135], "tags": {"brand": "Trader Joe's", "brand:wikidata": "Q688825", "brand:wikipedia": "en:Trader Joe's", "building": "retail", "name": "Trader Joe's", "shop": "supermarket"}}, {"type": "way", "id": 118422328, "nodes": [1332033211, 1332033170, 1332033196, 1332033102, 1332033209, 1332033095, 1332033211], "tags": {"addr:housenumber": "3550", "addr:postcode": "94602", "addr:street": "Fruitvale Avenue", "branch": "0908", "brand": "Safeway", "brand:wikidata": "Q1508234", "brand:wikipedia": "en:Safeway Inc.", "building": "yes", "designation": "Safeway 0908", "name": "Safeway", "opening_hours": "06:00-24:00", "shop": "supermarket", "website": "https://local.safeway.com/ca/oakland-908.html"}}, {"type": "way", "id": 124842857, "nodes": [1388235222, 1388235206, 1388235220, 1388235224, 1388235199, 1388235217, 1388235213, 1388235222], "tags": {"addr:housenumber": "2370", "building": "retail", "contact:phone": "+1-510-986-1234", "contact:website": "http://www.koreanaplaza.com/", "name": "Koreana Plaza", "opening_hours": "07:00-22:00", "shop": "supermarket", "source": "Bing", "wheelchair": "yes"}}, {"type": "way", "id": 125697186, "nodes": [1395461495, 1395461498, 1395461497, 1395461506, 1395461496, 1395461494, 1395461500, 1395461504, 1395461495], "tags": {"addr:housenumber": "2900", "brand": "Grocery Outlet", "brand:wikidata": "Q5609934", "brand:wikipedia": "en:Grocery Outlet", "building": "yes", "contact:website": "groceryoutlet.com", "name": "Grocery Outlet", "official_name": "Grocery Outlet Bargain Market", "opening_hours": "07:00-22:00", "shop": "supermarket", "wheelchair": "yes"}}, {"type": "way", "id": 127804758, "nodes": [1413800126, 1413800132, 1413800141, 4777439530, 4777439529, 4777439531, 1413800126], "tags": {"addr:housenumber": "10367", "addr:postcode": "94530", "addr:street": "San Pablo Avenue", "alt_name": "El Cerrito Natural Grocery", "building": "yes", "name": "The Natural Grocery Company", "opening_hours": "Mo-Su 08:30-19:30", "phone": "+1-510-526-1155", "shop": "supermarket", "website": "http://www.naturalgrocery.com/", "wheelchair": "yes"}}, {"type": "way", "id": 134483637, "nodes": [1478543345, 1478543322, 1966450788, 1478543328, 1478543345], "tags": {"addr:city": "Berkeley", "addr:housenumber": "1336", "addr:street": "Gilman Street", "building": "retail", "name": "Berkeley Natural Grocery", "opening_hours": "Mo-Su 09:00-19:30", "shop": "grocery", "website": "http://naturalgrocery.com/"}}, {"type": "way", "id": 151183375, "nodes": [2931450905, 1640101706, 2931450180, 1640101688, 2931450175, 2931450176, 2931450178, 2931450181, 2931450183, 2931450185, 2931450905], "tags": {"addr:city": "San Francisco", "addr:housenumber": "345", "addr:postcode": "94124", "addr:state": "CA", "addr:street": "Williams Avenue", "building": "yes", "height": "6", "name": "Foodsco", "opening_hours": "Mo-Su 06:00-00:00", "phone": "+1-415-330-1870", "shop": "supermarket", "website": "foodsco.net"}}, {"type": "way", "id": 154644945, "nodes": [1671449586, 1671449584, 1671449579, 1671449598, 1671449591, 1671449597, 1671449595, 1671449588, 1671449601, 1671449593, 1671449586], "tags": {"addr:housenumber": "3540", "addr:postcode": "94549", "addr:street": "Mount Diablo Boulevard", "brand": "Safeway", "brand:wikidata": "Q1508234", "brand:wikipedia": "en:Safeway Inc.", "building": "yes", "designation": "Safeway 0783", "name": "Safeway", "opening_hours": "24/7", "shop": "supermarket", "website": "https://local.safeway.com/ca/lafayette-783.html"}}, {"type": "way", "id": 166195195, "nodes": [1776778096, 2061466448, 2061466447, 2475053715, 2475053726, 2475053708, 2061466451, 2475053697, 2475053719, 2475053713, 2475053710, 2475053724, 2475053703, 2475053706, 2475053717, 2475053701, 2475053704, 1776778096], "tags": {"addr:housenumber": "1499", "addr:postcode": "94577", "addr:street": "Washington Avenue", "branch": "0994", "brand": "Safeway", "brand:wikidata": "Q1508234", "brand:wikipedia": "en:Safeway Inc.", "building": "retail", "designation": "Safeway 0994", "name": "Safeway", "opening_hours": "06:00-24:00", "shop": "supermarket", "website": "https://local.safeway.com/ca/san-leandro-994.html"}}, {"type": "way", "id": 169204245, "nodes": [1803661676, 3998379075, 764070894, 276545898, 3998379085, 3998379083, 3998379081, 9765670368, 276545899, 276545900, 276545901, 1803661672, 1803661678, 3998379080, 1803661671, 1803661675, 1803661669, 1803661674, 1803661676], "tags": {"addr:city": "San Francisco", "addr:country": "US", "addr:housenumber": "1745", "addr:postcode": "94103", "addr:state": "CA", "addr:street": "Folsom Street", "building": "hall", "cooperative": "yes", "email": "general@rainbow.coop", "fixme": "Validate additional holidays for opening_hours key", "image": "https://upload.wikimedia.org/wikipedia/en/4/46/Rainbow_grocery_logo.png", "name": "Rainbow Grocery Coop", "note": "HOLIDAYS:( CLOSED ON ) Martin Luther King Day (3rd Monday in January) Gay Pride Day (Last Sunday in June)", "opening_hours": "Mo-Su 09:00-21:00; PH closed; Mar 31 closed; May 01 closed", "phone": "+1 415-863-0620", "shop": "supermarket", "source": "website", "website": "https://www.rainbow.coop/", "wheelchair": "yes", "wikidata": "Q7284643", "wikipedia": "en:Rainbow Grocery Cooperative"}}, {"type": "way", "id": 170845442, "nodes": [1819811655, 2796439471, 1819811648, 1819811638, 2796438867, 2796438866, 1819811637, 2796439469, 2796438868, 2796439470, 1819811654, 1819811655], "tags": {"brand": "Smart & Final", "brand:wikidata": "Q7543916", "brand:wikipedia": "en:Smart & Final", "building": "yes", "height": "8", "name": "Smart & Final", "shop": "supermarket", "wheelchair": "yes"}}, {"type": "way", "id": 194906343, "nodes": [2054170700, 2054170689, 2054170702, 2321151157, 2321151160, 2321151158, 2321151156, 2054170704, 2054170700], "tags": {"addr:city": "San Francisco", "addr:housenumber": "3950", "addr:postcode": "94114", "addr:state": "CA", "addr:street": "24th Street", "brand": "Whole Foods Market", "brand:wikidata": "Q1809448", "brand:wikipedia": "en:Whole Foods Market", "building": "yes", "name": "Whole Foods Market", "operator": "Whole Foods", "phone": "+1 415 282-4700", "shop": "supermarket", "website": "https://www.wholefoodsmarket.com/stores/noevalley"}}, {"type": "way", "id": 219058165, "nodes": [2282647807, 2282647824, 2282647817, 2282647818, 2282647810, 2282647819, 2282647806, 2282647814, 2282647813, 2282647820, 2282647815, 2282647804, 371233599, 5270843145, 2282647807], "tags": {"addr:city": "San Francisco", "addr:housenumber": "1335", "addr:postcode": "94115", "addr:street": "Webster Street", "branch": "0995", "brand": "Safeway", "brand:wikidata": "Q1508234", "brand:wikipedia": "en:Safeway Inc.", "building": "retail", "designation": "Safeway 0995", "height": "7", "name": "Safeway", "opening_hours": "06:00-24:00", "shop": "supermarket", "website": "https://local.safeway.com/ca/san-francisco-995.html"}}, {"type": "way", "id": 219059390, "nodes": [2282680197, 2282680238, 2282680235, 2282680198, 2282680196, 2282680206, 2282680202, 2282680211, 2282680192, 2282680212, 2282680197], "tags": {"addr:city": "San Francisco", "addr:housenumber": "625", "addr:postcode": "94127", "addr:street": "Monterey Boulevard", "branch": "0759", "brand": "Safeway", "brand:wikidata": "Q1508234", "brand:wikipedia": "en:Safeway Inc.", "building": "yes", "designation": "Safeway 0759", "name": "Safeway", "opening_hours": "06:00-24:00", "ref": "759", "shop": "supermarket", "website": "https://local.safeway.com/ca/san-francisco-759.html"}}, {"type": "way", "id": 219071301, "nodes": [2282789021, 2282789026, 2282789020, 2282789014, 6454343841, 6454343840, 6454343835, 6454343842, 2282789021], "tags": {"addr:city": "San Francisco", "addr:housenumber": "5290", "addr:postcode": "94131", "addr:street": "Diamond Heights Boulevard", "branch": "0667", "brand": "Safeway", "brand:wikidata": "Q1508234", "brand:wikipedia": "en:Safeway Inc.", "building": "yes", "designation": "Safeway 0667", "height": "6", "name": "Safeway", "opening_hours": "06:00-02:00", "phone": "+1 (415) 824-7744", "ref": "0667", "shop": "supermarket", "website": "https://local.safeway.com/ca/san-francisco-667.html", "wheelchair": "yes"}}, {"type": "way", "id": 219071796, "nodes": [2282794101, 2282794095, 2282794106, 2282794078, 2282794112, 2282794079, 2282794094, 2282794119, 2282794085, 2282794092, 2282794114, 2282794097, 2282794081, 2282794093, 2282794083, 2282794117, 2282794103, 2282794118, 2282794090, 2282794098, 2282794113, 2282794101], "tags": {"addr:city": "San Francisco", "addr:country": "US", "addr:housenumber": "735", "addr:postcode": "94118", "addr:state": "CA", "addr:street": "7th Avenue", "branch": "2646", "brand": "Safeway", "brand:wikidata": "Q1508234", "brand:wikipedia": "en:Safeway Inc.", "building": "yes", "designation": "Safeway 2646", "height": "5", "name": "Safeway", "opening_hours": "24/7", "shop": "supermarket", "website": "https://local.safeway.com/ca/san-francisco-2646.html"}}, {"type": "way", "id": 219072560, "nodes": [2282801965, 2282801971, 1723375479, 5598432691, 5598432692, 5598432675, 5598432676, 5598432671, 5598432672, 2282801966, 2282801970, 2282801964, 5598432686, 5598432683, 5598432685, 5598432681, 5598432684, 2282801961, 5598432678, 5598432677, 5598432680, 5598432679, 5598432682, 2282801967, 2282801963, 2282801965], "tags": {"addr:city": "San Francisco", "addr:housenumber": "2020", "addr:postcode": "94114", "addr:state": "CA", "addr:street": "Market Street", "brand": "Safeway", "brand:wikidata": "Q1508234", "brand:wikipedia": "en:Safeway Inc.", "building": "retail", "building:levels": "1", "height": "6", "name": "Safeway", "opening_hours": "24/7", "ref": "1507", "shop": "supermarket", "website": "https://local.safeway.com/ca/san-francisco-1507.html"}}, {"type": "way", "id": 221073981, "nodes": [2301267523, 2838479533, 2838479534, 2034102824, 2301267530, 8272513222, 8272513221, 2301267523], "tags": {"addr:city": "Oakland", "addr:housename": "Piedmont Grocery", "addr:housenumber": "4038", "addr:postcode": "94611", "addr:street": "Piedmont Avenue", "building": "yes", "name": "Piedmont Grocery", "shop": "supermarket", "website": "https://piedmontgrocery.com/"}}, {"type": "way", "id": 225063111, "nodes": [2338865788, 2338865787, 2338865775, 2338865776, 2338865788], "tags": {"addr:housenumber": "448", "addr:postcode": "94110", "addr:street": "Cortland Avenue", "building": "yes", "name": "Good Life Grocery", "opening_hours": "Mo-Su 07:00-21:30", "shop": "supermarket", "wheelchair": "yes"}}, {"type": "way", "id": 228246796, "nodes": [2368791978, 2368791980, 2368783178, 2294690551, 6612380474, 5437182833, 6612380473, 2294690556, 2294690561, 2294690553, 2368784957, 2368791978], "tags": {"addr:housenumber": "690", "addr:street": "Stanyan Street", "brand": "Whole Foods Market", "brand:wikidata": "Q1809448", "brand:wikipedia": "en:Whole Foods Market", "building": "yes", "height": "6", "name": "Whole Foods Market", "opening_hours": "Mo-Su 08:00-22:00", "shop": "supermarket", "source": "Bing", "website": "https://www.wholefoodsmarket.com/stores/haightstreet"}}, {"type": "way", "id": 231656266, "nodes": [2399950838, 2399950826, 2399950876, 2282681700, 2282681693, 275513434, 2399950838], "tags": {"addr:city": "San Francisco", "addr:housenumber": "3350", "addr:postcode": "94110", "addr:street": "Mission Street", "brand": "Safeway", "brand:wikidata": "Q1508234", "brand:wikipedia": "en:Safeway Inc.", "building": "yes", "designation": "Safeway 0739", "height": "7", "name": "Safeway", "opening_hours": "24/7", "ref": "0739", "shop": "supermarket", "website": "https://local.safeway.com/ca/san-francisco-739.html", "wheelchair": "yes"}}, {"type": "way", "id": 232290752, "nodes": [2406528006, 2406528007, 2406528008, 8038228057, 2406528009, 2406528010, 2406528011, 2406528006], "tags": {"addr:housenumber": "237;247;265", "addr:street": "East 18th Street", "brand": "Lucky", "brand:wikidata": "Q6698032", "brand:wikipedia": "en:Lucky Stores", "building": "yes", "name": "Lucky", "shop": "supermarket"}}, {"type": "way", "id": 236495188, "nodes": [2445180639, 2445180640, 2445180641, 2445180642, 2445180643, 2445180644, 2445180645, 2445180646, 2445180639], "tags": {"addr:housenumber": "3501", "addr:street": "MacArthur Boulevard", "building": "retail", "contact:phone": "+1-510-482-8178", "name": "Farmer Joe's", "opening_hours": "Mo-Fr 09:00-20:00; Sa-Su 9:00-19:30", "organic": "yes", "shop": "supermarket", "website": "http://farmerjoesmarketplace.com/"}}, {"type": "way", "id": 237058109, "nodes": [2450063797, 2450063800, 7237651194, 7237603060, 2450063798, 7237603062, 7237603080, 7237603046, 2450063801, 7237651196, 7237603078, 2450063797], "tags": {"addr:housenumber": "730", "addr:street": "Buena Vista Avenue", "brand": "Grocery Outlet", "brand:wikidata": "Q5609934", "brand:wikipedia": "en:Grocery Outlet", "building": "yes", "name": "Grocery Outlet", "official_name": "Grocery Outlet Bargain Market", "shop": "supermarket"}}, {"type": "way", "id": 239731316, "nodes": [2475068231, 2475068233, 2475068222, 2475068228, 2475068218, 2475068230, 2475068224, 2475068220, 2475068227, 2475068225, 2475068231], "tags": {"addr:housenumber": "555", "addr:postcode": "94577", "addr:street": "Bancroft Avenue", "branch": "0790", "brand": "Safeway", "brand:wikidata": "Q1508234", "brand:wikipedia": "en:Safeway Inc.", "building": "yes", "designation": "Safeway 0790", "name": "Safeway", "opening_hours": "06:00-24:00", "shop": "supermarket", "website": "https://local.safeway.com/ca/san-leandro-790.html"}}, {"type": "way", "id": 240470243, "nodes": [2482042075, 2482042077, 2482042079, 2482042082, 2482042081, 2482042068, 2482042062, 2482042067, 2482042060, 2482042078, 2482042064, 2482042069, 2482042075], "tags": {"addr:housenumber": "1421", "addr:postcode": "94564", "addr:street": "Tara Hills Drive", "branch": "1714", "brand": "Safeway", "brand:wikidata": "Q1508234", "brand:wikipedia": "en:Safeway Inc.", "building": "yes", "designation": "Safeway 1714", "name": "Safeway", "opening_hours": "06:00-24:00", "shop": "supermarket", "website": "https://local.safeway.com/ca/pinole-1714.html"}}, {"type": "way", "id": 241077434, "nodes": [2487698412, 2487698399, 2487698415, 2487698386, 2487698383, 2487698392, 2487698409, 2487698418, 2487698402, 2487698396, 2487698406, 2487698379, 2487698420, 2487698389, 2487698412], "tags": {"addr:housenumber": "4100", "addr:postcode": "94619", "addr:street": "Redwood Road", "branch": "0638", "brand": "Safeway", "brand:wikidata": "Q1508234", "brand:wikipedia": "en:Safeway Inc.", "building": "yes", "designation": "Safeway 0638", "name": "Safeway", "opening_hours": "06:00-24:00", "shop": "supermarket", "website": "https://local.safeway.com/ca/oakland-638.html"}}, {"type": "way", "id": 241080851, "nodes": [2487709699, 2487709689, 2487709695, 2487709700, 2487709701, 2487709696, 2487709690, 2487709698, 2487709693, 2240227554, 2240227436, 2487709694, 2487709692, 2487709688, 2487709697, 2487709691, 2487709699], "tags": {"addr:housenumber": "3747", "addr:postcode": "94610", "addr:street": "Grand Avenue", "branch": "1119", "brand": "Safeway", "brand:wikidata": "Q1508234", "brand:wikipedia": "en:Safeway Inc.", "building": "yes", "designation": "Safeway 1119", "name": "Safeway", "opening_hours": "06:00-24:00", "shop": "supermarket", "website": "https://local.safeway.com/ca/oakland-1119.html"}}, {"type": "way", "id": 243571748, "nodes": [2509602439, 2509602403, 2509602395, 2509602338, 2509602414, 2509602452, 2509602439], "tags": {"addr:city": "San Francisco", "addr:country": "US", "addr:housenumber": "1201", "addr:postcode": "94103", "addr:street": "Howard Street", "building": "yes", "name": "Unimart", "phone": "415-431-0362", "shop": "supermarket", "survey:date": "2013-12-16", "website": "https://plus.google.com/115022724622950373845/about?gl=us&hl=en"}}, {"type": "way", "id": 252243906, "nodes": [2583430151, 2583430202, 2583430177, 2583430076, 2583430069, 2583430157, 2583430101, 2583430172, 2583430187, 2583430063, 2583430159, 2583430146, 2583430078, 2583430058, 2583430151], "tags": {"addr:housenumber": "1355", "addr:postcode": "94556", "addr:street": "Moraga Way", "brand": "Safeway", "brand:wikidata": "Q1508234", "brand:wikipedia": "en:Safeway Inc.", "building": "retail", "designation": "Safeway 0969", "name": "Safeway", "opening_hours": "24/7", "ref": "0969", "shop": "supermarket", "website": "https://local.safeway.com/safeway/ca/moraga/1355-moraga-way.html"}}, {"type": "way", "id": 252697441, "nodes": [2587325184, 2587325160, 2587325153, 2587325168, 6611850458, 2587325202, 2587325173, 2587325187, 2587325186, 2587325204, 2587325189, 2587325154, 2587325184], "tags": {"brand": "Safeway", "brand:wikidata": "Q1508234", "brand:wikipedia": "en:Safeway Inc.", "building": "yes", "name": "Safeway", "shop": "supermarket"}}, {"type": "way", "id": 252728826, "nodes": [4569376405, 2587664452, 2587664494, 2587664484, 2587664488, 2587664444, 2587664485, 2587664478, 2587664507, 2587664518, 2587664433, 2587664502, 2587664493, 2587664453, 2587664441, 2587664447, 2587664492, 2587664432, 2587664499, 2587664512, 2587664476, 2587664490, 2587664455, 4569376405], "tags": {"brand": "Whole Foods Market", "brand:wikidata": "Q1809448", "brand:wikipedia": "en:Whole Foods Market", "building": "yes", "name": "Whole Foods Market", "shop": "supermarket"}}, {"type": "way", "id": 256663080, "nodes": [2623001667, 2623001668, 2623001669, 2623001670, 2623001671, 2623001672, 2623001673, 2623001674, 2623001675, 2623001676, 2623001677, 2623001678, 2623001679, 2623001680, 2623001681, 2623001682, 2623001683, 2623001684, 2623001685, 2623001686, 2623001687, 2623001688, 2623001689, 2623001667], "tags": {"addr:housenumber": "2531;2611", "addr:street": "Blanding Avenue", "building": "yes", "name": "Nob Hill Foods", "shop": "supermarket"}}, {"type": "way", "id": 256912288, "nodes": [2625322054, 2625322057, 2625322074, 2625322059, 2625322060, 2625322054], "tags": {"addr:city": "San Francisco", "addr:housenumber": "755", "addr:postcode": "94127", "addr:street": "Portola Drive", "building": "retail", "height": "6", "name": "Miraloma Market", "shop": "supermarket"}}, {"type": "way", "id": 258157210, "nodes": [2635592120, 2635592186, 2635592188, 2635592271, 2635592278, 2635592241, 2635592243, 2635592146, 2635592150, 2635592122, 2635592106, 2635592104, 2635592116, 2635592110, 2635592120], "tags": {"addr:city": "San Francisco", "addr:housenumber": "2918", "addr:state": "CA", "addr:street": "24th Street", "building": "yes", "height": "9", "name": "Lo-cost Meat Market", "shop": "supermarket"}}, {"type": "way", "id": 260194579, "nodes": [2683767278, 2683767180, 2683767168, 2683767151, 2683767212, 2683767211, 2683767244, 2683767249, 2683767259, 2683767268, 2683767278], "tags": {"addr:city": "San Francisco", "addr:housenumber": "782", "addr:postcode": "94118", "addr:state": "CA", "addr:street": "Arguello Boulevard", "building": "commercial", "building:levels": "1", "height": "5", "name": "Arguello Market", "opening_hours": "Mo-Sa 07:30-20:00; Su 07:30-19:00; PH closed", "shop": "supermarket"}}, {"type": "way", "id": 260925348, "nodes": [2665234939, 2665234938, 2665234969, 2665234978, 2665234954, 2665234948, 2665234939], "tags": {"addr:housenumber": "686", "addr:street": "Sacramento Street", "building": "yes", "name": "Canton Bazaar", "shop": "supermarket"}}, {"type": "way", "id": 260930249, "nodes": [2665287350, 2665287342, 2665287363, 2665287365, 2665287350], "tags": {"addr:city": "San Francisco", "addr:housenumber": "145", "addr:postcode": "94111", "addr:state": "CA", "addr:street": "Jackson Street", "brand": "Safeway", "brand:wikidata": "Q1508234", "brand:wikipedia": "en:Safeway Inc.", "building": "yes", "ele": "0", "height": "13", "name": "Safeway", "opening_hours": "06:00-21:00", "phone": "+1 415 982 3112", "ref": "4601", "shop": "supermarket", "website": "https://local.safeway.com/ca/san-francisco-4601.html", "wheelchair": "yes"}}, {"type": "way", "id": 260967541, "nodes": [2665667343, 2665667345, 2665667338, 2665667337, 2665667343], "tags": {"addr:city": "San Francisco", "addr:housenumber": "775;779", "addr:postcode": "94133", "addr:state": "CA", "addr:street": "Vallejo Street", "atm": "no", "building": "yes", "building:levels": "2", "height": "8", "name": "Chef Bowl, Inc.", "phone": "415-398-3288", "shop": "supermarket", "source": "Observation"}}, {"type": "way", "id": 261292750, "nodes": [2669246260, 2669246322, 2669246258, 2669246227, 2669246223, 2669246205, 2669246202, 2669246260], "tags": {"addr:housename": "Bi-Rite Market", "addr:housenumber": "550", "addr:postcode": "94117", "addr:street": "Divisadero Street", "building": "yes", "name": "Bi-Rite Market", "shop": "supermarket", "website": "https://biritemarket.com/"}}, {"type": "way", "id": 263224863, "nodes": [2688485805, 2688485788, 2688485786, 2688485804, 2688485805], "tags": {"addr:city": "San Francisco", "addr:country": "US", "addr:housenumber": "2435", "addr:state": "CA", "addr:street": "California Street", "building": "yes", "height": "9", "name": "Mollie Stone's", "phone": "415-567-4902", "shop": "supermarket", "wheelchair": "yes"}}, {"type": "way", "id": 264202048, "nodes": [2698582720, 2727093303, 2727093305, 2727093291, 2727093287, 2727093284, 2727093289, 2698582723, 2727093294, 2727093337, 2727093339, 2698582720], "tags": {"addr:city": "San Francisco", "addr:housenumber": "500", "addr:postcode": "94122", "addr:street": "Kirkham Street", "building": "commercial", "height": "7", "name": "Roxie\u2019s Market & Deli", "opening_hours": "Mo-Su 08:00-20:00", "shop": "supermarket"}}, {"type": "way", "id": 264371887, "nodes": [2700575711, 2700575714, 2700575441, 2700575437, 2700575435, 2700575683, 2700575702, 2700575711], "tags": {"addr:housename": "Haight Street Market", "addr:housenumber": "1530", "addr:postcode": "94117", "addr:street": "Haight Street", "building": "yes", "designation": "Grocery, product, deli, meats and fish", "height": "6", "name": "Haight Street Market", "opening_hours": "Mo-Su 07:00-21:30", "shop": "supermarket", "source": "first hand knwledge", "website": "http://www.haightstreetmarket.com"}}, {"type": "way", "id": 264645161, "nodes": [2703036827, 2703036830, 2703036875, 2703036878, 2703036799, 2703036791, 2703036793, 2703036789, 2703036827], "tags": {"addr:city": "San Francisco", "addr:country": "US", "addr:housenumber": "960", "addr:postcode": "94117", "addr:state": "CA", "addr:street": "Cole Street", "building": "retail", "height": "5", "name": "Luke's Local", "opening_hours": "Mo-Su 08:00-21:00", "payment:cash": "yes", "payment:credit_cards": "yes", "shop": "supermarket"}}, {"type": "way", "id": 267058181, "nodes": [2725394721, 2725394724, 2725394725, 2725394726, 2725394716, 2725394715, 2725394718, 2725394717, 2725394714, 2725394713, 2725394721]}, {"type": "way", "id": 267058182, "nodes": [2725394722, 2725394723, 2725394720, 2725394719, 2725394722]}, {"type": "way", "id": 273331515, "nodes": [2781967169, 2781967135, 2781967134, 2781967133, 2781967130, 2781967131, 2781967165, 2781967167, 2781967169], "tags": {"addr:housenumber": "3445", "addr:street": "California Street", "building": "yes", "height": "7", "name": "Bryan's Grocery", "shop": "supermarket"}}, {"type": "way", "id": 276546465, "nodes": [2811437045, 7071730545, 7071730541, 7071730546, 2811437054, 7071730544, 7071730543, 2811437047, 2811437034, 2811437045], "tags": {"addr:city": "San Francisco", "addr:country": "US", "addr:housenumber": "635", "addr:postcode": "94127", "addr:state": "CA", "addr:street": "Portola Drive", "alt_name": "Tower Market", "building": "retail", "building:levels": "1", "height": "7", "name": "Mollie Stone's", "opening_hours": "07:00-21:00", "shop": "supermarket", "wheelchair": "yes"}}, {"type": "way", "id": 276623337, "nodes": [2812136441, 2812136442, 2812136422, 2812136420, 2812136418, 2812136430, 2812136438, 2812136441], "tags": {"addr:city": "San Francisco", "addr:country": "US", "addr:housenumber": "2101", "addr:postcode": "94122", "addr:state": "CA", "addr:street": "Irving Street", "building": "yes", "height": "7", "name": "22nd & Irving Market", "shop": "supermarket"}}, {"type": "way", "id": 277743066, "nodes": [2822033316, 2822033315, 2822037996, 2822033317, 10028455855, 2822033316], "tags": {"addr:city": "San Francisco", "addr:housenumber": "2815", "addr:postcode": "94131", "addr:street": "Diamond Street", "building": "commercial", "level": "1", "name": "Canyon Market", "phone": "+1 415 586 9999", "shop": "supermarket", "smoking": "no", "website": "http://www.canyonmarket.com/"}}, {"type": "way", "id": 278909610, "nodes": [2831987363, 2831987362, 2831987506, 2831987511, 2831987507, 2831987365, 2831987363], "tags": {"addr:city": "San Francisco", "addr:country": "US", "addr:housenumber": "555", "addr:postcode": "94116", "addr:state": "CA", "addr:street": "Taraval Street", "building": "yes", "height": "6", "name": "Parkside Farmers Market", "opening_hours": "Mo-Sa 07:00-19:00; Su 07:00-18:00", "shop": "supermarket", "website": "http://www.parksidefarmersmarket.com/"}}, {"type": "way", "id": 293604057, "nodes": [2972235799, 310601138, 310601139, 2282804190, 310601153, 310601154, 310601156, 310601157, 310601158, 310601159, 7762107212, 2922201529, 2972235799], "tags": {"addr:city": "San Francisco", "addr:housenumber": "2300", "addr:postcode": "94102", "addr:street": "16th Street", "addr:unit": "203", "brand": "Safeway", "brand:wikidata": "Q1508234", "brand:wikipedia": "en:Safeway Inc.", "building": "retail", "designation": "Safeway 1490", "name": "Safeway", "opening_hours": "24/7", "shop": "supermarket", "website": "https://local.safeway.com/ca/san-francisco-1490.html"}}, {"type": "way", "id": 294213897, "nodes": [3574958425, 2977764837, 2977764836, 5629883548, 5629883547, 2977763531, 2977763532, 2977764834, 2977764835, 3574958424, 4721943052, 4721943034, 3574958425], "tags": {"addr:housenumber": "1025", "addr:street": "Gilman Street", "brand": "Whole Foods Market", "brand:wikidata": "Q1809448", "brand:wikipedia": "en:Whole Foods Market", "building": "retail", "drinking_water": "yes", "name": "Whole Foods Market", "opening_hours": "Mo-Su 08:00-22:00", "phone": "(510) 809-8293", "ref": "1627736", "shop": "supermarket", "toilets": "yes", "toilets:disposal": "flush", "toilets:wheelchair": "yes", "website": "https://www.wholefoodsmarket.com/stores/gilman", "wheelchair": "yes"}}, {"type": "way", "id": 310635103, "nodes": [3160895133, 3160895137, 3160895138, 3160895142, 3160895143, 3160895136, 3160895139, 3160895140, 3160895141, 3160895129, 3160895128, 3160895123, 4712468080, 3160895121, 3160895125, 3160895124, 3160895127, 3160895126, 3160895132, 3160895131, 3160895120, 3160895119, 3160895133], "tags": {"addr:city": "Berkeley", "addr:housenumber": "1550", "addr:postcode": "94709", "addr:state": "CA", "addr:street": "Shattuck Avenue", "brand": "Safeway", "brand:wikidata": "Q1508234", "brand:wikipedia": "en:Safeway Inc.", "building": "retail", "building:levels": "2", "name": "Andronico's", "old_name": "Safeway Community Markets", "opening_hours": "Mo-Su 07:00-22:00", "organic": "yes", "phone": "+1 510 8413042", "shop": "supermarket", "website": "https://local.andronicos.com/ca/berkeley/1550-shattuck-ave.html", "wheelchair": "yes"}}, {"type": "way", "id": 311006345, "nodes": [3165311986, 3165311987, 3165311988, 5771926094, 3165311990, 3165311991, 5771926087, 3165311992, 5771926088, 3165311993, 5771926089, 5771926090, 3165311986], "tags": {"addr:housenumber": "1630", "addr:street": "High Street", "building": "yes", "name": "Cardenas Market", "shop": "supermarket"}}, {"type": "way", "id": 312196450, "nodes": [3180422129, 4174545090, 4126626223, 8895540892, 3180422130, 4126626222, 4126626224, 9273452064, 4126626225, 9273452071, 4126626226, 9273452095, 3180422131, 8895540902, 3180422132, 8895540897, 4174545093, 8895540901, 4174545092, 3180422129], "tags": {"addr:housenumber": "3001;3015;3025;3039", "addr:street": "Broadway", "alt_name": "Shops at Broadway", "brand": "Sprouts Farmers Market", "brand:wikidata": "Q7581369", "brand:wikipedia": "en:Sprouts Farmers Market", "building": "yes", "comments": "store open as of 1-13-2016, building footprint is rough and needs to be updated", "name": "Sprouts Farmers Market", "opening_hours": "Mo-Su 07:00-22:00", "shop": "supermarket", "short_name": "Sprouts", "source": "Bing", "website": "https://www.sprouts.com/store/ca/oakland/oakland/"}}, {"type": "way", "id": 313513853, "nodes": [3195111220, 3195111221, 3195111222, 3195111223, 3195111224, 3195111225, 3195111220], "tags": {"addr:housenumber": "5720", "addr:street": "Avenal Avenue", "building": "yes", "name": "Shop Rite", "shop": "supermarket"}}, {"type": "way", "id": 315837049, "nodes": [3219685777, 3219685778, 3219685779, 3219685780, 4645989556, 4645986269, 4645955855, 4645959241, 4645967629, 3219685782, 3219685783, 4645971892, 4645958669, 4645971020, 4645979905, 4645985997, 4645989284, 4645950883, 4645980977, 3219685784, 3219685777], "tags": {"building": "yes", "name": "Foods Co", "shop": "supermarket"}}, {"type": "way", "id": 347004781, "nodes": [3534516491, 3534516492, 3534518093, 3534518094, 3534516491], "tags": {"addr:city": "Oakland", "addr:housenumber": "2758", "addr:postcode": "94601", "addr:state": "CA", "addr:street": "Fruitvale Avenue", "building": "produce", "building_1": "Groceries", "building_2": "grocery", "check_date": "2022-10-31", "name": "Mi Tierra Super Mercado", "opening_hours": "07:00-20:30", "payment:mastercard": "yes", "payment:visa": "yes", "shop": "supermarket", "wheelchair": "yes"}}, {"type": "way", "id": 362487046, "nodes": [3667870602, 3667870603, 4701043047, 3667870605, 3667870604, 3667870602], "tags": {"addr:city": "Oakland", "addr:housenumber": "1440", "addr:postcode": "94602", "addr:street": "Leimert Boulevard", "building": "yes", "contact:phone": "+1-510-482-2474", "contact:website": "http://www.rockysmarket.com/", "name": "Rocky's Market", "opening_hours": "08:00-20:00", "shop": "supermarket", "source": "Personal Knowledge"}}, {"type": "way", "id": 385784130, "nodes": [3891179927, 3891179939, 9813443099, 3891179930, 3891180463, 3891179927], "tags": {"addr:city": "Richmond", "addr:housenumber": "2131", "addr:postcode": "94801", "building": "supermarket", "name": "La Raza Market", "shop": "supermarket"}}, {"type": "way", "id": 385787424, "nodes": [3891213377, 3891213347, 4748373218, 3891213327, 3891213340, 3891213348, 3891213361, 4746989718, 4746989110, 3891213329, 3891213304, 3891213358, 3891213364, 3891213384, 3891213341, 3891213353, 3891213359, 3891213377], "tags": {"brand": "Grocery Outlet", "brand:wikidata": "Q5609934", "brand:wikipedia": "en:Grocery Outlet", "building": "retail", "name": "Grocery Outlet", "official_name": "Grocery Outlet Bargain Market", "shop": "supermarket"}}, {"type": "way", "id": 390267883, "nodes": [3934277214, 3934277175, 3934277289, 3934275723, 3934277251, 4646062424, 3934277199, 3934277214], "tags": {"addr:housenumber": "9509;9521", "addr:street": "International Boulevard", "building": "yes", "name": "Super Mercado Mi Tierra", "shop": "supermarket", "source": "Bing"}}, {"type": "way", "id": 390267900, "nodes": [3934277299, 3934277250, 3934275742, 3934277212, 3934277288, 3934277197, 3934277159, 3934277201, 3934277299], "tags": {"addr:housenumber": "9520;9526", "addr:street": "International Boulevard", "building": "yes", "name": "Super Mercado Mi Tierra", "shop": "supermarket", "source": "Bing"}}, {"type": "way", "id": 390271194, "nodes": [4673726085, 4673726084, 3934305711, 3934305664, 3934305719, 3934330573, 4673726085], "tags": {"addr:housenumber": "4117", "addr:street": "International Boulevard", "brand": "Smart & Final", "brand:wikidata": "Q7543916", "brand:wikipedia": "en:Smart & Final", "building": "yes", "name": "Smart & Final Extra!", "shop": "supermarket", "source": "Bing"}}, {"type": "way", "id": 390271195, "nodes": [3934305692, 3934305701, 3934305727, 3934305721, 3934305692], "tags": {"building": "yes", "name": "Super Mercado Mi Tierra", "shop": "supermarket", "source": "Bing"}}, {"type": "way", "id": 413745324, "nodes": [4150095166, 4150095167, 4150095168, 4150095169, 4150095166], "tags": {"addr:city": "Sausalito", "addr:housenumber": "221", "addr:postcode": "94965", "addr:state": "CA", "addr:street": "2nd Street", "building": "yes", "name": "Golden Gate Market", "opening_hours": "Mo-Sa 08:00-21:00; Su 09:00-19:00", "shop": "supermarket", "website": "http://www.rntl.net/goldengatemarket.htm"}}, {"type": "way", "id": 432920118, "nodes": [4318478528, 4318478491, 8947382610, 8947382609, 8947382608, 8947382607, 4318478520, 4318478521, 4318478528], "tags": {"brand": "Safeway", "brand:wikidata": "Q1508234", "brand:wikipedia": "en:Safeway Inc.", "building": "yes", "name": "Safeway", "opening_hours": "Mo-Su 05:00-01:00", "shop": "supermarket", "source": "Bing", "website": "https://local.safeway.com/safeway/ca/alameda/2600-5th-st.html?m"}}, {"type": "way", "id": 464466004, "nodes": [4595680172, 4595680173, 4595680174, 4595680175, 4595680172], "tags": {"addr:city": "Oakland", "addr:housenumber": "2314", "addr:postcode": "94601", "addr:state": "CA", "addr:street": "High Street", "building": "yes", "name": "Island Market", "shop": "supermarket"}}, {"type": "way", "id": 473154239, "nodes": [4673189822, 4673189819, 4673189761, 4673189759, 4673189820, 4673189821, 4673189784, 4673189785, 4673189822], "tags": {"addr:city": "Oakland", "addr:housenumber": "1536", "addr:postcode": "94606", "addr:state": "CA", "addr:street": "23rd Avenue", "building": "retail", "name": "El Ranchito Market", "shop": "supermarket"}}, {"type": "way", "id": 503144637, "nodes": [4934810052, 4934810053, 4934810054, 4934810055, 4934810056, 2095919655, 4934810057, 2095938862, 4934810058, 4934810059, 4934810060, 4934810052], "tags": {"addr:city": "San Francisco", "addr:housenumber": "4175", "addr:postcode": "94112", "addr:state": "CA", "addr:street": "Mission Street", "building": "yes", "name": "Manila Oriental Market", "opening_hours": "Mo-Sa 08:30-20:30, Su 08:00-20:30", "phone": "1-415-337-7272", "shop": "supermarket"}}, {"type": "way", "id": 503427028, "nodes": [3088427374, 2634481110, 2634481119, 2634481133, 2634481139, 4937396411, 4937396412, 4937396413, 4937396414, 4937396415, 4937396416, 3088427373, 3088427374], "tags": {"addr:city": "San Francisco", "addr:housenumber": "1245", "addr:postcode": "94110", "addr:state": "CA", "addr:street": "South Van Ness Avenue", "brand": "Grocery Outlet", "brand:wikidata": "Q5609934", "brand:wikipedia": "en:Grocery Outlet", "building": "yes", "name": "Grocery Outlet", "official_name": "Grocery Outlet Bargain Market", "opening_hours": "Mo-Su 08:00-20:00", "phone": "+1-415-872-7170", "shop": "supermarket", "website": "https://groceryoutlet.com/circulars/storeid/306"}}, {"type": "way", "id": 624596716, "nodes": [2795274984, 2795274986, 2795274993, 2795274985, 6110410544, 6110410528, 2795274955, 2795274954, 2795274951, 2795274950, 2795274949, 2795274945, 2795274944, 2795274964, 2795274963, 2795274984], "tags": {"name": "Richmond New May Wah Supermarket", "name:zh": "\u65b0\u7f8e\u83ef\u8d85\u7d1a\u5e02\u5834", "shop": "supermarket"}}, {"type": "way", "id": 775827045, "nodes": [899912771, 6597795938, 6597795937, 6597795940, 6597795941, 6597795942, 6597795943, 6597795945, 9634295932, 6597795934, 6597795935, 443521352, 443521343, 899912771], "tags": {"addr:housenumber": "230", "addr:postcode": "94612", "addr:street": "Bay Place", "brand": "Whole Foods Market", "brand:wikidata": "Q1809448", "brand:wikipedia": "en:Whole Foods Market", "building": "supermarket", "building:levels": "2", "historic": "building", "historic:alt_name": "Piedmont Consolidated Cable Company Powerhouse and Car Barn", "historic:name": "Cox Cadillac Showroom", "name": "Whole Foods Market", "opening_hours": "Mo-Su 08:00-22:00", "phone": "+1 (510) 834-9800", "shop": "supermarket", "start_date": "1890", "website": "https://www.wholefoodsmarket.com/stores/oakland", "wheelchair": "yes"}}, {"type": "way", "id": 1105289817, "nodes": [4485989999, 10114600546, 411910256, 411910255, 4485989999], "tags": {"addr:city": "San Francisco", "addr:housenumber": "1355", "addr:postcode": "94103", "addr:state": "CA", "addr:street": "Market Street", "addr:unit": "100", "alt_name": "Market on Market", "fixme": "Needs survey for interior vendors.", "level": "0", "name": "The Market", "opening_hours": "09:00-20:00", "phone": "+1 415-767-5130", "shop": "supermarket", "website": "https://www.visitthemarket.com/"}}, {"type": "relation", "id": 3585039, "members": [{"type": "way", "ref": 267058181, "role": "outer"}, {"type": "way", "ref": 267058182, "role": "inner"}], "tags": {"addr:city": "San Francisco", "addr:country": "US", "addr:housenumber": "1200", "addr:postcode": "94122", "addr:state": "CA", "addr:street": "Irving Street", "building": "retail", "building:levels": "1", "name": "Andronico's Community Market", "opening_hours": "Mo-Su 07:00-22:00", "shop": "supermarket", "type": "multipolygon"}}]}